{"type":"FeatureCollection","features":[{"type":"Feature","id":"equipamento_bombeiros_v2.150001","geometry":{"type":"Point","coordinates":[324997.7892,7378044.7281]},"geometry_name":"ge_ponto","properties":{"cd_identificador":150001,"cd_identificador_tema_equipamento":7,"nm_tema_equipamento":"SEGURANCA","cd_identificador_rede_equipamento":0,"nm_rede_equipamento":"SEM REDE","tx_rede_equipamento":"Sem descrição","cd_identificador_tipo_equipamento":0,"nm_tipo_equipamento":"SEM TIPO","tx_tipo_equipamento":"SEM TIPO","cd_identificador_classe_equipamento":3,"nm_classe_equipamento":"BOMBEIRO","tx_classe_equipamento":"BOMBEIRO","cd_identificador_esfera_administrativa_equipamento":0,"nm_esfera_administrativa_equipamento":"SEM ESFERA","tx_esfera_administrativa_equipamento":"Sem descrição","cd_equipamento":null,"nm_equipamento":"SP - GUARAPIRANGA AQUATICO","tx_endereco_equipamento":"AVENIDA ATLANTICA 3686","nm_bairro_equipamento":null,"cd_cep_equipamento":"04772001","tx_horario_funcionamento":null,"tx_numero_telefone":null,"cd_equipamento_base_origem":null}},{"type":"Feature","id":"equipamento_bombeiros_v2.150002","geometry":{"type":"Point","coordinates":[330347.726,7386134.8345]},"geometry_name":"ge_ponto","properties":{"cd_identificador":150002,"cd_identificador_tema_equipamento":7,"nm_tema_equipamento":"SEGURANCA","cd_identificador_rede_equipamento":0,"nm_rede_equipamento":"SEM REDE","tx_rede_equipamento":"Sem descrição","cd_identificador_tipo_equipamento":0,"nm_tipo_equipamento":"SEM TIPO","tx_tipo_equipamento":"SEM TIPO","cd_identificador_classe_equipamento":3,"nm_classe_equipamento":"BOMBEIRO","tx_classe_equipamento":"BOMBEIRO","cd_identificador_esfera_administrativa_equipamento":0,"nm_esfera_administrativa_equipamento":"SEM ESFERA","tx_esfera_administrativa_equipamento":"Sem descrição","cd_equipamento":null,"nm_equipamento":"SP - CAMPO BELO","tx_endereco_equipamento":"RUA RAFAEL IORIO 130","nm_bairro_equipamento":null,"cd_cep_equipamento":"04615050","tx_horario_funcionamento":null,"tx_numero_telefone":null,"cd_equipamento_base_origem":null}},{"type":"Feature","id":"equipamento_bombeiros_v2.150003","geometry":{"type":"Point","coordinates":[338075.0846,7396282.0775]},"geometry_name":"ge_ponto","properties":{"cd_identificador":150003,"cd_identificador_tema_equipamento":7,"nm_tema_equipamento":"SEGURANCA","cd_identificador_rede_equipamento":0,"nm_rede_equipamento":"SEM REDE","tx_rede_equipamento":"Sem descrição","cd_identificador_tipo_equipamento":0,"nm_tipo_equipamento":"SEM TIPO","tx_tipo_equipamento":"SEM TIPO","cd_identificador_classe_equipamento":3,"nm_classe_equipamento":"BOMBEIRO","tx_classe_equipamento":"BOMBEIRO","cd_identificador_esfera_administrativa_equipamento":0,"nm_esfera_administrativa_equipamento":"SEM ESFERA","tx_esfera_administrativa_equipamento":"Sem descrição","cd_equipamento":null,"nm_equipamento":"SP - BELEM","tx_endereco_equipamento":"AVENIDA CELSO GARCIA 2725","nm_bairro_equipamento":null,"cd_cep_equipamento":"03064100","tx_horario_funcionamento":null,"tx_numero_telefone":null,"cd_equipamento_base_origem":null}},{"type":"Feature","id":"equipamento_bombeiros_v2.150004","geometry":{"type":"Point","coordinates":[335063.9351,7393261.7402]},"geometry_name":"ge_ponto","properties":{"cd_identificador":150004,"cd_identificador_tema_equipamento":7,"nm_tema_equipamento":"SEGURANCA","cd_identificador_rede_equipamento":0,"nm_rede_equipamento":"SEM REDE","tx_rede_equipamento":"Sem descrição","cd_identificador_tipo_equipamento":0,"nm_tipo_equipamento":"SEM TIPO","tx_tipo_equipamento":"SEM TIPO","cd_identificador_classe_equipamento":3,"nm_classe_equipamento":"BOMBEIRO","tx_classe_equipamento":"BOMBEIRO","cd_identificador_esfera_administrativa_equipamento":0,"nm_esfera_administrativa_equipamento":"SEM ESFERA","tx_esfera_administrativa_equipamento":"Sem descrição","cd_equipamento":null,"nm_equipamento":"SP - CAMBUCI","tx_endereco_equipamento":"RUA JOSE BENTO 15","nm_bairro_equipamento":null,"cd_cep_equipamento":"01523030","tx_horario_funcionamento":null,"tx_numero_telefone":null,"cd_equipamento_base_origem":null}},{"type":"Feature","id":"equipamento_bombeiros_v2.150005","geometry":{"type":"Point","coordinates":[335660.3438,7390629.4335]},"geometry_name":"ge_ponto","properties":{"cd_identificador":150005,"cd_identificador_tema_equipamento":7,"nm_tema_equipamento":"SEGURANCA","cd_identificador_rede_equipamento":0,"nm_rede_equipamento":"SEM REDE","tx_rede_equipamento":"Sem descrição","cd_identificador_tipo_equipamento":0,"nm_tipo_equipamento":"SEM TIPO","tx_tipo_equipamento":"SEM TIPO","cd_identificador_classe_equipamento":3,"nm_classe_equipamento":"BOMBEIRO","tx_classe_equipamento":"BOMBEIRO","cd_identificador_esfera_administrativa_equipamento":0,"nm_esfera_administrativa_equipamento":"SEM ESFERA","tx_esfera_administrativa_equipamento":"Sem descrição","cd_equipamento":null,"nm_equipamento":"SP - IPIRANGA","tx_endereco_equipamento":"AVENIDA NAZARE 421","nm_bairro_equipamento":null,"cd_cep_equipamento":"04263000","tx_horario_funcionamento":null,"tx_numero_telefone":null,"cd_equipamento_base_origem":null}},{"type":"Feature","id":"equipamento_bombeiros_v2.150006","geometry":{"type":"Point","coordinates":[337947.6687,7390503.8123]},"geometry_name":"ge_ponto","properties":{"cd_identificador":150006,"cd_identificador_tema_equipamento":7,"nm_tema_equipamento":"SEGURANCA","cd_identificador_rede_equipamento":0,"nm_rede_equipamento":"SEM REDE","tx_rede_equipamento":"Sem descrição","cd_identificador_tipo_equipamento":0,"nm_tipo_equipamento":"SEM TIPO","tx_tipo_equipamento":"SEM TIPO","cd_identificador_classe_equipamento":3,"nm_classe_equipamento":"BOMBEIRO","tx_classe_equipamento":"BOMBEIRO","cd_identificador_esfera_administrativa_equipamento":0,"nm_esfera_administrativa_equipamento":"SEM ESFERA","tx_esfera_administrativa_equipamento":"Sem descrição","cd_equipamento":null,"nm_equipamento":"SP - VILA PRUDENTE","tx_endereco_equipamento":"RUA PINDAMONHANGABA 178","nm_bairro_equipamento":null,"cd_cep_equipamento":"03150080","tx_horario_funcionamento":null,"tx_numero_telefone":null,"cd_equipamento_base_origem":null}},{"type":"Feature","id":"equipamento_bombeiros_v2.150007","geometry":{"type":"Point","coordinates":[333403.5159,7394467.6145]},"geometry_name":"ge_ponto","properties":{"cd_identificador":150007,"cd_identificador_tema_equipamento":7,"nm_tema_equipamento":"SEGURANCA","cd_identificador_rede_equipamento":0,"nm_rede_equipamento":"SEM REDE","tx_rede_equipamento":"Sem descrição","cd_identificador_tipo_equipamento":0,"nm_tipo_equipamento":"SEM TIPO","tx_tipo_equipamento":"SEM TIPO","cd_identificador_classe_equipamento":3,"nm_classe_equipamento":"BOMBEIRO","tx_classe_equipamento":"BOMBEIRO","cd_identificador_esfera_administrativa_equipamento":0,"nm_esfera_administrativa_equipamento":"SEM ESFERA","tx_esfera_administrativa_equipamento":"Sem descrição","cd_equipamento":null,"nm_equipamento":"SP - SE","tx_endereco_equipamento":"PRACA CLOVIS BEVILACQUA 421","nm_bairro_equipamento":null,"cd_cep_equipamento":"01018001","tx_horario_funcionamento":null,"tx_numero_telefone":null,"cd_equipamento_base_origem":null}},{"type":"Feature","id":"equipamento_bombeiros_v2.150008","geometry":{"type":"Point","coordinates":[333028.8964,7389473.9957]},"geometry_name":"ge_ponto","properties":{"cd_identificador":150008,"cd_identificador_tema_equipamento":7,"nm_tema_equipamento":"SEGURANCA","cd_identificador_rede_equipamento":0,"nm_rede_equipamento":"SEM REDE","tx_rede_equipamento":"Sem descrição","cd_identificador_tipo_equipamento":0,"nm_tipo_equipamento":"SEM TIPO","tx_tipo_equipamento":"SEM TIPO","cd_identificador_classe_equipamento":3,"nm_classe_equipamento":"BOMBEIRO","tx_classe_equipamento":"BOMBEIRO","cd_identificador_esfera_administrativa_equipamento":0,"nm_esfera_administrativa_equipamento":"SEM ESFERA","tx_esfera_administrativa_equipamento":"Sem descrição","cd_equipamento":null,"nm_equipamento":"SP - VILA MARIANA","tx_endereco_equipamento":"RUA DOMINGOS DE MORAIS 2329","nm_bairro_equipamento":null,"cd_cep_equipamento":"04035000","tx_horario_funcionamento":null,"tx_numero_telefone":null,"cd_equipamento_base_origem":null}},{"type":"Feature","id":"equipamento_bombeiros_v2.150009","geometry":{"type":"Point","coordinates":[332999.3274,7383145.195]},"geometry_name":"ge_ponto","properties":{"cd_identificador":150009,"cd_identificador_tema_equipamento":7,"nm_tema_equipamento":"SEGURANCA","cd_identificador_rede_equipamento":0,"nm_rede_equipamento":"SEM REDE","tx_rede_equipamento":"Sem descrição","cd_identificador_tipo_equipamento":0,"nm_tipo_equipamento":"SEM TIPO","tx_tipo_equipamento":"SEM TIPO","cd_identificador_classe_equipamento":3,"nm_classe_equipamento":"BOMBEIRO","tx_classe_equipamento":"BOMBEIRO","cd_identificador_esfera_administrativa_equipamento":0,"nm_esfera_administrativa_equipamento":"SEM ESFERA","tx_esfera_administrativa_equipamento":"Sem descrição","cd_equipamento":null,"nm_equipamento":"SP - JABAQUARA","tx_endereco_equipamento":"AVENIDA ENGENHEIRO ARMANDO DE ARRUDA PEREIRA 3305","nm_bairro_equipamento":null,"cd_cep_equipamento":"04325000","tx_horario_funcionamento":null,"tx_numero_telefone":null,"cd_equipamento_base_origem":null}},{"type":"Feature","id":"equipamento_bombeiros_v2.150010","geometry":{"type":"Point","coordinates":[330932.0397,7394441.4709]},"geometry_name":"ge_ponto","properties":{"cd_identificador":150010,"cd_identificador_tema_equipamento":7,"nm_tema_equipamento":"SEGURANCA","cd_identificador_rede_equipamento":0,"nm_rede_equipamento":"SEM REDE","tx_rede_equipamento":"Sem descrição","cd_identificador_tipo_equipamento":0,"nm_tipo_equipamento":"SEM TIPO","tx_tipo_equipamento":"SEM TIPO","cd_identificador_classe_equipamento":3,"nm_classe_equipamento":"BOMBEIRO","tx_classe_equipamento":"BOMBEIRO","cd_identificador_esfera_administrativa_equipamento":0,"nm_esfera_administrativa_equipamento":"SEM ESFERA","tx_esfera_administrativa_equipamento":"Sem descrição","cd_equipamento":null,"nm_equipamento":"SP - CONSOLACAO","tx_endereco_equipamento":"RUA DA CONSOLACAO 1663","nm_bairro_equipamento":null,"cd_cep_equipamento":"01301100","tx_horario_funcionamento":null,"tx_numero_telefone":null,"cd_equipamento_base_origem":null}},{"type":"Feature","id":"equipamento_bombeiros_v2.150011","geometry":{"type":"Point","coordinates":[336509.3067,7386128.4728]},"geometry_name":"ge_ponto","properties":{"cd_identificador":150011,"cd_identificador_tema_equipamento":7,"nm_tema_equipamento":"SEGURANCA","cd_identificador_rede_equipamento":0,"nm_rede_equipamento":"SEM REDE","tx_rede_equipamento":"Sem descrição","cd_identificador_tipo_equipamento":0,"nm_tipo_equipamento":"SEM TIPO","tx_tipo_equipamento":"SEM TIPO","cd_identificador_classe_equipamento":3,"nm_classe_equipamento":"BOMBEIRO","tx_classe_equipamento":"BOMBEIRO","cd_identificador_esfera_administrativa_equipamento":0,"nm_esfera_administrativa_equipamento":"SEM ESFERA","tx_esfera_administrativa_equipamento":"Sem descrição","cd_equipamento":null,"nm_equipamento":"SP - SACOMA","tx_endereco_equipamento":"RUA MAX BERG 99","nm_bairro_equipamento":null,"cd_cep_equipamento":"04297020","tx_horario_funcionamento":null,"tx_numero_telefone":null,"cd_equipamento_base_origem":null}},{"type":"Feature","id":"equipamento_bombeiros_v2.150012","geometry":{"type":"Point","coordinates":[332364.2524,7396309.944]},"geometry_name":"ge_ponto","properties":{"cd_identificador":150012,"cd_identificador_tema_equipamento":7,"nm_tema_equipamento":"SEGURANCA","cd_identificador_rede_equipamento":0,"nm_rede_equipamento":"SEM REDE","tx_rede_equipamento":"Sem descrição","cd_identificador_tipo_equipamento":0,"nm_tipo_equipamento":"SEM TIPO","tx_tipo_equipamento":"SEM TIPO","cd_identificador_classe_equipamento":3,"nm_classe_equipamento":"BOMBEIRO","tx_classe_equipamento":"BOMBEIRO","cd_identificador_esfera_administrativa_equipamento":0,"nm_esfera_administrativa_equipamento":"SEM ESFERA","tx_esfera_administrativa_equipamento":"Sem descrição","cd_equipamento":null,"nm_equipamento":"SP - CAMPOS ELISEOS","tx_endereco_equipamento":"ALAMEDA BARAO DE PIRACICABA 126","nm_bairro_equipamento":null,"cd_cep_equipamento":"01216011","tx_horario_funcionamento":null,"tx_numero_telefone":null,"cd_equipamento_base_origem":null}},{"type":"Feature","id":"equipamento_bombeiros_v2.150013","geometry":{"type":"Point","coordinates":[333756.8334,7399764.7943]},"geometry_name":"ge_ponto","properties":{"cd_identificador":150013,"cd_identificador_tema_equipamento":7,"nm_tema_equipamento":"SEGURANCA","cd_identificador_rede_equipamento":0,"nm_rede_equipamento":"SEM REDE","tx_rede_equipamento":"Sem descrição","cd_identificador_tipo_equipamento":0,"nm_tipo_equipamento":"SEM TIPO","tx_tipo_equipamento":"SEM TIPO","cd_identificador_classe_equipamento":3,"nm_classe_equipamento":"BOMBEIRO","tx_classe_equipamento":"BOMBEIRO","cd_identificador_esfera_administrativa_equipamento":0,"nm_esfera_administrativa_equipamento":"SEM ESFERA","tx_esfera_administrativa_equipamento":"Sem descrição","cd_equipamento":null,"nm_equipamento":"SP - SANTANA","tx_endereco_equipamento":"AVENIDA BRAZ LEME 3351","nm_bairro_equipamento":null,"cd_cep_equipamento":"02022011","tx_horario_funcionamento":null,"tx_numero_telefone":null,"cd_equipamento_base_origem":null}},{"type":"Feature","id":"equipamento_bombeiros_v2.150014","geometry":{"type":"Point","coordinates":[338190.0354,7400121.943]},"geometry_name":"ge_ponto","properties":{"cd_identificador":150014,"cd_identificador_tema_equipamento":7,"nm_tema_equipamento":"SEGURANCA","cd_identificador_rede_equipamento":0,"nm_rede_equipamento":"SEM REDE","tx_rede_equipamento":"Sem descrição","cd_identificador_tipo_equipamento":0,"nm_tipo_equipamento":"SEM TIPO","tx_tipo_equipamento":"SEM TIPO","cd_identificador_classe_equipamento":3,"nm_classe_equipamento":"BOMBEIRO","tx_classe_equipamento":"BOMBEIRO","cd_identificador_esfera_administrativa_equipamento":0,"nm_esfera_administrativa_equipamento":"SEM ESFERA","tx_esfera_administrativa_equipamento":"Sem descrição","cd_equipamento":null,"nm_equipamento":"SP - VILA MARIA","tx_endereco_equipamento":"AVENIDA DOUTOR BENEDITO ESTEVAM DOS SANTOS 295","nm_bairro_equipamento":null,"cd_cep_equipamento":"02136000","tx_horario_funcionamento":null,"tx_numero_telefone":null,"cd_equipamento_base_origem":null}},{"type":"Feature","id":"equipamento_bombeiros_v2.150015","geometry":{"type":"Point","coordinates":[335243.8047,7402959.9454]},"geometry_name":"ge_ponto","properties":{"cd_identificador":150015,"cd_identificador_tema_equipamento":7,"nm_tema_equipamento":"SEGURANCA","cd_identificador_rede_equipamento":0,"nm_rede_equipamento":"SEM REDE","tx_rede_equipamento":"Sem descrição","cd_identificador_tipo_equipamento":0,"nm_tipo_equipamento":"SEM TIPO","tx_tipo_equipamento":"SEM TIPO","cd_identificador_classe_equipamento":3,"nm_classe_equipamento":"BOMBEIRO","tx_classe_equipamento":"BOMBEIRO","cd_identificador_esfera_administrativa_equipamento":0,"nm_esfera_administrativa_equipamento":"SEM ESFERA","tx_esfera_administrativa_equipamento":"Sem descrição","cd_equipamento":null,"nm_equipamento":"SP - TUCURUVI","tx_endereco_equipamento":"AVENIDA NOVA CANTAREIRA 2389","nm_bairro_equipamento":null,"cd_cep_equipamento":"02340000","tx_horario_funcionamento":null,"tx_numero_telefone":null,"cd_equipamento_base_origem":null}},{"type":"Feature","id":"equipamento_bombeiros_v2.150016","geometry":{"type":"Point","coordinates":[329895.4276,7398778.4564]},"geometry_name":"ge_ponto","properties":{"cd_identificador":150016,"cd_identificador_tema_equipamento":7,"nm_tema_equipamento":"SEGURANCA","cd_identificador_rede_equipamento":0,"nm_rede_equipamento":"SEM REDE","tx_rede_equipamento":"Sem descrição","cd_identificador_tipo_equipamento":0,"nm_tipo_equipamento":"SEM TIPO","tx_tipo_equipamento":"SEM TIPO","cd_identificador_classe_equipamento":3,"nm_classe_equipamento":"BOMBEIRO","tx_classe_equipamento":"BOMBEIRO","cd_identificador_esfera_administrativa_equipamento":0,"nm_esfera_administrativa_equipamento":"SEM ESFERA","tx_esfera_administrativa_equipamento":"Sem descrição","cd_equipamento":null,"nm_equipamento":"SP - CASA VERDE","tx_endereco_equipamento":"AVENIDA ORDEM E PROGRESSO 1020","nm_bairro_equipamento":null,"cd_cep_equipamento":"02518130","tx_horario_funcionamento":null,"tx_numero_telefone":null,"cd_equipamento_base_origem":null}},{"type":"Feature","id":"equipamento_bombeiros_v2.150017","geometry":{"type":"Point","coordinates":[328811.9593,7402825.5119]},"geometry_name":"ge_ponto","properties":{"cd_identificador":150017,"cd_identificador_tema_equipamento":7,"nm_tema_equipamento":"SEGURANCA","cd_identificador_rede_equipamento":0,"nm_rede_equipamento":"SEM REDE","tx_rede_equipamento":"Sem descrição","cd_identificador_tipo_equipamento":0,"nm_tipo_equipamento":"SEM TIPO","tx_tipo_equipamento":"SEM TIPO","cd_identificador_classe_equipamento":3,"nm_classe_equipamento":"BOMBEIRO","tx_classe_equipamento":"BOMBEIRO","cd_identificador_esfera_administrativa_equipamento":0,"nm_esfera_administrativa_equipamento":"SEM ESFERA","tx_esfera_administrativa_equipamento":"Sem descrição","cd_equipamento":null,"nm_equipamento":"SP - ALMANARA","tx_endereco_equipamento":"RUA INACIO XAVIER DE CARVALHO 126","nm_bairro_equipamento":null,"cd_cep_equipamento":"02865090","tx_horario_funcionamento":null,"tx_numero_telefone":null,"cd_equipamento_base_origem":null}},{"type":"Feature","id":"equipamento_bombeiros_v2.150018","geometry":{"type":"Point","coordinates":[332192.2518,7404579.6345]},"geometry_name":"ge_ponto","properties":{"cd_identificador":150018,"cd_identificador_tema_equipamento":7,"nm_tema_equipamento":"SEGURANCA","cd_identificador_rede_equipamento":0,"nm_rede_equipamento":"SEM REDE","tx_rede_equipamento":"Sem descrição","cd_identificador_tipo_equipamento":0,"nm_tipo_equipamento":"SEM TIPO","tx_tipo_equipamento":"SEM TIPO","cd_identificador_classe_equipamento":3,"nm_classe_equipamento":"BOMBEIRO","tx_classe_equipamento":"BOMBEIRO","cd_identificador_esfera_administrativa_equipamento":0,"nm_esfera_administrativa_equipamento":"SEM ESFERA","tx_esfera_administrativa_equipamento":"Sem descrição","cd_equipamento":null,"nm_equipamento":"SP - HORTO FLORESTAL","tx_endereco_equipamento":"ESTRADA DA SANTA INES 3200","nm_bairro_equipamento":null,"cd_cep_equipamento":"02639000","tx_horario_funcionamento":null,"tx_numero_telefone":null,"cd_equipamento_base_origem":null}},{"type":"Feature","id":"equipamento_bombeiros_v2.150019","geometry":{"type":"Point","coordinates":[322478.7249,7401018.3117]},"geometry_name":"ge_ponto","properties":{"cd_identificador":150019,"cd_identificador_tema_equipamento":7,"nm_tema_equipamento":"SEGURANCA","cd_identificador_rede_equipamento":0,"nm_rede_equipamento":"SEM REDE","tx_rede_equipamento":"Sem descrição","cd_identificador_tipo_equipamento":0,"nm_tipo_equipamento":"SEM TIPO","tx_tipo_equipamento":"SEM TIPO","cd_identificador_classe_equipamento":3,"nm_classe_equipamento":"BOMBEIRO","tx_classe_equipamento":"BOMBEIRO","cd_identificador_esfera_administrativa_equipamento":0,"nm_esfera_administrativa_equipamento":"SEM ESFERA","tx_esfera_administrativa_equipamento":"Sem descrição","cd_equipamento":null,"nm_equipamento":"SP - PIRITUBA","tx_endereco_equipamento":"RUA MONSENHOR CASTRO NERY 150","nm_bairro_equipamento":null,"cd_cep_equipamento":"05128010","tx_horario_funcionamento":null,"tx_numero_telefone":null,"cd_equipamento_base_origem":null}},{"type":"Feature","id":"equipamento_bombeiros_v2.150020","geometry":{"type":"Point","coordinates":[320565.0668,7409557.7415]},"geometry_name":"ge_ponto","properties":{"cd_identificador":150020,"cd_identificador_tema_equipamento":7,"nm_tema_equipamento":"SEGURANCA","cd_identificador_rede_equipamento":0,"nm_rede_equipamento":"SEM REDE","tx_rede_equipamento":"Sem descrição","cd_identificador_tipo_equipamento":0,"nm_tipo_equipamento":"SEM TIPO","tx_tipo_equipamento":"SEM TIPO","cd_identificador_classe_equipamento":3,"nm_classe_equipamento":"BOMBEIRO","tx_classe_equipamento":"BOMBEIRO","cd_identificador_esfera_administrativa_equipamento":0,"nm_esfera_administrativa_equipamento":"SEM ESFERA","tx_esfera_administrativa_equipamento":"Sem descrição","cd_equipamento":null,"nm_equipamento":"SP - PERUS","tx_endereco_equipamento":"RUA ROQUE CALLAGE 136","nm_bairro_equipamento":null,"cd_cep_equipamento":"05208170","tx_horario_funcionamento":null,"tx_numero_telefone":null,"cd_equipamento_base_origem":null}},{"type":"Feature","id":"equipamento_bombeiros_v2.150021","geometry":{"type":"Point","coordinates":[322309.3157,7405942.1797]},"geometry_name":"ge_ponto","properties":{"cd_identificador":150021,"cd_identificador_tema_equipamento":7,"nm_tema_equipamento":"SEGURANCA","cd_identificador_rede_equipamento":0,"nm_rede_equipamento":"SEM REDE","tx_rede_equipamento":"Sem descrição","cd_identificador_tipo_equipamento":0,"nm_tipo_equipamento":"SEM TIPO","tx_tipo_equipamento":"SEM TIPO","cd_identificador_classe_equipamento":3,"nm_classe_equipamento":"BOMBEIRO","tx_classe_equipamento":"BOMBEIRO","cd_identificador_esfera_administrativa_equipamento":0,"nm_esfera_administrativa_equipamento":"SEM ESFERA","tx_esfera_administrativa_equipamento":"Sem descrição","cd_equipamento":null,"nm_equipamento":"SP - JARAGUA","tx_endereco_equipamento":"RUA FRIEDRICH VON VOITH 491","nm_bairro_equipamento":null,"cd_cep_equipamento":"02995000","tx_horario_funcionamento":null,"tx_numero_telefone":null,"cd_equipamento_base_origem":null}},{"type":"Feature","id":"equipamento_bombeiros_v2.150022","geometry":{"type":"Point","coordinates":[338184.0213,7393817.085]},"geometry_name":"ge_ponto","properties":{"cd_identificador":150022,"cd_identificador_tema_equipamento":7,"nm_tema_equipamento":"SEGURANCA","cd_identificador_rede_equipamento":0,"nm_rede_equipamento":"SEM REDE","tx_rede_equipamento":"Sem descrição","cd_identificador_tipo_equipamento":0,"nm_tipo_equipamento":"SEM TIPO","tx_tipo_equipamento":"SEM TIPO","cd_identificador_classe_equipamento":3,"nm_classe_equipamento":"BOMBEIRO","tx_classe_equipamento":"BOMBEIRO","cd_identificador_esfera_administrativa_equipamento":0,"nm_esfera_administrativa_equipamento":"SEM ESFERA","tx_esfera_administrativa_equipamento":"Sem descrição","cd_equipamento":null,"nm_equipamento":"SP - ALTO DA MOOCA","tx_endereco_equipamento":"RUA DOUTOR JOAO INACIO TEIXEIRA 91","nm_bairro_equipamento":null,"cd_cep_equipamento":"03181070","tx_horario_funcionamento":null,"tx_numero_telefone":null,"cd_equipamento_base_origem":null}},{"type":"Feature","id":"equipamento_bombeiros_v2.150023","geometry":{"type":"Point","coordinates":[343859.4427,7392326.4213]},"geometry_name":"ge_ponto","properties":{"cd_identificador":150023,"cd_identificador_tema_equipamento":7,"nm_tema_equipamento":"SEGURANCA","cd_identificador_rede_equipamento":0,"nm_rede_equipamento":"SEM REDE","tx_rede_equipamento":"Sem descrição","cd_identificador_tipo_equipamento":0,"nm_tipo_equipamento":"SEM TIPO","tx_tipo_equipamento":"SEM TIPO","cd_identificador_classe_equipamento":3,"nm_classe_equipamento":"BOMBEIRO","tx_classe_equipamento":"BOMBEIRO","cd_identificador_esfera_administrativa_equipamento":0,"nm_esfera_administrativa_equipamento":"SEM ESFERA","tx_esfera_administrativa_equipamento":"Sem descrição","cd_equipamento":null,"nm_equipamento":"SP - VILA FORMOSA","tx_endereco_equipamento":"RUA CACIO DE MOURA 180","nm_bairro_equipamento":null,"cd_cep_equipamento":"03463060","tx_horario_funcionamento":null,"tx_numero_telefone":null,"cd_equipamento_base_origem":null}},{"type":"Feature","id":"equipamento_bombeiros_v2.150024","geometry":{"type":"Point","coordinates":[340270.6153,7395881.897]},"geometry_name":"ge_ponto","properties":{"cd_identificador":150024,"cd_identificador_tema_equipamento":7,"nm_tema_equipamento":"SEGURANCA","cd_identificador_rede_equipamento":0,"nm_rede_equipamento":"SEM REDE","tx_rede_equipamento":"Sem descrição","cd_identificador_tipo_equipamento":0,"nm_tipo_equipamento":"SEM TIPO","tx_tipo_equipamento":"SEM TIPO","cd_identificador_classe_equipamento":3,"nm_classe_equipamento":"BOMBEIRO","tx_classe_equipamento":"BOMBEIRO","cd_identificador_esfera_administrativa_equipamento":0,"nm_esfera_administrativa_equipamento":"SEM ESFERA","tx_esfera_administrativa_equipamento":"Sem descrição","cd_equipamento":null,"nm_equipamento":"SP - TATUAPE","tx_endereco_equipamento":"RUA APUCARANA 131","nm_bairro_equipamento":null,"cd_cep_equipamento":"03311000","tx_horario_funcionamento":null,"tx_numero_telefone":null,"cd_equipamento_base_origem":null}},{"type":"Feature","id":"equipamento_bombeiros_v2.150025","geometry":{"type":"Point","coordinates":[344986.4946,7397701.7721]},"geometry_name":"ge_ponto","properties":{"cd_identificador":150025,"cd_identificador_tema_equipamento":7,"nm_tema_equipamento":"SEGURANCA","cd_identificador_rede_equipamento":0,"nm_rede_equipamento":"SEM REDE","tx_rede_equipamento":"Sem descrição","cd_identificador_tipo_equipamento":0,"nm_tipo_equipamento":"SEM TIPO","tx_tipo_equipamento":"SEM TIPO","cd_identificador_classe_equipamento":3,"nm_classe_equipamento":"BOMBEIRO","tx_classe_equipamento":"BOMBEIRO","cd_identificador_esfera_administrativa_equipamento":0,"nm_esfera_administrativa_equipamento":"SEM ESFERA","tx_esfera_administrativa_equipamento":"Sem descrição","cd_equipamento":null,"nm_equipamento":"SP - VILA ESPERANCA","tx_endereco_equipamento":"RUA ALICANTE 522","nm_bairro_equipamento":null,"cd_cep_equipamento":"03654010","tx_horario_funcionamento":null,"tx_numero_telefone":null,"cd_equipamento_base_origem":null}},{"type":"Feature","id":"equipamento_bombeiros_v2.150026","geometry":{"type":"Point","coordinates":[349244.5975,7398464.159]},"geometry_name":"ge_ponto","properties":{"cd_identificador":150026,"cd_identificador_tema_equipamento":7,"nm_tema_equipamento":"SEGURANCA","cd_identificador_rede_equipamento":0,"nm_rede_equipamento":"SEM REDE","tx_rede_equipamento":"Sem descrição","cd_identificador_tipo_equipamento":0,"nm_tipo_equipamento":"SEM TIPO","tx_tipo_equipamento":"SEM TIPO","cd_identificador_classe_equipamento":3,"nm_classe_equipamento":"BOMBEIRO","tx_classe_equipamento":"BOMBEIRO","cd_identificador_esfera_administrativa_equipamento":0,"nm_esfera_administrativa_equipamento":"SEM ESFERA","tx_esfera_administrativa_equipamento":"Sem descrição","cd_equipamento":null,"nm_equipamento":"SP - AGUIA DE HAIA","tx_endereco_equipamento":"AVENIDA AGUIA DE HAIA 3311","nm_bairro_equipamento":null,"cd_cep_equipamento":"03694000","tx_horario_funcionamento":null,"tx_numero_telefone":null,"cd_equipamento_base_origem":null}},{"type":"Feature","id":"equipamento_bombeiros_v2.150027","geometry":{"type":"Point","coordinates":[350334.6981,7393005.1393]},"geometry_name":"ge_ponto","properties":{"cd_identificador":150027,"cd_identificador_tema_equipamento":7,"nm_tema_equipamento":"SEGURANCA","cd_identificador_rede_equipamento":0,"nm_rede_equipamento":"SEM REDE","tx_rede_equipamento":"Sem descrição","cd_identificador_tipo_equipamento":0,"nm_tipo_equipamento":"SEM TIPO","tx_tipo_equipamento":"SEM TIPO","cd_identificador_classe_equipamento":3,"nm_classe_equipamento":"BOMBEIRO","tx_classe_equipamento":"BOMBEIRO","cd_identificador_esfera_administrativa_equipamento":0,"nm_esfera_administrativa_equipamento":"SEM ESFERA","tx_esfera_administrativa_equipamento":"Sem descrição","cd_equipamento":null,"nm_equipamento":"SP - ITAQUERA","tx_endereco_equipamento":"AVENIDA OSVALDO PUCCI 154","nm_bairro_equipamento":null,"cd_cep_equipamento":"08270700","tx_horario_funcionamento":null,"tx_numero_telefone":null,"cd_equipamento_base_origem":null}},{"type":"Feature","id":"equipamento_bombeiros_v2.150028","geometry":{"type":"Point","coordinates":[356264.625,7390520.4526]},"geometry_name":"ge_ponto","properties":{"cd_identificador":150028,"cd_identificador_tema_equipamento":7,"nm_tema_equipamento":"SEGURANCA","cd_identificador_rede_equipamento":0,"nm_rede_equipamento":"SEM REDE","tx_rede_equipamento":"Sem descrição","cd_identificador_tipo_equipamento":0,"nm_tipo_equipamento":"SEM TIPO","tx_tipo_equipamento":"SEM TIPO","cd_identificador_classe_equipamento":3,"nm_classe_equipamento":"BOMBEIRO","tx_classe_equipamento":"BOMBEIRO","cd_identificador_esfera_administrativa_equipamento":0,"nm_esfera_administrativa_equipamento":"SEM ESFERA","tx_esfera_administrativa_equipamento":"Sem descrição","cd_equipamento":null,"nm_equipamento":"SP - CIDADE TIRADENTES","tx_endereco_equipamento":"AVENIDA DOS METALURGICOS 678","nm_bairro_equipamento":null,"cd_cep_equipamento":"08471000","tx_horario_funcionamento":null,"tx_numero_telefone":null,"cd_equipamento_base_origem":null}},{"type":"Feature","id":"equipamento_bombeiros_v2.150029","geometry":{"type":"Point","coordinates":[346709.0855,7388550.6877]},"geometry_name":"ge_ponto","properties":{"cd_identificador":150029,"cd_identificador_tema_equipamento":7,"nm_tema_equipamento":"SEGURANCA","cd_identificador_rede_equipamento":0,"nm_rede_equipamento":"SEM REDE","tx_rede_equipamento":"Sem descrição","cd_identificador_tipo_equipamento":0,"nm_tipo_equipamento":"SEM TIPO","tx_tipo_equipamento":"SEM TIPO","cd_identificador_classe_equipamento":3,"nm_classe_equipamento":"BOMBEIRO","tx_classe_equipamento":"BOMBEIRO","cd_identificador_esfera_administrativa_equipamento":0,"nm_esfera_administrativa_equipamento":"SEM ESFERA","tx_esfera_administrativa_equipamento":"Sem descrição","cd_equipamento":null,"nm_equipamento":"SP - SAPOPEMBA","tx_endereco_equipamento":"AVENIDA ARQUITETO VILANOVA ARTIGAS 980","nm_bairro_equipamento":null,"cd_cep_equipamento":"03928240","tx_horario_funcionamento":null,"tx_numero_telefone":null,"cd_equipamento_base_origem":null}},{"type":"Feature","id":"equipamento_bombeiros_v2.150030","geometry":{"type":"Point","coordinates":[352823.9106,7400711.5989]},"geometry_name":"ge_ponto","properties":{"cd_identificador":150030,"cd_identificador_tema_equipamento":7,"nm_tema_equipamento":"SEGURANCA","cd_identificador_rede_equipamento":0,"nm_rede_equipamento":"SEM REDE","tx_rede_equipamento":"Sem descrição","cd_identificador_tipo_equipamento":0,"nm_tipo_equipamento":"SEM TIPO","tx_tipo_equipamento":"SEM TIPO","cd_identificador_classe_equipamento":3,"nm_classe_equipamento":"BOMBEIRO","tx_classe_equipamento":"BOMBEIRO","cd_identificador_esfera_administrativa_equipamento":0,"nm_esfera_administrativa_equipamento":"SEM ESFERA","tx_esfera_administrativa_equipamento":"Sem descrição","cd_equipamento":null,"nm_equipamento":"SP - SAO MIGUEL","tx_endereco_equipamento":"AVENIDA NORDESTINA 475","nm_bairro_equipamento":null,"cd_cep_equipamento":"08011000","tx_horario_funcionamento":null,"tx_numero_telefone":null,"cd_equipamento_base_origem":null}},{"type":"Feature","id":"equipamento_bombeiros_v2.150031","geometry":{"type":"Point","coordinates":[357618.7134,7399814.8607]},"geometry_name":"ge_ponto","properties":{"cd_identificador":150031,"cd_identificador_tema_equipamento":7,"nm_tema_equipamento":"SEGURANCA","cd_identificador_rede_equipamento":0,"nm_rede_equipamento":"SEM REDE","tx_rede_equipamento":"Sem descrição","cd_identificador_tipo_equipamento":0,"nm_tipo_equipamento":"SEM TIPO","tx_tipo_equipamento":"SEM TIPO","cd_identificador_classe_equipamento":3,"nm_classe_equipamento":"BOMBEIRO","tx_classe_equipamento":"BOMBEIRO","cd_identificador_esfera_administrativa_equipamento":0,"nm_esfera_administrativa_equipamento":"SEM ESFERA","tx_esfera_administrativa_equipamento":"Sem descrição","cd_equipamento":null,"nm_equipamento":"SP - ITAIM PAULISTA","tx_endereco_equipamento":"RUA CACHOEIRA ALTA 1001","nm_bairro_equipamento":null,"cd_cep_equipamento":"08120100","tx_horario_funcionamento":null,"tx_numero_telefone":null,"cd_equipamento_base_origem":null}},{"type":"Feature","id":"equipamento_bombeiros_v2.150032","geometry":{"type":"Point","coordinates":[354560.8196,7394539.8122]},"geometry_name":"ge_ponto","properties":{"cd_identificador":150032,"cd_identificador_tema_equipamento":7,"nm_tema_equipamento":"SEGURANCA","cd_identificador_rede_equipamento":0,"nm_rede_equipamento":"SEM REDE","tx_rede_equipamento":"Sem descrição","cd_identificador_tipo_equipamento":0,"nm_tipo_equipamento":"SEM TIPO","tx_tipo_equipamento":"SEM TIPO","cd_identificador_classe_equipamento":3,"nm_classe_equipamento":"BOMBEIRO","tx_classe_equipamento":"BOMBEIRO","cd_identificador_esfera_administrativa_equipamento":0,"nm_esfera_administrativa_equipamento":"SEM ESFERA","tx_esfera_administrativa_equipamento":"Sem descrição","cd_equipamento":null,"nm_equipamento":"SP - GUAIANAZES","tx_endereco_equipamento":"AVENIDA LUIS MATEUS 1000","nm_bairro_equipamento":null,"cd_cep_equipamento":"08420585","tx_horario_funcionamento":null,"tx_numero_telefone":null,"cd_equipamento_base_origem":null}},{"type":"Feature","id":"equipamento_bombeiros_v2.150033","geometry":{"type":"Point","coordinates":[322691.3001,7390753.0022]},"geometry_name":"ge_ponto","properties":{"cd_identificador":150033,"cd_identificador_tema_equipamento":7,"nm_tema_equipamento":"SEGURANCA","cd_identificador_rede_equipamento":0,"nm_rede_equipamento":"SEM REDE","tx_rede_equipamento":"Sem descrição","cd_identificador_tipo_equipamento":0,"nm_tipo_equipamento":"SEM TIPO","tx_tipo_equipamento":"SEM TIPO","cd_identificador_classe_equipamento":3,"nm_classe_equipamento":"BOMBEIRO","tx_classe_equipamento":"BOMBEIRO","cd_identificador_esfera_administrativa_equipamento":0,"nm_esfera_administrativa_equipamento":"SEM ESFERA","tx_esfera_administrativa_equipamento":"Sem descrição","cd_equipamento":null,"nm_equipamento":"SP - BUTANTA","tx_endereco_equipamento":"RUA ZEM ABDALLA ZEM 800","nm_bairro_equipamento":null,"cd_cep_equipamento":"05593090","tx_horario_funcionamento":null,"tx_numero_telefone":null,"cd_equipamento_base_origem":null}},{"type":"Feature","id":"equipamento_bombeiros_v2.150034","geometry":{"type":"Point","coordinates":[329068.1804,7389267.0517]},"geometry_name":"ge_ponto","properties":{"cd_identificador":150034,"cd_identificador_tema_equipamento":7,"nm_tema_equipamento":"SEGURANCA","cd_identificador_rede_equipamento":0,"nm_rede_equipamento":"SEM REDE","tx_rede_equipamento":"Sem descrição","cd_identificador_tipo_equipamento":0,"nm_tipo_equipamento":"SEM TIPO","tx_tipo_equipamento":"SEM TIPO","cd_identificador_classe_equipamento":3,"nm_classe_equipamento":"BOMBEIRO","tx_classe_equipamento":"BOMBEIRO","cd_identificador_esfera_administrativa_equipamento":0,"nm_esfera_administrativa_equipamento":"SEM ESFERA","tx_esfera_administrativa_equipamento":"Sem descrição","cd_equipamento":null,"nm_equipamento":"SP - VILA OLIMPIA","tx_endereco_equipamento":"RUA HELION PÓVOA 120","nm_bairro_equipamento":null,"cd_cep_equipamento":"04546080","tx_horario_funcionamento":null,"tx_numero_telefone":null,"cd_equipamento_base_origem":null}},{"type":"Feature","id":"equipamento_bombeiros_v2.150035","geometry":{"type":"Point","coordinates":[326101.3249,7397848.7592]},"geometry_name":"ge_ponto","properties":{"cd_identificador":150035,"cd_identificador_tema_equipamento":7,"nm_tema_equipamento":"SEGURANCA","cd_identificador_rede_equipamento":0,"nm_rede_equipamento":"SEM REDE","tx_rede_equipamento":"Sem descrição","cd_identificador_tipo_equipamento":0,"nm_tipo_equipamento":"SEM TIPO","tx_tipo_equipamento":"SEM TIPO","cd_identificador_classe_equipamento":3,"nm_classe_equipamento":"BOMBEIRO","tx_classe_equipamento":"BOMBEIRO","cd_identificador_esfera_administrativa_equipamento":0,"nm_esfera_administrativa_equipamento":"SEM ESFERA","tx_esfera_administrativa_equipamento":"Sem descrição","cd_equipamento":null,"nm_equipamento":"SP - LAPA","tx_endereco_equipamento":"RUA MARTIM TENORIO 130","nm_bairro_equipamento":null,"cd_cep_equipamento":"05074060","tx_horario_funcionamento":null,"tx_numero_telefone":null,"cd_equipamento_base_origem":null}},{"type":"Feature","id":"equipamento_bombeiros_v2.150036","geometry":{"type":"Point","coordinates":[326444.8927,7392901.6236]},"geometry_name":"ge_ponto","properties":{"cd_identificador":150036,"cd_identificador_tema_equipamento":7,"nm_tema_equipamento":"SEGURANCA","cd_identificador_rede_equipamento":0,"nm_rede_equipamento":"SEM REDE","tx_rede_equipamento":"Sem descrição","cd_identificador_tipo_equipamento":0,"nm_tipo_equipamento":"SEM TIPO","tx_tipo_equipamento":"SEM TIPO","cd_identificador_classe_equipamento":3,"nm_classe_equipamento":"BOMBEIRO","tx_classe_equipamento":"BOMBEIRO","cd_identificador_esfera_administrativa_equipamento":0,"nm_esfera_administrativa_equipamento":"SEM ESFERA","tx_esfera_administrativa_equipamento":"Sem descrição","cd_equipamento":null,"nm_equipamento":"SP - PINHEIROS","tx_endereco_equipamento":"RUA SUMIDOURO 520","nm_bairro_equipamento":null,"cd_cep_equipamento":"05428010","tx_horario_funcionamento":null,"tx_numero_telefone":null,"cd_equipamento_base_origem":null}},{"type":"Feature","id":"equipamento_bombeiros_v2.150037","geometry":{"type":"Point","coordinates":[327118.2174,7385372.5386]},"geometry_name":"ge_ponto","properties":{"cd_identificador":150037,"cd_identificador_tema_equipamento":7,"nm_tema_equipamento":"SEGURANCA","cd_identificador_rede_equipamento":0,"nm_rede_equipamento":"SEM REDE","tx_rede_equipamento":"Sem descrição","cd_identificador_tipo_equipamento":0,"nm_tipo_equipamento":"SEM TIPO","tx_tipo_equipamento":"SEM TIPO","cd_identificador_classe_equipamento":3,"nm_classe_equipamento":"BOMBEIRO","tx_classe_equipamento":"BOMBEIRO","cd_identificador_esfera_administrativa_equipamento":0,"nm_esfera_administrativa_equipamento":"SEM ESFERA","tx_esfera_administrativa_equipamento":"Sem descrição","cd_equipamento":null,"nm_equipamento":"SP - SANTO AMARO","tx_endereco_equipamento":"RUA HENRI DUNANT 116","nm_bairro_equipamento":null,"cd_cep_equipamento":"04709110","tx_horario_funcionamento":null,"tx_numero_telefone":null,"cd_equipamento_base_origem":null}},{"type":"Feature","id":"equipamento_bombeiros_v2.150038","geometry":{"type":"Point","coordinates":[318747.6393,7382026.8408]},"geometry_name":"ge_ponto","properties":{"cd_identificador":150038,"cd_identificador_tema_equipamento":7,"nm_tema_equipamento":"SEGURANCA","cd_identificador_rede_equipamento":0,"nm_rede_equipamento":"SEM REDE","tx_rede_equipamento":"Sem descrição","cd_identificador_tipo_equipamento":0,"nm_tipo_equipamento":"SEM TIPO","tx_tipo_equipamento":"SEM TIPO","cd_identificador_classe_equipamento":3,"nm_classe_equipamento":"BOMBEIRO","tx_classe_equipamento":"BOMBEIRO","cd_identificador_esfera_administrativa_equipamento":0,"nm_esfera_administrativa_equipamento":"SEM ESFERA","tx_esfera_administrativa_equipamento":"Sem descrição","cd_equipamento":null,"nm_equipamento":"SP - CAPAO REDONDO","tx_endereco_equipamento":"TRAVESSA CASTANHA DO PARA 49","nm_bairro_equipamento":null,"cd_cep_equipamento":"05868730","tx_horario_funcionamento":null,"tx_numero_telefone":null,"cd_equipamento_base_origem":null}},{"type":"Feature","id":"equipamento_bombeiros_v2.150039","geometry":{"type":"Point","coordinates":[325107.6127,7378059.9489]},"geometry_name":"ge_ponto","properties":{"cd_identificador":150039,"cd_identificador_tema_equipamento":7,"nm_tema_equipamento":"SEGURANCA","cd_identificador_rede_equipamento":0,"nm_rede_equipamento":"SEM REDE","tx_rede_equipamento":"Sem descrição","cd_identificador_tipo_equipamento":0,"nm_tipo_equipamento":"SEM TIPO","tx_tipo_equipamento":"SEM TIPO","cd_identificador_classe_equipamento":3,"nm_classe_equipamento":"BOMBEIRO","tx_classe_equipamento":"BOMBEIRO","cd_identificador_esfera_administrativa_equipamento":0,"nm_esfera_administrativa_equipamento":"SEM ESFERA","tx_esfera_administrativa_equipamento":"Sem descrição","cd_equipamento":null,"nm_equipamento":"SP - GUARAPIRANGA","tx_endereco_equipamento":"AVENIDA ATLANTICA 3686","nm_bairro_equipamento":null,"cd_cep_equipamento":"04772001","tx_horario_funcionamento":null,"tx_numero_telefone":null,"cd_equipamento_base_origem":null}},{"type":"Feature","id":"equipamento_bombeiros_v2.150040","geometry":{"type":"Point","coordinates":[324971.5818,7370578.5705]},"geometry_name":"ge_ponto","properties":{"cd_identificador":150040,"cd_identificador_tema_equipamento":7,"nm_tema_equipamento":"SEGURANCA","cd_identificador_rede_equipamento":0,"nm_rede_equipamento":"SEM REDE","tx_rede_equipamento":"Sem descrição","cd_identificador_tipo_equipamento":0,"nm_tipo_equipamento":"SEM TIPO","tx_tipo_equipamento":"SEM TIPO","cd_identificador_classe_equipamento":3,"nm_classe_equipamento":"BOMBEIRO","tx_classe_equipamento":"BOMBEIRO","cd_identificador_esfera_administrativa_equipamento":0,"nm_esfera_administrativa_equipamento":"SEM ESFERA","tx_esfera_administrativa_equipamento":"Sem descrição","cd_equipamento":null,"nm_equipamento":"SP - TEOTONIO VILELA","tx_endereco_equipamento":"AVENIDA SENADOR TEOTONIO VILELA 7900","nm_bairro_equipamento":null,"cd_cep_equipamento":"04864002","tx_horario_funcionamento":null,"tx_numero_telefone":null,"cd_equipamento_base_origem":null}}],"totalFeatures":40,"numberMatched":40,"numberReturned":40,"timeStamp":"2026-05-16T19:32:19.065Z","crs":{"type":"name","properties":{"name":"urn:ogc:def:crs:EPSG::31983"}}}