{"type":"FeatureCollection","features":[{"type":"Feature","id":"equipamento_esporte_centro_esportivo_v2.90001","geometry":{"type":"Point","coordinates":[325355.6812,7382941.9202]},"geometry_name":"ge_ponto","properties":{"cd_identificador":90001,"cd_identificador_tema_equipamento":5,"nm_tema_equipamento":"ESPORTE","cd_identificador_rede_equipamento":0,"nm_rede_equipamento":"SEM REDE","tx_rede_equipamento":"Sem descrição","cd_identificador_tipo_equipamento":1,"nm_tipo_equipamento":"Centro Esportivo/Centro Educacional e Esportivo - CE/CEE","tx_tipo_equipamento":"Número de Centros Educacionais e Esportivos","cd_identificador_classe_equipamento":1,"nm_classe_equipamento":"CENTRO ESPORTIVO","tx_classe_equipamento":"CENTRO ESPORTIVO","cd_identificador_esfera_administrativa_equipamento":1,"nm_esfera_administrativa_equipamento":"Público - Municipal","tx_esfera_administrativa_equipamento":"Público - Municipal","cd_equipamento":null,"nm_equipamento":"CENTRO ESPORTIVO SANTO AMARO - CEE JOERG BRUDER","tx_endereco_equipamento":"AVENIDA PADRE JOSE MARIA, 555","nm_bairro_equipamento":null,"cd_cep_equipamento":null,"tx_horario_funcionamento":null,"tx_numero_telefone":null,"cd_equipamento_base_origem":null}},{"type":"Feature","id":"equipamento_esporte_centro_esportivo_v2.90002","geometry":{"type":"Point","coordinates":[331090.544,7389302.8977]},"geometry_name":"ge_ponto","properties":{"cd_identificador":90002,"cd_identificador_tema_equipamento":5,"nm_tema_equipamento":"ESPORTE","cd_identificador_rede_equipamento":0,"nm_rede_equipamento":"SEM REDE","tx_rede_equipamento":"Sem descrição","cd_identificador_tipo_equipamento":1,"nm_tipo_equipamento":"Centro Esportivo/Centro Educacional e Esportivo - CE/CEE","tx_tipo_equipamento":"Número de Centros Educacionais e Esportivos","cd_identificador_classe_equipamento":1,"nm_classe_equipamento":"CENTRO ESPORTIVO","tx_classe_equipamento":"CENTRO ESPORTIVO","cd_identificador_esfera_administrativa_equipamento":1,"nm_esfera_administrativa_equipamento":"Público - Municipal","tx_esfera_administrativa_equipamento":"Público - Municipal","cd_equipamento":null,"nm_equipamento":"CENTRO ESPORTIVO IBIRAPUERA - CEE MANÉ GARRINCHA","tx_endereco_equipamento":"RUA PEDRO DE TOLEDO, 1651","nm_bairro_equipamento":null,"cd_cep_equipamento":null,"tx_horario_funcionamento":null,"tx_numero_telefone":null,"cd_equipamento_base_origem":null}},{"type":"Feature","id":"equipamento_esporte_centro_esportivo_v2.90003","geometry":{"type":"Point","coordinates":[337039.0347,7390471.4602]},"geometry_name":"ge_ponto","properties":{"cd_identificador":90003,"cd_identificador_tema_equipamento":5,"nm_tema_equipamento":"ESPORTE","cd_identificador_rede_equipamento":0,"nm_rede_equipamento":"SEM REDE","tx_rede_equipamento":"Sem descrição","cd_identificador_tipo_equipamento":1,"nm_tipo_equipamento":"Centro Esportivo/Centro Educacional e Esportivo - CE/CEE","tx_tipo_equipamento":"Número de Centros Educacionais e Esportivos","cd_identificador_classe_equipamento":1,"nm_classe_equipamento":"CENTRO ESPORTIVO","tx_classe_equipamento":"CENTRO ESPORTIVO","cd_identificador_esfera_administrativa_equipamento":1,"nm_esfera_administrativa_equipamento":"Público - Municipal","tx_esfera_administrativa_equipamento":"Público - Municipal","cd_equipamento":null,"nm_equipamento":"CENTRO ESPORTIVO VILA INDEPENDÊNCIA - CEE FLÁVIO CALABRESI CONTE","tx_endereco_equipamento":"RUA DAS MUNICIPALIDADES, 10","nm_bairro_equipamento":null,"cd_cep_equipamento":null,"tx_horario_funcionamento":null,"tx_numero_telefone":null,"cd_equipamento_base_origem":null}},{"type":"Feature","id":"equipamento_esporte_centro_esportivo_v2.90004","geometry":{"type":"Point","coordinates":[328474.1896,7379528.9836]},"geometry_name":"ge_ponto","properties":{"cd_identificador":90004,"cd_identificador_tema_equipamento":5,"nm_tema_equipamento":"ESPORTE","cd_identificador_rede_equipamento":0,"nm_rede_equipamento":"SEM REDE","tx_rede_equipamento":"Sem descrição","cd_identificador_tipo_equipamento":4,"nm_tipo_equipamento":"Centro Esportivo/Mini-Balneário","tx_tipo_equipamento":"Número de Mini-Balneários","cd_identificador_classe_equipamento":1,"nm_classe_equipamento":"CENTRO ESPORTIVO","tx_classe_equipamento":"CENTRO ESPORTIVO","cd_identificador_esfera_administrativa_equipamento":1,"nm_esfera_administrativa_equipamento":"Público - Municipal","tx_esfera_administrativa_equipamento":"Público - Municipal","cd_equipamento":null,"nm_equipamento":"CENTRO ESPORTIVO JARDIM SABARÁ - MINI BALNEÁRIO ANTONIO CARLOS DE ABREU SODRÉ","tx_endereco_equipamento":"RUA CURIA, 149","nm_bairro_equipamento":null,"cd_cep_equipamento":null,"tx_horario_funcionamento":null,"tx_numero_telefone":null,"cd_equipamento_base_origem":null}},{"type":"Feature","id":"equipamento_esporte_centro_esportivo_v2.90005","geometry":{"type":"Point","coordinates":[336177.3736,7391310.0334]},"geometry_name":"ge_ponto","properties":{"cd_identificador":90005,"cd_identificador_tema_equipamento":5,"nm_tema_equipamento":"ESPORTE","cd_identificador_rede_equipamento":0,"nm_rede_equipamento":"SEM REDE","tx_rede_equipamento":"Sem descrição","cd_identificador_tipo_equipamento":3,"nm_tipo_equipamento":"Centro Esportivo/Balneário","tx_tipo_equipamento":"Número de Balneários","cd_identificador_classe_equipamento":1,"nm_classe_equipamento":"CENTRO ESPORTIVO","tx_classe_equipamento":"CENTRO ESPORTIVO","cd_identificador_esfera_administrativa_equipamento":1,"nm_esfera_administrativa_equipamento":"Público - Municipal","tx_esfera_administrativa_equipamento":"Público - Municipal","cd_equipamento":null,"nm_equipamento":"CENTRO ESPORTIVO IPIRANGA - BALNEÁRIO CARLOS JOEL NELLI","tx_endereco_equipamento":"PRACA NAMI JAFET, 45","nm_bairro_equipamento":null,"cd_cep_equipamento":null,"tx_horario_funcionamento":null,"tx_numero_telefone":null,"cd_equipamento_base_origem":null}},{"type":"Feature","id":"equipamento_esporte_centro_esportivo_v2.90006","geometry":{"type":"Point","coordinates":[329916.1405,7384388.6369]},"geometry_name":"ge_ponto","properties":{"cd_identificador":90006,"cd_identificador_tema_equipamento":5,"nm_tema_equipamento":"ESPORTE","cd_identificador_rede_equipamento":0,"nm_rede_equipamento":"SEM REDE","tx_rede_equipamento":"Sem descrição","cd_identificador_tipo_equipamento":3,"nm_tipo_equipamento":"Centro Esportivo/Balneário","tx_tipo_equipamento":"Número de Balneários","cd_identificador_classe_equipamento":1,"nm_classe_equipamento":"CENTRO ESPORTIVO","tx_classe_equipamento":"CENTRO ESPORTIVO","cd_identificador_esfera_administrativa_equipamento":1,"nm_esfera_administrativa_equipamento":"Público - Municipal","tx_esfera_administrativa_equipamento":"Público - Municipal","cd_equipamento":null,"nm_equipamento":"CENTRO ESPORTIVO VILA SANTA CATARINA - BALNEÁRIO JALISCO","tx_endereco_equipamento":"RUA RODES, 112","nm_bairro_equipamento":null,"cd_cep_equipamento":null,"tx_horario_funcionamento":null,"tx_numero_telefone":null,"cd_equipamento_base_origem":null}},{"type":"Feature","id":"equipamento_esporte_centro_esportivo_v2.90007","geometry":{"type":"Point","coordinates":[321076.3439,7386740.9814]},"geometry_name":"ge_ponto","properties":{"cd_identificador":90007,"cd_identificador_tema_equipamento":5,"nm_tema_equipamento":"ESPORTE","cd_identificador_rede_equipamento":0,"nm_rede_equipamento":"SEM REDE","tx_rede_equipamento":"Sem descrição","cd_identificador_tipo_equipamento":4,"nm_tipo_equipamento":"Centro Esportivo/Mini-Balneário","tx_tipo_equipamento":"Número de Mini-Balneários","cd_identificador_classe_equipamento":1,"nm_classe_equipamento":"CENTRO ESPORTIVO","tx_classe_equipamento":"CENTRO ESPORTIVO","cd_identificador_esfera_administrativa_equipamento":1,"nm_esfera_administrativa_equipamento":"Público - Municipal","tx_esfera_administrativa_equipamento":"Público - Municipal","cd_equipamento":null,"nm_equipamento":"CENTRO ESPORTIVO CAMPO LIMPO - MINI BALNEÁRIO SINÉSIO ROCHA","tx_endereco_equipamento":"RUA CIBAUMA, 54","nm_bairro_equipamento":null,"cd_cep_equipamento":null,"tx_horario_funcionamento":null,"tx_numero_telefone":null,"cd_equipamento_base_origem":null}},{"type":"Feature","id":"equipamento_esporte_centro_esportivo_v2.90008","geometry":{"type":"Point","coordinates":[337234.7778,7389644.6846]},"geometry_name":"ge_ponto","properties":{"cd_identificador":90008,"cd_identificador_tema_equipamento":5,"nm_tema_equipamento":"ESPORTE","cd_identificador_rede_equipamento":0,"nm_rede_equipamento":"SEM REDE","tx_rede_equipamento":"Sem descrição","cd_identificador_tipo_equipamento":3,"nm_tipo_equipamento":"Centro Esportivo/Balneário","tx_tipo_equipamento":"Número de Balneários","cd_identificador_classe_equipamento":1,"nm_classe_equipamento":"CENTRO ESPORTIVO","tx_classe_equipamento":"CENTRO ESPORTIVO","cd_identificador_esfera_administrativa_equipamento":1,"nm_esfera_administrativa_equipamento":"Público - Municipal","tx_esfera_administrativa_equipamento":"Público - Municipal","cd_equipamento":null,"nm_equipamento":"CENTRO ESPORTIVO VILA CARIOCA - BALNEÁRIO PRINCESA ISABEL","tx_endereco_equipamento":"RUA CAMPANTE, 100","nm_bairro_equipamento":null,"cd_cep_equipamento":null,"tx_horario_funcionamento":null,"tx_numero_telefone":null,"cd_equipamento_base_origem":null}},{"type":"Feature","id":"equipamento_esporte_centro_esportivo_v2.90009","geometry":{"type":"Point","coordinates":[332947.2165,7384632.249]},"geometry_name":"ge_ponto","properties":{"cd_identificador":90009,"cd_identificador_tema_equipamento":5,"nm_tema_equipamento":"ESPORTE","cd_identificador_rede_equipamento":0,"nm_rede_equipamento":"SEM REDE","tx_rede_equipamento":"Sem descrição","cd_identificador_tipo_equipamento":1,"nm_tipo_equipamento":"Centro Esportivo/Centro Educacional e Esportivo - CE/CEE","tx_tipo_equipamento":"Número de Centros Educacionais e Esportivos","cd_identificador_classe_equipamento":1,"nm_classe_equipamento":"CENTRO ESPORTIVO","tx_classe_equipamento":"CENTRO ESPORTIVO","cd_identificador_esfera_administrativa_equipamento":1,"nm_esfera_administrativa_equipamento":"Público - Municipal","tx_esfera_administrativa_equipamento":"Público - Municipal","cd_equipamento":null,"nm_equipamento":"CENTRO ESPORTIVO VILA GUARANI - CEE RIYUSO OGAWA","tx_endereco_equipamento":"RUA LUSSANVIRA, 178","nm_bairro_equipamento":null,"cd_cep_equipamento":null,"tx_horario_funcionamento":null,"tx_numero_telefone":null,"cd_equipamento_base_origem":null}},{"type":"Feature","id":"equipamento_esporte_centro_esportivo_v2.90010","geometry":{"type":"Point","coordinates":[331314.895,7391012.5604]},"geometry_name":"ge_ponto","properties":{"cd_identificador":90010,"cd_identificador_tema_equipamento":5,"nm_tema_equipamento":"ESPORTE","cd_identificador_rede_equipamento":0,"nm_rede_equipamento":"SEM REDE","tx_rede_equipamento":"Sem descrição","cd_identificador_tipo_equipamento":1,"nm_tipo_equipamento":"Centro Esportivo/Centro Educacional e Esportivo - CE/CEE","tx_tipo_equipamento":"Número de Centros Educacionais e Esportivos","cd_identificador_classe_equipamento":1,"nm_classe_equipamento":"CENTRO ESPORTIVO","tx_classe_equipamento":"CENTRO ESPORTIVO","cd_identificador_esfera_administrativa_equipamento":1,"nm_esfera_administrativa_equipamento":"Público - Municipal","tx_esfera_administrativa_equipamento":"Público - Municipal","cd_equipamento":null,"nm_equipamento":"MODELÓDROMO DO IBIRAPUERA","tx_endereco_equipamento":"RUA CURITIBA, 290","nm_bairro_equipamento":null,"cd_cep_equipamento":null,"tx_horario_funcionamento":null,"tx_numero_telefone":null,"cd_equipamento_base_origem":null}},{"type":"Feature","id":"equipamento_esporte_centro_esportivo_v2.90011","geometry":{"type":"Point","coordinates":[319598.3,7372692.3]},"geometry_name":"ge_ponto","properties":{"cd_identificador":90011,"cd_identificador_tema_equipamento":5,"nm_tema_equipamento":"ESPORTE","cd_identificador_rede_equipamento":0,"nm_rede_equipamento":"SEM REDE","tx_rede_equipamento":"Sem descrição","cd_identificador_tipo_equipamento":1,"nm_tipo_equipamento":"Centro Esportivo/Centro Educacional e Esportivo - CE/CEE","tx_tipo_equipamento":"Número de Centros Educacionais e Esportivos","cd_identificador_classe_equipamento":1,"nm_classe_equipamento":"CENTRO ESPORTIVO","tx_classe_equipamento":"CENTRO ESPORTIVO","cd_identificador_esfera_administrativa_equipamento":1,"nm_esfera_administrativa_equipamento":"Público - Municipal","tx_esfera_administrativa_equipamento":"Público - Municipal","cd_equipamento":null,"nm_equipamento":"CENTRO ESPORTIVO NÁUTICO GUARAPIRANGA","tx_endereco_equipamento":"AV DOS FUNCIONARIOS PUBLICOS, 2501","nm_bairro_equipamento":null,"cd_cep_equipamento":null,"tx_horario_funcionamento":null,"tx_numero_telefone":null,"cd_equipamento_base_origem":null}},{"type":"Feature","id":"equipamento_esporte_centro_esportivo_v2.90012","geometry":{"type":"Point","coordinates":[330519.541,7384874.6487]},"geometry_name":"ge_ponto","properties":{"cd_identificador":90012,"cd_identificador_tema_equipamento":5,"nm_tema_equipamento":"ESPORTE","cd_identificador_rede_equipamento":0,"nm_rede_equipamento":"SEM REDE","tx_rede_equipamento":"Sem descrição","cd_identificador_tipo_equipamento":1,"nm_tipo_equipamento":"Centro Esportivo/Centro Educacional e Esportivo - CE/CEE","tx_tipo_equipamento":"Número de Centros Educacionais e Esportivos","cd_identificador_classe_equipamento":1,"nm_classe_equipamento":"CENTRO ESPORTIVO","tx_classe_equipamento":"CENTRO ESPORTIVO","cd_identificador_esfera_administrativa_equipamento":1,"nm_esfera_administrativa_equipamento":"Público - Municipal","tx_esfera_administrativa_equipamento":"Público - Municipal","cd_equipamento":null,"nm_equipamento":"CENTRO ESPORTIVO PISTA DE SKATE DO PARQUE DO CHUVISCO","tx_endereco_equipamento":"AV DR LINO DE MOARES LEME, 504","nm_bairro_equipamento":null,"cd_cep_equipamento":null,"tx_horario_funcionamento":null,"tx_numero_telefone":null,"cd_equipamento_base_origem":null}},{"type":"Feature","id":"equipamento_esporte_centro_esportivo_v2.90013","geometry":{"type":"Point","coordinates":[338787.8654,7400100.2459]},"geometry_name":"ge_ponto","properties":{"cd_identificador":90013,"cd_identificador_tema_equipamento":5,"nm_tema_equipamento":"ESPORTE","cd_identificador_rede_equipamento":0,"nm_rede_equipamento":"SEM REDE","tx_rede_equipamento":"Sem descrição","cd_identificador_tipo_equipamento":1,"nm_tipo_equipamento":"Centro Esportivo/Centro Educacional e Esportivo - CE/CEE","tx_tipo_equipamento":"Número de Centros Educacionais e Esportivos","cd_identificador_classe_equipamento":1,"nm_classe_equipamento":"CENTRO ESPORTIVO","tx_classe_equipamento":"CENTRO ESPORTIVO","cd_identificador_esfera_administrativa_equipamento":1,"nm_esfera_administrativa_equipamento":"Público - Municipal","tx_esfera_administrativa_equipamento":"Público - Municipal","cd_equipamento":null,"nm_equipamento":"CENTRO ESPORTIVO VILA MARIA - CEE THOMAZ MAZZONI","tx_endereco_equipamento":"PRACA JANIO DA SILVA QUADROS, 150","nm_bairro_equipamento":null,"cd_cep_equipamento":null,"tx_horario_funcionamento":null,"tx_numero_telefone":null,"cd_equipamento_base_origem":null}},{"type":"Feature","id":"equipamento_esporte_centro_esportivo_v2.90014","geometry":{"type":"Point","coordinates":[339695.8384,7404215.8468]},"geometry_name":"ge_ponto","properties":{"cd_identificador":90014,"cd_identificador_tema_equipamento":5,"nm_tema_equipamento":"ESPORTE","cd_identificador_rede_equipamento":0,"nm_rede_equipamento":"SEM REDE","tx_rede_equipamento":"Sem descrição","cd_identificador_tipo_equipamento":4,"nm_tipo_equipamento":"Centro Esportivo/Mini-Balneário","tx_tipo_equipamento":"Número de Mini-Balneários","cd_identificador_classe_equipamento":1,"nm_classe_equipamento":"CENTRO ESPORTIVO","tx_classe_equipamento":"CENTRO ESPORTIVO","cd_identificador_esfera_administrativa_equipamento":1,"nm_esfera_administrativa_equipamento":"Público - Municipal","tx_esfera_administrativa_equipamento":"Público - Municipal","cd_equipamento":null,"nm_equipamento":"CENTRO ESPORTIVO JARDIM CABUÇU - MINI BALNEÁRIO IRMÃOS PAOLILLO","tx_endereco_equipamento":"RUA GENERAL JERONIMO FURTADO, 751","nm_bairro_equipamento":null,"cd_cep_equipamento":null,"tx_horario_funcionamento":null,"tx_numero_telefone":null,"cd_equipamento_base_origem":null}},{"type":"Feature","id":"equipamento_esporte_centro_esportivo_v2.90015","geometry":{"type":"Point","coordinates":[332564.3769,7403502.4654]},"geometry_name":"ge_ponto","properties":{"cd_identificador":90015,"cd_identificador_tema_equipamento":5,"nm_tema_equipamento":"ESPORTE","cd_identificador_rede_equipamento":0,"nm_rede_equipamento":"SEM REDE","tx_rede_equipamento":"Sem descrição","cd_identificador_tipo_equipamento":4,"nm_tipo_equipamento":"Centro Esportivo/Mini-Balneário","tx_tipo_equipamento":"Número de Mini-Balneários","cd_identificador_classe_equipamento":1,"nm_classe_equipamento":"CENTRO ESPORTIVO","tx_classe_equipamento":"CENTRO ESPORTIVO","cd_identificador_esfera_administrativa_equipamento":1,"nm_esfera_administrativa_equipamento":"Público - Municipal","tx_esfera_administrativa_equipamento":"Público - Municipal","cd_equipamento":null,"nm_equipamento":"CENTRO ESPORTIVO MANDAQUI - MINI BALNEÁRIO GASTÃO MOUTINHO","tx_endereco_equipamento":"RUA CORONEL JOAO DA SILVA FEIJO, 80","nm_bairro_equipamento":null,"cd_cep_equipamento":null,"tx_horario_funcionamento":null,"tx_numero_telefone":null,"cd_equipamento_base_origem":null}},{"type":"Feature","id":"equipamento_esporte_centro_esportivo_v2.90016","geometry":{"type":"Point","coordinates":[330963.2703,7401043.4407]},"geometry_name":"ge_ponto","properties":{"cd_identificador":90016,"cd_identificador_tema_equipamento":5,"nm_tema_equipamento":"ESPORTE","cd_identificador_rede_equipamento":0,"nm_rede_equipamento":"SEM REDE","tx_rede_equipamento":"Sem descrição","cd_identificador_tipo_equipamento":4,"nm_tipo_equipamento":"Centro Esportivo/Mini-Balneário","tx_tipo_equipamento":"Número de Mini-Balneários","cd_identificador_classe_equipamento":1,"nm_classe_equipamento":"CENTRO ESPORTIVO","tx_classe_equipamento":"CENTRO ESPORTIVO","cd_identificador_esfera_administrativa_equipamento":1,"nm_esfera_administrativa_equipamento":"Público - Municipal","tx_esfera_administrativa_equipamento":"Público - Municipal","cd_equipamento":null,"nm_equipamento":"CENTRO ESPORTIVO CASA VERDE - MINI BALNEÁRIO COMANDANTE GARCIA D'ÁVILA","tx_endereco_equipamento":"RUA ARMANDO COELHO E SILVA, 775","nm_bairro_equipamento":null,"cd_cep_equipamento":null,"tx_horario_funcionamento":null,"tx_numero_telefone":null,"cd_equipamento_base_origem":null}},{"type":"Feature","id":"equipamento_esporte_centro_esportivo_v2.90017","geometry":{"type":"Point","coordinates":[326662.0727,7402772.0631]},"geometry_name":"ge_ponto","properties":{"cd_identificador":90017,"cd_identificador_tema_equipamento":5,"nm_tema_equipamento":"ESPORTE","cd_identificador_rede_equipamento":0,"nm_rede_equipamento":"SEM REDE","tx_rede_equipamento":"Sem descrição","cd_identificador_tipo_equipamento":1,"nm_tipo_equipamento":"Centro Esportivo/Centro Educacional e Esportivo - CE/CEE","tx_tipo_equipamento":"Número de Centros Educacionais e Esportivos","cd_identificador_classe_equipamento":1,"nm_classe_equipamento":"CENTRO ESPORTIVO","tx_classe_equipamento":"CENTRO ESPORTIVO","cd_identificador_esfera_administrativa_equipamento":1,"nm_esfera_administrativa_equipamento":"Público - Municipal","tx_esfera_administrativa_equipamento":"Público - Municipal","cd_equipamento":null,"nm_equipamento":"CENTRO ESPORTIVO VILA BRASILÂNDIA - CEE OSWALDO BRANDÃO","tx_endereco_equipamento":"RUA MICHIHISA MURATA, 120","nm_bairro_equipamento":null,"cd_cep_equipamento":null,"tx_horario_funcionamento":null,"tx_numero_telefone":null,"cd_equipamento_base_origem":null}},{"type":"Feature","id":"equipamento_esporte_centro_esportivo_v2.90018","geometry":{"type":"Point","coordinates":[327026.9331,7401966.9663]},"geometry_name":"ge_ponto","properties":{"cd_identificador":90018,"cd_identificador_tema_equipamento":5,"nm_tema_equipamento":"ESPORTE","cd_identificador_rede_equipamento":0,"nm_rede_equipamento":"SEM REDE","tx_rede_equipamento":"Sem descrição","cd_identificador_tipo_equipamento":1,"nm_tipo_equipamento":"Centro Esportivo/Centro Educacional e Esportivo - CE/CEE","tx_tipo_equipamento":"Número de Centros Educacionais e Esportivos","cd_identificador_classe_equipamento":1,"nm_classe_equipamento":"CENTRO ESPORTIVO","tx_classe_equipamento":"CENTRO ESPORTIVO","cd_identificador_esfera_administrativa_equipamento":1,"nm_esfera_administrativa_equipamento":"Público - Municipal","tx_esfera_administrativa_equipamento":"Público - Municipal","cd_equipamento":null,"nm_equipamento":"CENTRO ESPORTIVO FREGUESIA DO Ó - CEE AURÉLIO CAMPOS","tx_endereco_equipamento":"RUA JACUTIBA, 167","nm_bairro_equipamento":null,"cd_cep_equipamento":null,"tx_horario_funcionamento":null,"tx_numero_telefone":null,"cd_equipamento_base_origem":null}},{"type":"Feature","id":"equipamento_esporte_centro_esportivo_v2.90019","geometry":{"type":"Point","coordinates":[336647.1963,7399338.2709]},"geometry_name":"ge_ponto","properties":{"cd_identificador":90019,"cd_identificador_tema_equipamento":5,"nm_tema_equipamento":"ESPORTE","cd_identificador_rede_equipamento":0,"nm_rede_equipamento":"SEM REDE","tx_rede_equipamento":"Sem descrição","cd_identificador_tipo_equipamento":1,"nm_tipo_equipamento":"Centro Esportivo/Centro Educacional e Esportivo - CE/CEE","tx_tipo_equipamento":"Número de Centros Educacionais e Esportivos","cd_identificador_classe_equipamento":1,"nm_classe_equipamento":"CENTRO ESPORTIVO","tx_classe_equipamento":"CENTRO ESPORTIVO","cd_identificador_esfera_administrativa_equipamento":1,"nm_esfera_administrativa_equipamento":"Público - Municipal","tx_esfera_administrativa_equipamento":"Público - Municipal","cd_equipamento":null,"nm_equipamento":"CENTRO ESPORTIVO VILA GUILHERME - GINÁSIO DARCY REIS","tx_endereco_equipamento":"AVENIDA GUILHERME, 1819","nm_bairro_equipamento":null,"cd_cep_equipamento":null,"tx_horario_funcionamento":null,"tx_numero_telefone":null,"cd_equipamento_base_origem":null}},{"type":"Feature","id":"equipamento_esporte_centro_esportivo_v2.90020","geometry":{"type":"Point","coordinates":[335311.1235,7400779.5989]},"geometry_name":"ge_ponto","properties":{"cd_identificador":90020,"cd_identificador_tema_equipamento":5,"nm_tema_equipamento":"ESPORTE","cd_identificador_rede_equipamento":0,"nm_rede_equipamento":"SEM REDE","tx_rede_equipamento":"Sem descrição","cd_identificador_tipo_equipamento":1,"nm_tipo_equipamento":"Centro Esportivo/Centro Educacional e Esportivo - CE/CEE","tx_tipo_equipamento":"Número de Centros Educacionais e Esportivos","cd_identificador_classe_equipamento":1,"nm_classe_equipamento":"CENTRO ESPORTIVO","tx_classe_equipamento":"CENTRO ESPORTIVO","cd_identificador_esfera_administrativa_equipamento":1,"nm_esfera_administrativa_equipamento":"Público - Municipal","tx_esfera_administrativa_equipamento":"Público - Municipal","cd_equipamento":null,"nm_equipamento":"CENTRO ESPORTIVO JARDIM SÃO PAULO - CEE ALFREDO INÁCIO TRINDADE","tx_endereco_equipamento":"RUA VIRI, 425","nm_bairro_equipamento":null,"cd_cep_equipamento":null,"tx_horario_funcionamento":null,"tx_numero_telefone":null,"cd_equipamento_base_origem":null}},{"type":"Feature","id":"equipamento_esporte_centro_esportivo_v2.90021","geometry":{"type":"Point","coordinates":[334423.6438,7392450.9395]},"geometry_name":"ge_ponto","properties":{"cd_identificador":90021,"cd_identificador_tema_equipamento":5,"nm_tema_equipamento":"ESPORTE","cd_identificador_rede_equipamento":0,"nm_rede_equipamento":"SEM REDE","tx_rede_equipamento":"Sem descrição","cd_identificador_tipo_equipamento":1,"nm_tipo_equipamento":"Centro Esportivo/Centro Educacional e Esportivo - CE/CEE","tx_tipo_equipamento":"Número de Centros Educacionais e Esportivos","cd_identificador_classe_equipamento":1,"nm_classe_equipamento":"CENTRO ESPORTIVO","tx_classe_equipamento":"CENTRO ESPORTIVO","cd_identificador_esfera_administrativa_equipamento":1,"nm_esfera_administrativa_equipamento":"Público - Municipal","tx_esfera_administrativa_equipamento":"Público - Municipal","cd_equipamento":null,"nm_equipamento":"CENTRO ESPORTIVO CAMBUCI - CEE RUBENS PECCE LORDELLO","tx_endereco_equipamento":"AVENIDA LINS DE VASCONCELOS, 804","nm_bairro_equipamento":null,"cd_cep_equipamento":null,"tx_horario_funcionamento":null,"tx_numero_telefone":null,"cd_equipamento_base_origem":null}},{"type":"Feature","id":"equipamento_esporte_centro_esportivo_v2.90022","geometry":{"type":"Point","coordinates":[331393.6018,7397555.1005]},"geometry_name":"ge_ponto","properties":{"cd_identificador":90022,"cd_identificador_tema_equipamento":5,"nm_tema_equipamento":"ESPORTE","cd_identificador_rede_equipamento":0,"nm_rede_equipamento":"SEM REDE","tx_rede_equipamento":"Sem descrição","cd_identificador_tipo_equipamento":1,"nm_tipo_equipamento":"Centro Esportivo/Centro Educacional e Esportivo - CE/CEE","tx_tipo_equipamento":"Número de Centros Educacionais e Esportivos","cd_identificador_classe_equipamento":1,"nm_classe_equipamento":"CENTRO ESPORTIVO","tx_classe_equipamento":"CENTRO ESPORTIVO","cd_identificador_esfera_administrativa_equipamento":1,"nm_esfera_administrativa_equipamento":"Público - Municipal","tx_esfera_administrativa_equipamento":"Público - Municipal","cd_equipamento":null,"nm_equipamento":"CENTRO ESPORTIVO BARRA FUNDA - CEE RAUL TABAJARA","tx_endereco_equipamento":"RUA ANHANGUERA, 484","nm_bairro_equipamento":null,"cd_cep_equipamento":null,"tx_horario_funcionamento":null,"tx_numero_telefone":null,"cd_equipamento_base_origem":null}},{"type":"Feature","id":"equipamento_esporte_centro_esportivo_v2.90023","geometry":{"type":"Point","coordinates":[331079.994,7398293.0026]},"geometry_name":"ge_ponto","properties":{"cd_identificador":90023,"cd_identificador_tema_equipamento":5,"nm_tema_equipamento":"ESPORTE","cd_identificador_rede_equipamento":0,"nm_rede_equipamento":"SEM REDE","tx_rede_equipamento":"Sem descrição","cd_identificador_tipo_equipamento":1,"nm_tipo_equipamento":"Centro Esportivo/Centro Educacional e Esportivo - CE/CEE","tx_tipo_equipamento":"Número de Centros Educacionais e Esportivos","cd_identificador_classe_equipamento":1,"nm_classe_equipamento":"CENTRO ESPORTIVO","tx_classe_equipamento":"CENTRO ESPORTIVO","cd_identificador_esfera_administrativa_equipamento":1,"nm_esfera_administrativa_equipamento":"Público - Municipal","tx_esfera_administrativa_equipamento":"Público - Municipal","cd_equipamento":null,"nm_equipamento":"ESTÁDIO MUNICIPAL DE BEISEBOL BOM RETIRO - ESTÁDIO MUNICIPAL MIE NISHI","tx_endereco_equipamento":"AV PRESIDENTE CASTELO BRANCO, 5446","nm_bairro_equipamento":null,"cd_cep_equipamento":null,"tx_horario_funcionamento":null,"tx_numero_telefone":null,"cd_equipamento_base_origem":null}},{"type":"Feature","id":"equipamento_esporte_centro_esportivo_v2.90024","geometry":{"type":"Point","coordinates":[333817.365,7392219.4193]},"geometry_name":"ge_ponto","properties":{"cd_identificador":90024,"cd_identificador_tema_equipamento":5,"nm_tema_equipamento":"ESPORTE","cd_identificador_rede_equipamento":0,"nm_rede_equipamento":"SEM REDE","tx_rede_equipamento":"Sem descrição","cd_identificador_tipo_equipamento":1,"nm_tipo_equipamento":"Centro Esportivo/Centro Educacional e Esportivo - CE/CEE","tx_tipo_equipamento":"Número de Centros Educacionais e Esportivos","cd_identificador_classe_equipamento":1,"nm_classe_equipamento":"CENTRO ESPORTIVO","tx_classe_equipamento":"CENTRO ESPORTIVO","cd_identificador_esfera_administrativa_equipamento":1,"nm_esfera_administrativa_equipamento":"Público - Municipal","tx_esfera_administrativa_equipamento":"Público - Municipal","cd_equipamento":null,"nm_equipamento":"CENTRO ESPORTIVO ACLIMAÇÃO - ESTÁDIO MUNICIPAL JACK MARIN","tx_endereco_equipamento":"RUA MUNIZ DE SOUZA, 1119","nm_bairro_equipamento":null,"cd_cep_equipamento":null,"tx_horario_funcionamento":null,"tx_numero_telefone":null,"cd_equipamento_base_origem":null}},{"type":"Feature","id":"equipamento_esporte_centro_esportivo_v2.90025","geometry":{"type":"Point","coordinates":[333369.1594,7397909.8244]},"geometry_name":"ge_ponto","properties":{"cd_identificador":90025,"cd_identificador_tema_equipamento":5,"nm_tema_equipamento":"ESPORTE","cd_identificador_rede_equipamento":0,"nm_rede_equipamento":"SEM REDE","tx_rede_equipamento":"Sem descrição","cd_identificador_tipo_equipamento":1,"nm_tipo_equipamento":"Centro Esportivo/Centro Educacional e Esportivo - CE/CEE","tx_tipo_equipamento":"Número de Centros Educacionais e Esportivos","cd_identificador_classe_equipamento":1,"nm_classe_equipamento":"CENTRO ESPORTIVO","tx_classe_equipamento":"CENTRO ESPORTIVO","cd_identificador_esfera_administrativa_equipamento":1,"nm_esfera_administrativa_equipamento":"Público - Municipal","tx_esfera_administrativa_equipamento":"Público - Municipal","cd_equipamento":null,"nm_equipamento":"CENTRO ESPORTIVO TIETÊ - CENTRO ESPORTIVO TIETÊ","tx_endereco_equipamento":"AVENIDA SANTOS DUMONT, 843","nm_bairro_equipamento":null,"cd_cep_equipamento":null,"tx_horario_funcionamento":null,"tx_numero_telefone":null,"cd_equipamento_base_origem":null}},{"type":"Feature","id":"equipamento_esporte_centro_esportivo_v2.90026","geometry":{"type":"Point","coordinates":[331079.994,7398293.0026]},"geometry_name":"ge_ponto","properties":{"cd_identificador":90026,"cd_identificador_tema_equipamento":5,"nm_tema_equipamento":"ESPORTE","cd_identificador_rede_equipamento":0,"nm_rede_equipamento":"SEM REDE","tx_rede_equipamento":"Sem descrição","cd_identificador_tipo_equipamento":1,"nm_tipo_equipamento":"Centro Esportivo/Centro Educacional e Esportivo - CE/CEE","tx_tipo_equipamento":"Número de Centros Educacionais e Esportivos","cd_identificador_classe_equipamento":1,"nm_classe_equipamento":"CENTRO ESPORTIVO","tx_classe_equipamento":"CENTRO ESPORTIVO","cd_identificador_esfera_administrativa_equipamento":1,"nm_esfera_administrativa_equipamento":"Público - Municipal","tx_esfera_administrativa_equipamento":"Público - Municipal","cd_equipamento":null,"nm_equipamento":"CENTRO DE ESPORTES RADICAIS","tx_endereco_equipamento":"AV CASTELO BRANCO, 5700","nm_bairro_equipamento":null,"cd_cep_equipamento":null,"tx_horario_funcionamento":null,"tx_numero_telefone":null,"cd_equipamento_base_origem":null}},{"type":"Feature","id":"equipamento_esporte_centro_esportivo_v2.90027","geometry":{"type":"Point","coordinates":[353347.95,7395159.9605]},"geometry_name":"ge_ponto","properties":{"cd_identificador":90027,"cd_identificador_tema_equipamento":5,"nm_tema_equipamento":"ESPORTE","cd_identificador_rede_equipamento":0,"nm_rede_equipamento":"SEM REDE","tx_rede_equipamento":"Sem descrição","cd_identificador_tipo_equipamento":2,"nm_tipo_equipamento":"Centro Esportivo/Centro de Esporte e Lazer - CE/CEL","tx_tipo_equipamento":"Número de Centros de Esporte e Lazer - CEL","cd_identificador_classe_equipamento":1,"nm_classe_equipamento":"CENTRO ESPORTIVO","tx_classe_equipamento":"CENTRO ESPORTIVO","cd_identificador_esfera_administrativa_equipamento":1,"nm_esfera_administrativa_equipamento":"Público - Municipal","tx_esfera_administrativa_equipamento":"Público - Municipal","cd_equipamento":null,"nm_equipamento":"CENTRO ESPORTIVO JOSÉ BONIFÁCIO - CEL JOSÉ BONIFÁCIO","tx_endereco_equipamento":"RUA ANA PERENA, 110","nm_bairro_equipamento":null,"cd_cep_equipamento":null,"tx_horario_funcionamento":null,"tx_numero_telefone":null,"cd_equipamento_base_origem":null}},{"type":"Feature","id":"equipamento_esporte_centro_esportivo_v2.90028","geometry":{"type":"Point","coordinates":[343546.2476,7394962.8569]},"geometry_name":"ge_ponto","properties":{"cd_identificador":90028,"cd_identificador_tema_equipamento":5,"nm_tema_equipamento":"ESPORTE","cd_identificador_rede_equipamento":0,"nm_rede_equipamento":"SEM REDE","tx_rede_equipamento":"Sem descrição","cd_identificador_tipo_equipamento":1,"nm_tipo_equipamento":"Centro Esportivo/Centro Educacional e Esportivo - CE/CEE","tx_tipo_equipamento":"Número de Centros Educacionais e Esportivos","cd_identificador_classe_equipamento":1,"nm_classe_equipamento":"CENTRO ESPORTIVO","tx_classe_equipamento":"CENTRO ESPORTIVO","cd_identificador_esfera_administrativa_equipamento":1,"nm_esfera_administrativa_equipamento":"Público - Municipal","tx_esfera_administrativa_equipamento":"Público - Municipal","cd_equipamento":null,"nm_equipamento":"CENTRO ESPORTIVO VILA MANCHESTER - CEE VICENTE ÍTALO FEOLA","tx_endereco_equipamento":"PRACA HAROLDO DALTRO, S\\/N","nm_bairro_equipamento":null,"cd_cep_equipamento":null,"tx_horario_funcionamento":null,"tx_numero_telefone":null,"cd_equipamento_base_origem":null}},{"type":"Feature","id":"equipamento_esporte_centro_esportivo_v2.90029","geometry":{"type":"Point","coordinates":[350580.9865,7388104.0363]},"geometry_name":"ge_ponto","properties":{"cd_identificador":90029,"cd_identificador_tema_equipamento":5,"nm_tema_equipamento":"ESPORTE","cd_identificador_rede_equipamento":0,"nm_rede_equipamento":"SEM REDE","tx_rede_equipamento":"Sem descrição","cd_identificador_tipo_equipamento":4,"nm_tipo_equipamento":"Centro Esportivo/Mini-Balneário","tx_tipo_equipamento":"Número de Mini-Balneários","cd_identificador_classe_equipamento":1,"nm_classe_equipamento":"CENTRO ESPORTIVO","tx_classe_equipamento":"CENTRO ESPORTIVO","cd_identificador_esfera_administrativa_equipamento":1,"nm_esfera_administrativa_equipamento":"Público - Municipal","tx_esfera_administrativa_equipamento":"Público - Municipal","cd_equipamento":null,"nm_equipamento":"CENTRO ESPORTIVO SÃO MATEUS - MINI BALNEÁRIO JOSÉ MARIA WHITAKER","tx_endereco_equipamento":"AVENIDA SATELITE, 756","nm_bairro_equipamento":null,"cd_cep_equipamento":null,"tx_horario_funcionamento":null,"tx_numero_telefone":null,"cd_equipamento_base_origem":null}},{"type":"Feature","id":"equipamento_esporte_centro_esportivo_v2.90030","geometry":{"type":"Point","coordinates":[356928.0788,7389458.6226]},"geometry_name":"ge_ponto","properties":{"cd_identificador":90030,"cd_identificador_tema_equipamento":5,"nm_tema_equipamento":"ESPORTE","cd_identificador_rede_equipamento":0,"nm_rede_equipamento":"SEM REDE","tx_rede_equipamento":"Sem descrição","cd_identificador_tipo_equipamento":2,"nm_tipo_equipamento":"Centro Esportivo/Centro de Esporte e Lazer - CE/CEL","tx_tipo_equipamento":"Número de Centros de Esporte e Lazer - CEL","cd_identificador_classe_equipamento":1,"nm_classe_equipamento":"CENTRO ESPORTIVO","tx_classe_equipamento":"CENTRO ESPORTIVO","cd_identificador_esfera_administrativa_equipamento":1,"nm_esfera_administrativa_equipamento":"Público - Municipal","tx_esfera_administrativa_equipamento":"Público - Municipal","cd_equipamento":null,"nm_equipamento":"CENTRO ESPORTIVO TIRADENTES - CEL ANDRÉ VITAL RIBEIRO SOARES","tx_endereco_equipamento":"AVENIDA DOS METALURGICOS, 2255","nm_bairro_equipamento":null,"cd_cep_equipamento":null,"tx_horario_funcionamento":null,"tx_numero_telefone":null,"cd_equipamento_base_origem":null}},{"type":"Feature","id":"equipamento_esporte_centro_esportivo_v2.90031","geometry":{"type":"Point","coordinates":[346661.1336,7388754.68]},"geometry_name":"ge_ponto","properties":{"cd_identificador":90031,"cd_identificador_tema_equipamento":5,"nm_tema_equipamento":"ESPORTE","cd_identificador_rede_equipamento":0,"nm_rede_equipamento":"SEM REDE","tx_rede_equipamento":"Sem descrição","cd_identificador_tipo_equipamento":2,"nm_tipo_equipamento":"Centro Esportivo/Centro de Esporte e Lazer - CE/CEL","tx_tipo_equipamento":"Número de Centros de Esporte e Lazer - CEL","cd_identificador_classe_equipamento":1,"nm_classe_equipamento":"CENTRO ESPORTIVO","tx_classe_equipamento":"CENTRO ESPORTIVO","cd_identificador_esfera_administrativa_equipamento":1,"nm_esfera_administrativa_equipamento":"Público - Municipal","tx_esfera_administrativa_equipamento":"Público - Municipal","cd_equipamento":null,"nm_equipamento":"CENTRO ESPORTIVO TEOTÔNIO VILELA - CEL TEOTÔNIO VILELA","tx_endereco_equipamento":"RUA CARLO CLAUSETTI, 19","nm_bairro_equipamento":null,"cd_cep_equipamento":null,"tx_horario_funcionamento":null,"tx_numero_telefone":null,"cd_equipamento_base_origem":null}},{"type":"Feature","id":"equipamento_esporte_centro_esportivo_v2.90032","geometry":{"type":"Point","coordinates":[355095.8849,7400597.1973]},"geometry_name":"ge_ponto","properties":{"cd_identificador":90032,"cd_identificador_tema_equipamento":5,"nm_tema_equipamento":"ESPORTE","cd_identificador_rede_equipamento":0,"nm_rede_equipamento":"SEM REDE","tx_rede_equipamento":"Sem descrição","cd_identificador_tipo_equipamento":1,"nm_tipo_equipamento":"Centro Esportivo/Centro Educacional e Esportivo - CE/CEE","tx_tipo_equipamento":"Número de Centros Educacionais e Esportivos","cd_identificador_classe_equipamento":1,"nm_classe_equipamento":"CENTRO ESPORTIVO","tx_classe_equipamento":"CENTRO ESPORTIVO","cd_identificador_esfera_administrativa_equipamento":1,"nm_esfera_administrativa_equipamento":"Público - Municipal","tx_esfera_administrativa_equipamento":"Público - Municipal","cd_equipamento":null,"nm_equipamento":"CENTRO ESPORTIVO VILA CURUÇÁ - CEE JOSÉ ERMÍRIO DE MORAES","tx_endereco_equipamento":"RUA GRAPIRA, 537","nm_bairro_equipamento":null,"cd_cep_equipamento":null,"tx_horario_funcionamento":null,"tx_numero_telefone":null,"cd_equipamento_base_origem":null}},{"type":"Feature","id":"equipamento_esporte_centro_esportivo_v2.90033","geometry":{"type":"Point","coordinates":[336971.5518,7394651.6056]},"geometry_name":"ge_ponto","properties":{"cd_identificador":90033,"cd_identificador_tema_equipamento":5,"nm_tema_equipamento":"ESPORTE","cd_identificador_rede_equipamento":0,"nm_rede_equipamento":"SEM REDE","tx_rede_equipamento":"Sem descrição","cd_identificador_tipo_equipamento":1,"nm_tipo_equipamento":"Centro Esportivo/Centro Educacional e Esportivo - CE/CEE","tx_tipo_equipamento":"Número de Centros Educacionais e Esportivos","cd_identificador_classe_equipamento":1,"nm_classe_equipamento":"CENTRO ESPORTIVO","tx_classe_equipamento":"CENTRO ESPORTIVO","cd_identificador_esfera_administrativa_equipamento":1,"nm_esfera_administrativa_equipamento":"Público - Municipal","tx_esfera_administrativa_equipamento":"Público - Municipal","cd_equipamento":null,"nm_equipamento":"CENTRO ESPORTIVO MOOCA - CEE SALIM FARAH MALUF","tx_endereco_equipamento":"RUA TAQUARI, 635","nm_bairro_equipamento":null,"cd_cep_equipamento":null,"tx_horario_funcionamento":null,"tx_numero_telefone":null,"cd_equipamento_base_origem":null}},{"type":"Feature","id":"equipamento_esporte_centro_esportivo_v2.90034","geometry":{"type":"Point","coordinates":[348384.4128,7394697.6267]},"geometry_name":"ge_ponto","properties":{"cd_identificador":90034,"cd_identificador_tema_equipamento":5,"nm_tema_equipamento":"ESPORTE","cd_identificador_rede_equipamento":0,"nm_rede_equipamento":"SEM REDE","tx_rede_equipamento":"Sem descrição","cd_identificador_tipo_equipamento":2,"nm_tipo_equipamento":"Centro Esportivo/Centro de Esporte e Lazer - CE/CEL","tx_tipo_equipamento":"Número de Centros de Esporte e Lazer - CEL","cd_identificador_classe_equipamento":1,"nm_classe_equipamento":"CENTRO ESPORTIVO","tx_classe_equipamento":"CENTRO ESPORTIVO","cd_identificador_esfera_administrativa_equipamento":1,"nm_esfera_administrativa_equipamento":"Público - Municipal","tx_esfera_administrativa_equipamento":"Público - Municipal","cd_equipamento":null,"nm_equipamento":"CENTRO ESPORTIVO JOSÉ DE ANCHIETA - CEL PADRE JOSÉ DE ANCHIETA","tx_endereco_equipamento":"RUA JOSE BALANGIO, 188","nm_bairro_equipamento":null,"cd_cep_equipamento":null,"tx_horario_funcionamento":null,"tx_numero_telefone":null,"cd_equipamento_base_origem":null}},{"type":"Feature","id":"equipamento_esporte_centro_esportivo_v2.90035","geometry":{"type":"Point","coordinates":[344063.5858,7398733.8448]},"geometry_name":"ge_ponto","properties":{"cd_identificador":90035,"cd_identificador_tema_equipamento":5,"nm_tema_equipamento":"ESPORTE","cd_identificador_rede_equipamento":0,"nm_rede_equipamento":"SEM REDE","tx_rede_equipamento":"Sem descrição","cd_identificador_tipo_equipamento":1,"nm_tipo_equipamento":"Centro Esportivo/Centro Educacional e Esportivo - CE/CEE","tx_tipo_equipamento":"Número de Centros Educacionais e Esportivos","cd_identificador_classe_equipamento":1,"nm_classe_equipamento":"CENTRO ESPORTIVO","tx_classe_equipamento":"CENTRO ESPORTIVO","cd_identificador_esfera_administrativa_equipamento":1,"nm_esfera_administrativa_equipamento":"Público - Municipal","tx_esfera_administrativa_equipamento":"Público - Municipal","cd_equipamento":null,"nm_equipamento":"CENTRO ESPORTIVO TIQUATIRA - CEE LUIZ MARTINEZ","tx_endereco_equipamento":"AV GOVERNADOR CARVALHO PINTO, 02","nm_bairro_equipamento":null,"cd_cep_equipamento":null,"tx_horario_funcionamento":null,"tx_numero_telefone":null,"cd_equipamento_base_origem":null}},{"type":"Feature","id":"equipamento_esporte_centro_esportivo_v2.90036","geometry":{"type":"Point","coordinates":[356376.6117,7393336.0685]},"geometry_name":"ge_ponto","properties":{"cd_identificador":90036,"cd_identificador_tema_equipamento":5,"nm_tema_equipamento":"ESPORTE","cd_identificador_rede_equipamento":0,"nm_rede_equipamento":"SEM REDE","tx_rede_equipamento":"Sem descrição","cd_identificador_tipo_equipamento":2,"nm_tipo_equipamento":"Centro Esportivo/Centro de Esporte e Lazer - CE/CEL","tx_tipo_equipamento":"Número de Centros de Esporte e Lazer - CEL","cd_identificador_classe_equipamento":1,"nm_classe_equipamento":"CENTRO ESPORTIVO","tx_classe_equipamento":"CENTRO ESPORTIVO","cd_identificador_esfera_administrativa_equipamento":1,"nm_esfera_administrativa_equipamento":"Público - Municipal","tx_esfera_administrativa_equipamento":"Público - Municipal","cd_equipamento":null,"nm_equipamento":"CENTRO ESPORTIVO JUSCELINO KUBITSCHEK - CEL JUSCELINO KIBITSCHEK","tx_endereco_equipamento":"RUA INACIO MONTEIRO, 55","nm_bairro_equipamento":null,"cd_cep_equipamento":null,"tx_horario_funcionamento":null,"tx_numero_telefone":null,"cd_equipamento_base_origem":null}},{"type":"Feature","id":"equipamento_esporte_centro_esportivo_v2.90037","geometry":{"type":"Point","coordinates":[340392.717,7395831.8984]},"geometry_name":"ge_ponto","properties":{"cd_identificador":90037,"cd_identificador_tema_equipamento":5,"nm_tema_equipamento":"ESPORTE","cd_identificador_rede_equipamento":0,"nm_rede_equipamento":"SEM REDE","tx_rede_equipamento":"Sem descrição","cd_identificador_tipo_equipamento":1,"nm_tipo_equipamento":"Centro Esportivo/Centro Educacional e Esportivo - CE/CEE","tx_tipo_equipamento":"Número de Centros Educacionais e Esportivos","cd_identificador_classe_equipamento":1,"nm_classe_equipamento":"CENTRO ESPORTIVO","tx_classe_equipamento":"CENTRO ESPORTIVO","cd_identificador_esfera_administrativa_equipamento":1,"nm_esfera_administrativa_equipamento":"Público - Municipal","tx_esfera_administrativa_equipamento":"Público - Municipal","cd_equipamento":null,"nm_equipamento":"CENTRO ESPORTIVO TATUAPÉ - CEE BRIGADEIRO EDUARDO GOMES","tx_endereco_equipamento":"RUA MONTE SERRAT, 230","nm_bairro_equipamento":null,"cd_cep_equipamento":null,"tx_horario_funcionamento":null,"tx_numero_telefone":null,"cd_equipamento_base_origem":null}},{"type":"Feature","id":"equipamento_esporte_centro_esportivo_v2.90038","geometry":{"type":"Point","coordinates":[341036.2955,7393668.4319]},"geometry_name":"ge_ponto","properties":{"cd_identificador":90038,"cd_identificador_tema_equipamento":5,"nm_tema_equipamento":"ESPORTE","cd_identificador_rede_equipamento":0,"nm_rede_equipamento":"SEM REDE","tx_rede_equipamento":"Sem descrição","cd_identificador_tipo_equipamento":1,"nm_tipo_equipamento":"Centro Esportivo/Centro Educacional e Esportivo - CE/CEE","tx_tipo_equipamento":"Número de Centros Educacionais e Esportivos","cd_identificador_classe_equipamento":1,"nm_classe_equipamento":"CENTRO ESPORTIVO","tx_classe_equipamento":"CENTRO ESPORTIVO","cd_identificador_esfera_administrativa_equipamento":1,"nm_esfera_administrativa_equipamento":"Público - Municipal","tx_esfera_administrativa_equipamento":"Público - Municipal","cd_equipamento":null,"nm_equipamento":"CENTRO ESPORTIVO, RECREATIVO E EDUCATIVO DO TRABALHADOR - CERET","tx_endereco_equipamento":"RUA CANUTO DE ABREU, S\\/N","nm_bairro_equipamento":null,"cd_cep_equipamento":null,"tx_horario_funcionamento":null,"tx_numero_telefone":null,"cd_equipamento_base_origem":null}},{"type":"Feature","id":"equipamento_esporte_centro_esportivo_v2.90039","geometry":{"type":"Point","coordinates":[339946.4054,7391016.398]},"geometry_name":"ge_ponto","properties":{"cd_identificador":90039,"cd_identificador_tema_equipamento":5,"nm_tema_equipamento":"ESPORTE","cd_identificador_rede_equipamento":0,"nm_rede_equipamento":"SEM REDE","tx_rede_equipamento":"Sem descrição","cd_identificador_tipo_equipamento":1,"nm_tipo_equipamento":"Centro Esportivo/Centro Educacional e Esportivo - CE/CEE","tx_tipo_equipamento":"Número de Centros Educacionais e Esportivos","cd_identificador_classe_equipamento":1,"nm_classe_equipamento":"CENTRO ESPORTIVO","tx_classe_equipamento":"CENTRO ESPORTIVO","cd_identificador_esfera_administrativa_equipamento":1,"nm_esfera_administrativa_equipamento":"Público - Municipal","tx_esfera_administrativa_equipamento":"Público - Municipal","cd_equipamento":null,"nm_equipamento":"CENTRO ESPORTIVO VILA PRUDENTE/VILA ALPINA - CEE ARTHUR FRIEDENREICH","tx_endereco_equipamento":"AVENIDA FRANCISCO FALCONI, 83","nm_bairro_equipamento":null,"cd_cep_equipamento":null,"tx_horario_funcionamento":null,"tx_numero_telefone":null,"cd_equipamento_base_origem":null}},{"type":"Feature","id":"equipamento_esporte_centro_esportivo_v2.90040","geometry":{"type":"Point","coordinates":[321096.1993,7394122.1047]},"geometry_name":"ge_ponto","properties":{"cd_identificador":90040,"cd_identificador_tema_equipamento":5,"nm_tema_equipamento":"ESPORTE","cd_identificador_rede_equipamento":0,"nm_rede_equipamento":"SEM REDE","tx_rede_equipamento":"Sem descrição","cd_identificador_tipo_equipamento":4,"nm_tipo_equipamento":"Centro Esportivo/Mini-Balneário","tx_tipo_equipamento":"Número de Mini-Balneários","cd_identificador_classe_equipamento":1,"nm_classe_equipamento":"CENTRO ESPORTIVO","tx_classe_equipamento":"CENTRO ESPORTIVO","cd_identificador_esfera_administrativa_equipamento":1,"nm_esfera_administrativa_equipamento":"Público - Municipal","tx_esfera_administrativa_equipamento":"Público - Municipal","cd_equipamento":null,"nm_equipamento":"CENTRO ESPORTIVO JAGUARÉ - MINI BALNEÁRIO MARECHAL ESPIRIDIÃO ROSAS","tx_endereco_equipamento":"RUA GENERAL MAC ARTHUR, 1304","nm_bairro_equipamento":null,"cd_cep_equipamento":null,"tx_horario_funcionamento":null,"tx_numero_telefone":null,"cd_equipamento_base_origem":null}},{"type":"Feature","id":"equipamento_esporte_centro_esportivo_v2.90041","geometry":{"type":"Point","coordinates":[324059.4246,7391785.2728]},"geometry_name":"ge_ponto","properties":{"cd_identificador":90041,"cd_identificador_tema_equipamento":5,"nm_tema_equipamento":"ESPORTE","cd_identificador_rede_equipamento":0,"nm_rede_equipamento":"SEM REDE","tx_rede_equipamento":"Sem descrição","cd_identificador_tipo_equipamento":1,"nm_tipo_equipamento":"Centro Esportivo/Centro Educacional e Esportivo - CE/CEE","tx_tipo_equipamento":"Número de Centros Educacionais e Esportivos","cd_identificador_classe_equipamento":1,"nm_classe_equipamento":"CENTRO ESPORTIVO","tx_classe_equipamento":"CENTRO ESPORTIVO","cd_identificador_esfera_administrativa_equipamento":1,"nm_esfera_administrativa_equipamento":"Público - Municipal","tx_esfera_administrativa_equipamento":"Público - Municipal","cd_equipamento":null,"nm_equipamento":"CENTRO ESPORTIVO BUTANTÃ - CEE SOLANGE NUNES BIBAS","tx_endereco_equipamento":"RUA DR ERNANI DA GAMA CORREA, 367","nm_bairro_equipamento":null,"cd_cep_equipamento":null,"tx_horario_funcionamento":null,"tx_numero_telefone":null,"cd_equipamento_base_origem":null}},{"type":"Feature","id":"equipamento_esporte_centro_esportivo_v2.90042","geometry":{"type":"Point","coordinates":[322234.3163,7402375.5178]},"geometry_name":"ge_ponto","properties":{"cd_identificador":90042,"cd_identificador_tema_equipamento":5,"nm_tema_equipamento":"ESPORTE","cd_identificador_rede_equipamento":0,"nm_rede_equipamento":"SEM REDE","tx_rede_equipamento":"Sem descrição","cd_identificador_tipo_equipamento":1,"nm_tipo_equipamento":"Centro Esportivo/Centro Educacional e Esportivo - CE/CEE","tx_tipo_equipamento":"Número de Centros Educacionais e Esportivos","cd_identificador_classe_equipamento":1,"nm_classe_equipamento":"CENTRO ESPORTIVO","tx_classe_equipamento":"CENTRO ESPORTIVO","cd_identificador_esfera_administrativa_equipamento":1,"nm_esfera_administrativa_equipamento":"Público - Municipal","tx_esfera_administrativa_equipamento":"Público - Municipal","cd_equipamento":null,"nm_equipamento":"CENTRO ESPORTIVO PIRITUBA - CEE GERALDO JOSÉ DE ALMEIDA","tx_endereco_equipamento":"AV AGENOR COUTO DE MAGALHAES, 32","nm_bairro_equipamento":null,"cd_cep_equipamento":null,"tx_horario_funcionamento":null,"tx_numero_telefone":null,"cd_equipamento_base_origem":null}},{"type":"Feature","id":"equipamento_esporte_centro_esportivo_v2.90043","geometry":{"type":"Point","coordinates":[324384.0114,7396996.284]},"geometry_name":"ge_ponto","properties":{"cd_identificador":90043,"cd_identificador_tema_equipamento":5,"nm_tema_equipamento":"ESPORTE","cd_identificador_rede_equipamento":0,"nm_rede_equipamento":"SEM REDE","tx_rede_equipamento":"Sem descrição","cd_identificador_tipo_equipamento":1,"nm_tipo_equipamento":"Centro Esportivo/Centro Educacional e Esportivo - CE/CEE","tx_tipo_equipamento":"Número de Centros Educacionais e Esportivos","cd_identificador_classe_equipamento":1,"nm_classe_equipamento":"CENTRO ESPORTIVO","tx_classe_equipamento":"CENTRO ESPORTIVO","cd_identificador_esfera_administrativa_equipamento":1,"nm_esfera_administrativa_equipamento":"Público - Municipal","tx_esfera_administrativa_equipamento":"Público - Municipal","cd_equipamento":null,"nm_equipamento":"CENTRO ESPORTIVO LAPA - CEE EDSON ARANTES DO NASCIMENTO","tx_endereco_equipamento":"RUA BELMONTE, 957","nm_bairro_equipamento":null,"cd_cep_equipamento":null,"tx_horario_funcionamento":null,"tx_numero_telefone":null,"cd_equipamento_base_origem":null}},{"type":"Feature","id":"equipamento_esporte_centro_esportivo_v2.90044","geometry":{"type":"Point","coordinates":[320999.6709,7389220.8213]},"geometry_name":"ge_ponto","properties":{"cd_identificador":90044,"cd_identificador_tema_equipamento":5,"nm_tema_equipamento":"ESPORTE","cd_identificador_rede_equipamento":0,"nm_rede_equipamento":"SEM REDE","tx_rede_equipamento":"Sem descrição","cd_identificador_tipo_equipamento":3,"nm_tipo_equipamento":"Centro Esportivo/Balneário","tx_tipo_equipamento":"Número de Balneários","cd_identificador_classe_equipamento":1,"nm_classe_equipamento":"CENTRO ESPORTIVO","tx_classe_equipamento":"CENTRO ESPORTIVO","cd_identificador_esfera_administrativa_equipamento":1,"nm_esfera_administrativa_equipamento":"Público - Municipal","tx_esfera_administrativa_equipamento":"Público - Municipal","cd_equipamento":null,"nm_equipamento":"CENTRO ESPORTIVO JARDIM CELESTE - BALNEÁRIO MÁRIO MORAES","tx_endereco_equipamento":"RUA EDWARD CARMILO, 840","nm_bairro_equipamento":null,"cd_cep_equipamento":null,"tx_horario_funcionamento":null,"tx_numero_telefone":null,"cd_equipamento_base_origem":null}},{"type":"Feature","id":"equipamento_esporte_centro_esportivo_v2.90045","geometry":{"type":"Point","coordinates":[320533.2387,7409655.8286]},"geometry_name":"ge_ponto","properties":{"cd_identificador":90045,"cd_identificador_tema_equipamento":5,"nm_tema_equipamento":"ESPORTE","cd_identificador_rede_equipamento":0,"nm_rede_equipamento":"SEM REDE","tx_rede_equipamento":"Sem descrição","cd_identificador_tipo_equipamento":2,"nm_tipo_equipamento":"Centro Esportivo/Centro de Esporte e Lazer - CE/CEL","tx_tipo_equipamento":"Número de Centros de Esporte e Lazer - CEL","cd_identificador_classe_equipamento":1,"nm_classe_equipamento":"CENTRO ESPORTIVO","tx_classe_equipamento":"CENTRO ESPORTIVO","cd_identificador_esfera_administrativa_equipamento":1,"nm_esfera_administrativa_equipamento":"Público - Municipal","tx_esfera_administrativa_equipamento":"Público - Municipal","cd_equipamento":null,"nm_equipamento":"CENTRO ESPORTIVO E DE LAZER PERUS - CEL PERUS","tx_endereco_equipamento":"ESTRADA SAO PAULO, ","nm_bairro_equipamento":null,"cd_cep_equipamento":null,"tx_horario_funcionamento":null,"tx_numero_telefone":null,"cd_equipamento_base_origem":null}},{"type":"Feature","id":"equipamento_esporte_centro_esportivo_v2.90046","geometry":{"type":"Point","coordinates":[331003.7625,7389306.6832]},"geometry_name":"ge_ponto","properties":{"cd_identificador":90046,"cd_identificador_tema_equipamento":5,"nm_tema_equipamento":"ESPORTE","cd_identificador_rede_equipamento":0,"nm_rede_equipamento":"SEM REDE","tx_rede_equipamento":"Sem descrição","cd_identificador_tipo_equipamento":1,"nm_tipo_equipamento":"Centro Esportivo/Centro Educacional e Esportivo - CE/CEE","tx_tipo_equipamento":"Número de Centros Educacionais e Esportivos","cd_identificador_classe_equipamento":1,"nm_classe_equipamento":"CENTRO ESPORTIVO","tx_classe_equipamento":"CENTRO ESPORTIVO","cd_identificador_esfera_administrativa_equipamento":1,"nm_esfera_administrativa_equipamento":"Público - Municipal","tx_esfera_administrativa_equipamento":"Público - Municipal","cd_equipamento":null,"nm_equipamento":"CENTRO OLÍMPICO DE TREINAMENTO E PESQUISA (COTP)","tx_endereco_equipamento":"AVENIDA IBIRAPUERA, 1315","nm_bairro_equipamento":null,"cd_cep_equipamento":"04029-000","tx_horario_funcionamento":null,"tx_numero_telefone":null,"cd_equipamento_base_origem":null}}],"totalFeatures":46,"numberMatched":46,"numberReturned":46,"timeStamp":"2026-05-17T01:42:59.924Z","crs":{"type":"name","properties":{"name":"urn:ogc:def:crs:EPSG::31983"}}}