{"type":"FeatureCollection","features":[{"type":"Feature","id":"unidade_comdec.1","geometry":{"type":"Point","coordinates":[320862.1761,7410316.238]},"geometry_name":"ge_ponto","properties":{"cd_identificador_unidade_comdec":1,"nm_unidade_comdec":"DIVISAO DE DEFESA CIVIL - PERUS","tx_endereco":"R. YLIDIO FIGUEIREDO,349","tx_complemento":"VILA PERUS","tx_cep":"05204-020","dt_atualizacao":"2026-01-21Z"}},{"type":"Feature","id":"unidade_comdec.2","geometry":{"type":"Point","coordinates":[350059.8201,7389316.4657]},"geometry_name":"ge_ponto","properties":{"cd_identificador_unidade_comdec":2,"nm_unidade_comdec":"DIVISAO DE DEFESA CIVIL - SAO MIGUEL PAULISTA","tx_endereco":"R. DONA ANA FLORA PINHEIRO DE SOUSA,76","tx_complemento":"VILA JACUI","tx_cep":"08060-150","dt_atualizacao":"2026-01-21Z"}},{"type":"Feature","id":"unidade_comdec.3","geometry":{"type":"Point","coordinates":[338309.7718,7404198.5796]},"geometry_name":"ge_ponto","properties":{"cd_identificador_unidade_comdec":3,"nm_unidade_comdec":"DIVISAO DE DEFESA CIVIL - JACANA - TREMEMBE","tx_endereco":"R. DOUTOR CARLOS BASTOS ARANHA,50","tx_complemento":"VILA NILO","tx_cep":"02278-010","dt_atualizacao":"2026-01-21Z"}},{"type":"Feature","id":"unidade_comdec.4","geometry":{"type":"Point","coordinates":[323727.77,7381530.1609]},"geometry_name":"ge_ponto","properties":{"cd_identificador_unidade_comdec":4,"nm_unidade_comdec":"DIVISAO DE DEFESA CIVIL - M'BOI MIRIM","tx_endereco":"AV. GUARAPIRANGA,1695","tx_complemento":"VILA SOCORRO","tx_cep":"04902-015","dt_atualizacao":"2026-01-21Z"}},{"type":"Feature","id":"unidade_comdec.5","geometry":{"type":"Point","coordinates":[333135.7314,7394866.8281]},"geometry_name":"ge_ponto","properties":{"cd_identificador_unidade_comdec":5,"nm_unidade_comdec":"DIVISAO DE DEFESA CIVIL - SE","tx_endereco":"R. ALVARES PENTEADO,49","tx_complemento":"1º ANDAR CENTRO","tx_cep":"01012-001","dt_atualizacao":"2026-01-21Z"}},{"type":"Feature","id":"unidade_comdec.6","geometry":{"type":"Point","coordinates":[337457.0918,7400096.6966]},"geometry_name":"ge_ponto","properties":{"cd_identificador_unidade_comdec":6,"nm_unidade_comdec":"DIVISAO DE DEFESA CIVIL - V. MARIA - V. GUILHERME","tx_endereco":"R. GENERAL MENDES,111","tx_complemento":"VILA MARIA ALTA","tx_cep":"02127-020","dt_atualizacao":"2026-01-21Z"}},{"type":"Feature","id":"unidade_comdec.7","geometry":{"type":"Point","coordinates":[336394.5291,7390549.6144]},"geometry_name":"ge_ponto","properties":{"cd_identificador_unidade_comdec":7,"nm_unidade_comdec":"DIVISAO DE DEFESA CIVIL - IPIRANGA","tx_endereco":"R. LINO COUTINHO,444","tx_complemento":"IPIRANGA","tx_cep":"04207-000","dt_atualizacao":"2026-01-21Z"}},{"type":"Feature","id":"unidade_comdec.8","geometry":{"type":"Point","coordinates":[333200.7844,7395049.1758]},"geometry_name":"ge_ponto","properties":{"cd_identificador_unidade_comdec":8,"nm_unidade_comdec":"DIVISAO DE OPERACOES","tx_endereco":"R. XV DE NOVEMBRO,268","tx_complemento":"CENTRO","tx_cep":"01013-000","dt_atualizacao":"2026-01-21Z"}},{"type":"Feature","id":"unidade_comdec.9","geometry":{"type":"Point","coordinates":[348933.1376,7399517.3825]},"geometry_name":"ge_ponto","properties":{"cd_identificador_unidade_comdec":9,"nm_unidade_comdec":"DIVISAO DE DEFESA CIVIL - ERMELINO MATARAZZO","tx_endereco":"AV. SAO MIGUEL,5550","tx_complemento":"JARDIM COTINHA","tx_cep":"03870-100","dt_atualizacao":"2026-01-21Z"}},{"type":"Feature","id":"unidade_comdec.10","geometry":{"type":"Point","coordinates":[336158.8228,7402272.9545]},"geometry_name":"ge_ponto","properties":{"cd_identificador_unidade_comdec":10,"nm_unidade_comdec":"DIVISAO DE DEFESA CIVIL - SANTANA - TUCURUVI","tx_endereco":"AV. TUCURUVI,808","tx_complemento":"TUCURUVI","tx_cep":"02304-002","dt_atualizacao":"2026-01-21Z"}},{"type":"Feature","id":"unidade_comdec.11","geometry":{"type":"Point","coordinates":[342001.3812,7394681.4146]},"geometry_name":"ge_ponto","properties":{"cd_identificador_unidade_comdec":11,"nm_unidade_comdec":"DIVISAO DE DEFESA CIVIL - ARICANDUVA","tx_endereco":"R. ATUCURI,699","tx_complemento":"CHACARA SANTO ANTONIO","tx_cep":"03411-000","dt_atualizacao":"2026-01-21Z"}},{"type":"Feature","id":"unidade_comdec.12","geometry":{"type":"Point","coordinates":[344709.4448,7398257.1036]},"geometry_name":"ge_ponto","properties":{"cd_identificador_unidade_comdec":12,"nm_unidade_comdec":"DIVISAO DE DEFESA CIVIL - PENHA","tx_endereco":"R. CANDAPUI,492","tx_complemento":"3º PAVIMENTO VILA MARIETA","tx_cep":"03621-000","dt_atualizacao":"2026-01-21Z"}},{"type":"Feature","id":"unidade_comdec.13","geometry":{"type":"Point","coordinates":[322633.3621,7390290.2294]},"geometry_name":"ge_ponto","properties":{"cd_identificador_unidade_comdec":13,"nm_unidade_comdec":"DIVISAO DE DEFESA CIVIL - BUTANTA","tx_endereco":"R. DOUTOR ULPIANO DA COSTA MANSO,201","tx_complemento":"JARDIM PERI PERI","tx_cep":"05538-000","dt_atualizacao":"2026-01-21Z"}},{"type":"Feature","id":"unidade_comdec.14","geometry":{"type":"Point","coordinates":[326899.4167,7397628.9429]},"geometry_name":"ge_ponto","properties":{"cd_identificador_unidade_comdec":14,"nm_unidade_comdec":"DIVISAO DE DEFESA CIVIL - LAPA","tx_endereco":"R. GUAICURUS,1001","tx_complemento":"AGUA BRANCA","tx_cep":"05033-001","dt_atualizacao":"2026-01-21Z"}},{"type":"Feature","id":"unidade_comdec.15","geometry":{"type":"Point","coordinates":[324673.2296,7401034.2309]},"geometry_name":"ge_ponto","properties":{"cd_identificador_unidade_comdec":15,"nm_unidade_comdec":"DIVISAO DE DEFESA CIVIL - PIRITUBA - JARAGUA","tx_endereco":"R. COMENDADOR GABRIEL COTTI,123","tx_complemento":"VILA PEREIRA BARRETO","tx_cep":"02919-110","dt_atualizacao":"2026-01-21Z"}},{"type":"Feature","id":"unidade_comdec.16","geometry":{"type":"Point","coordinates":[331682.0184,7389295.9223]},"geometry_name":"ge_ponto","properties":{"cd_identificador_unidade_comdec":16,"nm_unidade_comdec":"DIVISAO DE DEFESA CIVIL - VILA MARIANA","tx_endereco":"R. JOSE DE MAGALHAES,500","tx_complemento":"VILA CLEMENTINO","tx_cep":"04026-090","dt_atualizacao":"2026-01-21Z"}},{"type":"Feature","id":"unidade_comdec.17","geometry":{"type":"Point","coordinates":[329097.5561,7381700.4136]},"geometry_name":"ge_ponto","properties":{"cd_identificador_unidade_comdec":17,"nm_unidade_comdec":"DIVISAO DE DEFESA CIVIL - CIDADE ADEMAR","tx_endereco":"AV. YERVANT KISSAJIKIAN,416","tx_complemento":"VILA CONSTANCA","tx_cep":"04657-000","dt_atualizacao":"2026-01-21Z"}},{"type":"Feature","id":"unidade_comdec.18","geometry":{"type":"Point","coordinates":[332680.3088,7383808.2781]},"geometry_name":"ge_ponto","properties":{"cd_identificador_unidade_comdec":18,"nm_unidade_comdec":"DIVISAO DE DEFESA CIVIL - JABAQUARA","tx_endereco":"AV. ENGENHEIRO ARMANDO DE ARRUDA PEREIRA,2314","tx_complemento":"JABAQUARA","tx_cep":"04308-001","dt_atualizacao":"2026-01-21Z"}},{"type":"Feature","id":"unidade_comdec.19","geometry":{"type":"Point","coordinates":[354706.9167,7394295.6445]},"geometry_name":"ge_ponto","properties":{"cd_identificador_unidade_comdec":19,"nm_unidade_comdec":"DIVISAO DE DEFESA CIVIL - GUAIANASES","tx_endereco":"R. LUIS MATEUS,1505","tx_complemento":"VILA COSMOPOLITA","tx_cep":"08421-035","dt_atualizacao":"2026-01-21Z"}},{"type":"Feature","id":"unidade_comdec.20","geometry":{"type":"Point","coordinates":[345643.7302,7389200.9917]},"geometry_name":"ge_ponto","properties":{"cd_identificador_unidade_comdec":20,"nm_unidade_comdec":"DIVISAO DE DEFESA CIVIL - SAPOPEMBA","tx_endereco":"AV. SAPOPEMBA,9064","tx_complemento":"JARDIM ADUTORA","tx_cep":"03988-000","dt_atualizacao":"2026-01-21Z"}},{"type":"Feature","id":"unidade_comdec.21","geometry":{"type":"Point","coordinates":[337183.5127,7395056.9733]},"geometry_name":"ge_ponto","properties":{"cd_identificador_unidade_comdec":21,"nm_unidade_comdec":"DIVISAO DE DEFESA CIVIL - MOOCA","tx_endereco":"R. TAQUARI,635","tx_complemento":"MOOCA","tx_cep":"03166-000","dt_atualizacao":"2026-01-21Z"}},{"type":"Feature","id":"unidade_comdec.22","geometry":{"type":"Point","coordinates":[352267.8678,7396898.7716]},"geometry_name":"ge_ponto","properties":{"cd_identificador_unidade_comdec":22,"nm_unidade_comdec":"DIVISAO DE DEFESA CIVIL - ITAQUERA","tx_endereco":"R. AUGUSTO CARLOS BAUMAN,851","tx_complemento":"ITAQUERA","tx_cep":"08215-263","dt_atualizacao":"2026-01-21Z"}},{"type":"Feature","id":"unidade_comdec.23","geometry":{"type":"Point","coordinates":[322943.9291,7384270.8277]},"geometry_name":"ge_ponto","properties":{"cd_identificador_unidade_comdec":23,"nm_unidade_comdec":"DIVISAO DE DEFESA CIVIL - CAMPO LIMPO","tx_endereco":"AV. GIOVANNI GRONCHI,7143","tx_complemento":"VILA ANDRADE","tx_cep":"05724-005","dt_atualizacao":"2026-01-21Z"}},{"type":"Feature","id":"unidade_comdec.24","geometry":{"type":"Point","coordinates":[326158.7581,7393194.3465]},"geometry_name":"ge_ponto","properties":{"cd_identificador_unidade_comdec":24,"nm_unidade_comdec":"DIVISAO DE DEFESA CIVIL - PINHEIROS","tx_endereco":"AV. PROFESSOR FREDERICO HERMAN JUNIOR,595","tx_complemento":"ALTO DE PINHEIROS","tx_cep":"05459-010","dt_atualizacao":"2026-01-21Z"}},{"type":"Feature","id":"unidade_comdec.25","geometry":{"type":"Point","coordinates":[350066.4338,7389312.1785]},"geometry_name":"ge_ponto","properties":{"cd_identificador_unidade_comdec":25,"nm_unidade_comdec":"DIVISAO DE DEFESA CIVIL - SAO MATEUS","tx_endereco":"AV. RAGUEB CHOHFI,1400","tx_complemento":"JARDIM TRES MARIAS","tx_cep":"08375-000","dt_atualizacao":"2026-01-21Z"}},{"type":"Feature","id":"unidade_comdec.26","geometry":{"type":"Point","coordinates":[340675.672,7391117.2154]},"geometry_name":"ge_ponto","properties":{"cd_identificador_unidade_comdec":26,"nm_unidade_comdec":"DIVISAO DE DEFESA CIVIL - VILA PRUDENTE","tx_endereco":"AV. DO ORATORIO,172","tx_complemento":"VILA INDEPENDENCIA","tx_cep":"03220-000","dt_atualizacao":"2026-01-21Z"}},{"type":"Feature","id":"unidade_comdec.27","geometry":{"type":"Point","coordinates":[326520.1494,7375711.3532]},"geometry_name":"ge_ponto","properties":{"cd_identificador_unidade_comdec":27,"nm_unidade_comdec":"DIVISAO DE DEFESA CIVIL - CAPELA DO SOCORRO","tx_endereco":"R. CASSIANO DOS SANTOS,499","tx_complemento":"RIO BONITO","tx_cep":"04827-110","dt_atualizacao":"2026-01-21Z"}},{"type":"Feature","id":"unidade_comdec.28","geometry":{"type":"Point","coordinates":[325897.9638,7383339.675]},"geometry_name":"ge_ponto","properties":{"cd_identificador_unidade_comdec":28,"nm_unidade_comdec":"DIVISAO DE DEFESA CIVIL - SANTO AMARO","tx_endereco":"PC. FLORIANO PEIXOTO,54","tx_complemento":"4º ANDAR SANTO AMARO","tx_cep":"04751-030","dt_atualizacao":"2026-01-21Z"}},{"type":"Feature","id":"unidade_comdec.29","geometry":{"type":"Point","coordinates":[329842.4142,7398833.5415]},"geometry_name":"ge_ponto","properties":{"cd_identificador_unidade_comdec":29,"nm_unidade_comdec":"DIVISAO DE DEFESA CIVIL - CASA VERDE","tx_endereco":"AV. ORDEM E PROGRESSO,1001","tx_complemento":"JARDIM DAS LARANJEIRAS","tx_cep":"02518-130","dt_atualizacao":"2026-01-21Z"}},{"type":"Feature","id":"unidade_comdec.30","geometry":{"type":"Point","coordinates":[323183.6159,7365136.8693]},"geometry_name":"ge_ponto","properties":{"cd_identificador_unidade_comdec":30,"nm_unidade_comdec":"DIVISAO DE DEFESA CIVIL - PARELHEIROS","tx_endereco":"EST. ECOTURISTICA DE PARELHEIROS,5252","tx_complemento":"JARDIM DOS ALAMOS","tx_cep":"04883-025","dt_atualizacao":"2026-01-21Z"}},{"type":"Feature","id":"unidade_comdec.31","geometry":{"type":"Point","coordinates":[331173.5592,7394605.5387]},"geometry_name":"ge_ponto","properties":{"cd_identificador_unidade_comdec":31,"nm_unidade_comdec":"COORDENADORIA MUNICIPAL DE DEFESA CIVIL","tx_endereco":"R. DA CONSOLACAO,1379","tx_complemento":"CONSOLACAO","tx_cep":"01301-100","dt_atualizacao":"2026-01-21Z"}},{"type":"Feature","id":"unidade_comdec.32","geometry":{"type":"Point","coordinates":[355307.9086,7391167.4016]},"geometry_name":"ge_ponto","properties":{"cd_identificador_unidade_comdec":32,"nm_unidade_comdec":"DIVISAO DE DEFESA CIVIL - CIDADE TIRADENTES","tx_endereco":"R. JUA MIRIM,S/N","tx_complemento":"JARDIM PEDRA BRANCA","tx_cep":"08490-800","dt_atualizacao":"2026-01-21Z"}},{"type":"Feature","id":"unidade_comdec.33","geometry":{"type":"Point","coordinates":[355295.2816,7401042.4268]},"geometry_name":"ge_ponto","properties":{"cd_identificador_unidade_comdec":33,"nm_unidade_comdec":"DIVISAO DE DEFESA CIVIL - ITAIM PAULISTA","tx_endereco":"AV. MARECHAL TITO,3012","tx_complemento":"JARDIM SILVA TELES","tx_cep":"08160-495","dt_atualizacao":"2026-01-21Z"}},{"type":"Feature","id":"unidade_comdec.34","geometry":{"type":"Point","coordinates":[329973.6615,7402751.4993]},"geometry_name":"ge_ponto","properties":{"cd_identificador_unidade_comdec":34,"nm_unidade_comdec":"DIVISAO DE DEFESA CIVIL - FREGUESIA DO O","tx_endereco":"AV. JOAO MARCELINO BRANCO,95","tx_complemento":"VILA DOS ANDRADES","tx_cep":"02610-000","dt_atualizacao":"2026-01-21Z"}}],"totalFeatures":34,"numberMatched":34,"numberReturned":34,"timeStamp":"2026-05-16T19:42:42.792Z","crs":{"type":"name","properties":{"name":"urn:ogc:def:crs:EPSG::31983"}}}