{"type":"FeatureCollection","features":[{"type":"Feature","id":"descomplica.221","geometry":{"type":"Point","coordinates":[326870.4527,7397626.0403]},"geometry_name":"ge_ponto","properties":{"cd_identificador_descomplica":221,"cd_identificador_original":1,"nm_equipamento":"Lapa","nm_endereco":"RUA GUAICURUS, 1000","tx_telefone":156,"tx_site_servico":"https://descomplicasp.prefeitura.sp.gov.br/","tx_site_unidade":"https://sp156.prefeitura.sp.gov.br/portal/descomplica?id=descomplica-lapa","tx_site_agendamento":"https://agendadesc.prefeitura.sp.gov.br/agendamento/","tx_horario_funcionamento":"SEG A SEX (8H AS 17H)","tx_servico":"Descomplica SP Digital; Direitos Humanos; Fazenda; Junta Militar; SMADS","dt_atualizacao":"2024-10-14Z"}},{"type":"Feature","id":"descomplica.222","geometry":{"type":"Point","coordinates":[351811.6875,7400324.7744]},"geometry_name":"ge_ponto","properties":{"cd_identificador_descomplica":222,"cd_identificador_original":2,"nm_equipamento":"São Miguel Paulista","nm_endereco":"RUA DONA ANA FLORA PINHEIRO DE SOUSA, 76","tx_telefone":156,"tx_site_servico":"https://descomplicasp.prefeitura.sp.gov.br/","tx_site_unidade":"https://sp156.prefeitura.sp.gov.br/portal/descomplica?id=descomplica-sao-miguel","tx_site_agendamento":"https://agendadesc.prefeitura.sp.gov.br/agendamento/","tx_horario_funcionamento":"SEG A SEX (8H AS 17H)","tx_servico":"Descomplica SP Digital; SMADS (CadÚnico); Casa de Mediação; Direitos Humanos; Fazenda; Junta Militar; SPTRANS; Subprefeituras; ADESAMPA (Atendimento MEI); CATE; SABESP; COHAB; DETRAN","dt_atualizacao":"2024-10-14Z"}},{"type":"Feature","id":"descomplica.223","geometry":{"type":"Point","coordinates":[329161.5675,7381626.5958]},"geometry_name":"ge_ponto","properties":{"cd_identificador_descomplica":223,"cd_identificador_original":3,"nm_equipamento":"Cidade Ademar","nm_endereco":"AVENIDA YERVANT KISSAJIKIAN, 416","tx_telefone":156,"tx_site_servico":"https://descomplicasp.prefeitura.sp.gov.br/","tx_site_unidade":"https://sp156.prefeitura.sp.gov.br/portal/descomplica?id=descomplica-cidade-ademar","tx_site_agendamento":"https://agendadesc.prefeitura.sp.gov.br/agendamento/","tx_horario_funcionamento":"SEG A SEX (8H AS 17H)","tx_servico":"Descomplica SP Digital; SMADS; SPTRANS; CATE; ADESAMPA (Atendimento MEI); Subprefeitura","dt_atualizacao":"2024-10-14Z"}},{"type":"Feature","id":"descomplica.224","geometry":{"type":"Point","coordinates":[331684.9446,7389264.8554]},"geometry_name":"ge_ponto","properties":{"cd_identificador_descomplica":224,"cd_identificador_original":4,"nm_equipamento":"Vila Mariana","nm_endereco":"RUA JOSÉ DE MAGALHÃES, 500","tx_telefone":156,"tx_site_servico":"https://descomplicasp.prefeitura.sp.gov.br/","tx_site_unidade":"https://sp156.prefeitura.sp.gov.br/portal/descomplica?id=descomplica-vila-mariana","tx_site_agendamento":"https://agendadesc.prefeitura.sp.gov.br/agendamento/","tx_horario_funcionamento":"SEG A SEX (8H AS 17H)","tx_servico":"Descomplica SP Digital; SPTRANS; CATE; ADESAMPA (Atendimento MEI); Junta Militar; Subprefeitura","dt_atualizacao":"2024-10-14Z"}},{"type":"Feature","id":"descomplica.225","geometry":{"type":"Point","coordinates":[329848.9953,7398812.7743]},"geometry_name":"ge_ponto","properties":{"cd_identificador_descomplica":225,"cd_identificador_original":5,"nm_equipamento":"Casa Verde/Cachoeirinha","nm_endereco":"AVENIDA ORDEM E PROGRESSO, 1001","tx_telefone":156,"tx_site_servico":"https://descomplicasp.prefeitura.sp.gov.br/","tx_site_unidade":"https://sp156.prefeitura.sp.gov.br/portal/descomplica?id=descomplica-casa-verde","tx_site_agendamento":"https://agendadesc.prefeitura.sp.gov.br/agendamento/","tx_horario_funcionamento":"SEG A SEX (8H AS 17H)","tx_servico":"Descomplica SP Digital; SMADS; SPTRANS; CATE; ADESAMPA; Subprefeitura","dt_atualizacao":"2024-10-14Z"}},{"type":"Feature","id":"descomplica.226","geometry":{"type":"Point","coordinates":[355297.808,7401012.9497]},"geometry_name":"ge_ponto","properties":{"cd_identificador_descomplica":226,"cd_identificador_original":6,"nm_equipamento":"Itaim Paulista","nm_endereco":"Avenida Marechal Tito, 3012","tx_telefone":156,"tx_site_servico":"https://descomplicasp.prefeitura.sp.gov.br/","tx_site_unidade":"https://sp156.prefeitura.sp.gov.br/portal/descomplica?id=descomplica-itaim-paulista","tx_site_agendamento":"https://agendadesc.prefeitura.sp.gov.br/agendamento/","tx_horario_funcionamento":"SEG A SEX (8H AS 17H)","tx_servico":"Descomplica SP Digital; SPTrans; CATe; ADESAMPA (Atendimento MEI); SMADS (CadÚnico); Subprefeitura; Mediação","dt_atualizacao":"2024-10-14Z"}},{"type":"Feature","id":"descomplica.227","geometry":{"type":"Point","coordinates":[320863.9392,7410302.1265]},"geometry_name":"ge_ponto","properties":{"cd_identificador_descomplica":227,"cd_identificador_original":7,"nm_equipamento":"Perus/Anhanguera","nm_endereco":"RUA YLÍDIO FIGUEIREDO, 349","tx_telefone":156,"tx_site_servico":"https://descomplicasp.prefeitura.sp.gov.br/","tx_site_unidade":"https://sp156.prefeitura.sp.gov.br/portal/descomplica?id=descomplica-perus/anhanguera","tx_site_agendamento":"https://agendadesc.prefeitura.sp.gov.br/agendamento/","tx_horario_funcionamento":"SEG A SEX (8H AS 17H)","tx_servico":"Descomplica SP Digital; SMADS; SPTRANS; CATE; ADESAMPA (Atendimento MEI); Fazenda; Subprefeitura","dt_atualizacao":"2024-10-14Z"}},{"type":"Feature","id":"descomplica.228","geometry":{"type":"Point","coordinates":[322875.7158,7384276.1392]},"geometry_name":"ge_ponto","properties":{"cd_identificador_descomplica":228,"cd_identificador_original":8,"nm_equipamento":"Campo Limpo","nm_endereco":"AVENIDA GIOVANNI GRONCHI, 7134. 4º ANDAR","tx_telefone":156,"tx_site_servico":"https://descomplicasp.prefeitura.sp.gov.br/","tx_site_unidade":"https://sp156.prefeitura.sp.gov.br/portal/descomplica?id=descomplica-campo-limpo","tx_site_agendamento":"https://agendadesc.prefeitura.sp.gov.br/agendamento/","tx_horario_funcionamento":"SEG A SEX (8H AS 17H)","tx_servico":"Descomplica SP Digital; SMADS (CadÚnico); Direitos Humanos; SPTRANS; ADESAMPA (Atendimento MEI); CATE","dt_atualizacao":"2024-10-14Z"}},{"type":"Feature","id":"descomplica.229","geometry":{"type":"Point","coordinates":[355528.995,7391176.9668]},"geometry_name":"ge_ponto","properties":{"cd_identificador_descomplica":229,"cd_identificador_original":9,"nm_equipamento":"Cidade Tiradentes","nm_endereco":"AVENIDA RAGUEB CHOHFI, 7001","tx_telefone":156,"tx_site_servico":"https://descomplicasp.prefeitura.sp.gov.br/","tx_site_unidade":"https://sp156.prefeitura.sp.gov.br/portal/descomplica?id=descomplica-cidade-tiradentes","tx_site_agendamento":"https://agendadesc.prefeitura.sp.gov.br/agendamento/","tx_horario_funcionamento":"SEG A SEX (8H AS 17H)","tx_servico":"Descomplica SP Digital; SMADS (CadÚnico); Direitos Humanos e Cidadania; Alistamento e Serviço Militar; Mobilidade e Transportes; Subprefeituras; ADESAMPA (Atendimento MEI); SABESP; Habitação","dt_atualizacao":"2024-10-14Z"}},{"type":"Feature","id":"descomplica.230","geometry":{"type":"Point","coordinates":[333141.9591,7394852.4616]},"geometry_name":"ge_ponto","properties":{"cd_identificador_descomplica":230,"cd_identificador_original":10,"nm_equipamento":"Sé","nm_endereco":"RUA ÁLVARES PENTEADO, 49","tx_telefone":156,"tx_site_servico":"https://descomplicasp.prefeitura.sp.gov.br/","tx_site_unidade":"https://sp156.prefeitura.sp.gov.br/portal/descomplica?id=descomplica-se","tx_site_agendamento":"https://agendadesc.prefeitura.sp.gov.br/agendamento/","tx_horario_funcionamento":"SEG A SEX (8H AS 17H)","tx_servico":"Descomplica SP Digital; Subprefeituras; ADESAMPA (Atendimento MEI)","dt_atualizacao":"2024-10-14Z"}},{"type":"Feature","id":"descomplica.231","geometry":{"type":"Point","coordinates":[346876.7447,7386851.7004]},"geometry_name":"ge_ponto","properties":{"cd_identificador_descomplica":231,"cd_identificador_original":11,"nm_equipamento":"Sapopemba","nm_endereco":"RUA CLARA PETRELA, 113","tx_telefone":156,"tx_site_servico":"https://descomplicasp.prefeitura.sp.gov.br/","tx_site_unidade":"https://sp156.prefeitura.sp.gov.br/portal/descomplica?id=descomplica-sapopemba","tx_site_agendamento":"https://agendadesc.prefeitura.sp.gov.br/agendamento/","tx_horario_funcionamento":"SEG A SEX (8H AS 17H)","tx_servico":"Descomplica SP Digital","dt_atualizacao":"2024-10-14Z"}},{"type":"Feature","id":"descomplica.232","geometry":{"type":"Point","coordinates":[323735.7476,7381506.5045]},"geometry_name":"ge_ponto","properties":{"cd_identificador_descomplica":232,"cd_identificador_original":12,"nm_equipamento":"M´Boi Mirim","nm_endereco":"AVENIDA GUARAPIRANGA, 1695","tx_telefone":156,"tx_site_servico":"https://descomplicasp.prefeitura.sp.gov.br/","tx_site_unidade":"https://sp156.prefeitura.sp.gov.br/portal/descomplica?id=descomplica-m%27boi-mirim","tx_site_agendamento":"https://agendadesc.prefeitura.sp.gov.br/agendamento/","tx_horario_funcionamento":"SEG A SEX (8H AS 17H)","tx_servico":"Descomplica SP Digital; SMADS (CadÚnico); SPTRANS; ADESAMPA (Atendimento MEI); CATE; Junta Militar; Subprefeitura","dt_atualizacao":"2024-10-14Z"}},{"type":"Feature","id":"descomplica.233","geometry":{"type":"Point","coordinates":[338394.1427,7403749.1994]},"geometry_name":"ge_ponto","properties":{"cd_identificador_descomplica":233,"cd_identificador_original":13,"nm_equipamento":"Jaçanã/Tremembé","nm_endereco":"AVENIDA LUIS STAMATIS, 300","tx_telefone":156,"tx_site_servico":"https://descomplicasp.prefeitura.sp.gov.br/","tx_site_unidade":"https://sp156.prefeitura.sp.gov.br/portal/descomplica?id=descomplica-jacana/tremembe","tx_site_agendamento":"https://agendadesc.prefeitura.sp.gov.br/agendamento/","tx_horario_funcionamento":"SEG A SEX (8H AS 17H)","tx_servico":"Descomplica SP Digital; SMADS; SPTRANS; CATE; ADESAMPA (Atendimento MEI); Subprefeitura","dt_atualizacao":"2024-10-14Z"}},{"type":"Feature","id":"descomplica.234","geometry":{"type":"Point","coordinates":[326243.7492,7392778.5631]},"geometry_name":"ge_ponto","properties":{"cd_identificador_descomplica":234,"cd_identificador_original":14,"nm_equipamento":"Pinheiros","nm_endereco":"Avenida Dra. Ruth Cardoso, 7123","tx_telefone":156,"tx_site_servico":"https://descomplicasp.prefeitura.sp.gov.br/","tx_site_unidade":"","tx_site_agendamento":"https://agendadesc.prefeitura.sp.gov.br/agendamento/","tx_horario_funcionamento":"SEG A SEX (8H AS 17H)","tx_servico":"Descomplica SP Digital; SPTrans; CATe; ADESAMPA (Atendimento MEI); Subprefeitura; Fazenda; ENEL","dt_atualizacao":"2024-10-14Z"}},{"type":"Feature","id":"descomplica.235","geometry":{"type":"Point","coordinates":[348274.229,7400676.2144]},"geometry_name":"ge_ponto","properties":{"cd_identificador_descomplica":235,"cd_identificador_original":15,"nm_equipamento":"Ermelino Matarazzo","nm_endereco":"Rua Boturussu, 1180","tx_telefone":156,"tx_site_servico":"https://descomplicasp.prefeitura.sp.gov.br/","tx_site_unidade":"","tx_site_agendamento":"https://agendadesc.prefeitura.sp.gov.br/agendamento/","tx_horario_funcionamento":"SEG A SEX (8H AS 17H)","tx_servico":"Descomplica SP Digital; SPTrans; CATe; ADESAMPA (Atendimento MEI); SMADS (CadÚnico); Subprefeitura","dt_atualizacao":"2024-10-14Z"}},{"type":"Feature","id":"descomplica.236","geometry":{"type":"Point","coordinates":[340677.3807,7391082.3733]},"geometry_name":"ge_ponto","properties":{"cd_identificador_descomplica":236,"cd_identificador_original":16,"nm_equipamento":"Vila Prudente","nm_endereco":"AVENIDA DO ORATÓRIO, 172","tx_telefone":156,"tx_site_servico":"https://descomplicasp.prefeitura.sp.gov.br/","tx_site_unidade":"https://sp156.prefeitura.sp.gov.br/portal/descomplica?id=descomplica-vila-prudente","tx_site_agendamento":"https://agendadesc.prefeitura.sp.gov.br/agendamento/","tx_horario_funcionamento":"SEG A SEX (8H AS 17H)","tx_servico":"Descomplica SP Digital; SMADS; SPTrans; CATE; ADESAMPA; Junta Militar; Subprefeitura","dt_atualizacao":"2024-10-14Z"}},{"type":"Feature","id":"descomplica.237","geometry":{"type":"Point","coordinates":[326518.9399,7375680.8229]},"geometry_name":"ge_ponto","properties":{"cd_identificador_descomplica":237,"cd_identificador_original":17,"nm_equipamento":"Capela do Socorro","nm_endereco":"RUA CASSIANO DOS SANTOS, 499","tx_telefone":156,"tx_site_servico":"https://descomplicasp.prefeitura.sp.gov.br/","tx_site_unidade":"https://sp156.prefeitura.sp.gov.br/portal/descomplica?id=descomplica-capela-do-socorro","tx_site_agendamento":"https://agendadesc.prefeitura.sp.gov.br/agendamento/","tx_horario_funcionamento":"SEG A SEX (8H AS 17H)","tx_servico":"Descomplica SP Digital; SMADS (CadÚnico); Casa de Mediação; Direitos Humanos; Junta Militar; SPTRANS; Subprefeituras; ADESAMPA (Atendimento MEI); CATE; SABESP; Zoonozes","dt_atualizacao":"2024-10-14Z"}},{"type":"Feature","id":"descomplica.238","geometry":{"type":"Point","coordinates":[336301.2794,7394467.2883]},"geometry_name":"ge_ponto","properties":{"cd_identificador_descomplica":238,"cd_identificador_original":18,"nm_equipamento":"Mooca","nm_endereco":"RUA HIPÓDROMO, 1552","tx_telefone":156,"tx_site_servico":"https://descomplicasp.prefeitura.sp.gov.br/","tx_site_unidade":"https://sp156.prefeitura.sp.gov.br/portal/descomplica?id=descomplica-mooca","tx_site_agendamento":"https://agendadesc.prefeitura.sp.gov.br/agendamento/","tx_horario_funcionamento":"SEG A SEX (8H AS 17H)","tx_servico":"Descomplica SP Digital; SMADS (CadÚnico); SPTRANS; ADESAMPA (Atendimento MEI); CATE; Fazenda; Subprefeitura","dt_atualizacao":"2024-10-14Z"}},{"type":"Feature","id":"descomplica.239","geometry":{"type":"Point","coordinates":[325130.8118,7400485.0531]},"geometry_name":"ge_ponto","properties":{"cd_identificador_descomplica":239,"cd_identificador_original":19,"nm_equipamento":"Pirituba/Jaraguá","nm_endereco":"RUA PAULA FERREIRA, 1708","tx_telefone":156,"tx_site_servico":"https://descomplicasp.prefeitura.sp.gov.br/","tx_site_unidade":"https://sp156.prefeitura.sp.gov.br/portal/descomplica?id=descomplica-pirituba/jaragua","tx_site_agendamento":"https://agendadesc.prefeitura.sp.gov.br/agendamento/","tx_horario_funcionamento":"SEG A SEX (8H AS 17H)","tx_servico":"Descomplica SP Digital; SMADS; SPTrans; CATE; ADESAMPA; Junta Militar; Subprefeitura","dt_atualizacao":"2024-10-14Z"}},{"type":"Feature","id":"descomplica.240","geometry":{"type":"Point","coordinates":[323207.2086,7365088.2141]},"geometry_name":"ge_ponto","properties":{"cd_identificador_descomplica":240,"cd_identificador_original":20,"nm_equipamento":"Parelheiros","nm_endereco":"Estrada Ecoturística de Parelheiros, 5252","tx_telefone":156,"tx_site_servico":"https://descomplicasp.prefeitura.sp.gov.br/","tx_site_unidade":"https://sp156.prefeitura.sp.gov.br/portal/descomplica?id=descomplica-parelheiros","tx_site_agendamento":"https://agendadesc.prefeitura.sp.gov.br/agendamento/","tx_horario_funcionamento":"SEG A SEX (8H AS 17H)","tx_servico":"Descomplica SP Digital; SPTrans; CATe; ADESAMPA (Atendimento MEI); SMADS (CadÚnico); Subprefeitura; Direitos Humanos; CPIR - Promoção da Igualdade Racial","dt_atualizacao":"2024-10-14Z"}},{"type":"Feature","id":"descomplica.241","geometry":{"type":"Point","coordinates":[346488.3281,7392739.3291]},"geometry_name":"ge_ponto","properties":{"cd_identificador_descomplica":241,"cd_identificador_original":21,"nm_equipamento":"Aricanduva/Carrão","nm_endereco":"Av. Aricanduva, 5777","tx_telefone":156,"tx_site_servico":"https://descomplicasp.prefeitura.sp.gov.br/","tx_site_unidade":"","tx_site_agendamento":"https://agendadesc.prefeitura.sp.gov.br/agendamento/","tx_horario_funcionamento":"SEG A SEX (8H AS 17H)","tx_servico":"Descomplica SP Digital; SPTrans; CATe; ADESAMPA (Atendimento MEI); Subprefeitur; Junta Militar","dt_atualizacao":"2024-10-14Z"}},{"type":"Feature","id":"descomplica.242","geometry":{"type":"Point","coordinates":[337464.2943,7400073.1333]},"geometry_name":"ge_ponto","properties":{"cd_identificador_descomplica":242,"cd_identificador_original":22,"nm_equipamento":"Vila Maria/Vila Guilherme","nm_endereco":"RUA GENERAL MENDES, 111","tx_telefone":156,"tx_site_servico":"https://descomplicasp.prefeitura.sp.gov.br/","tx_site_unidade":"https://sp156.prefeitura.sp.gov.br/portal/descomplica?id=descomplica-vila-maria/vila-guilherme","tx_site_agendamento":"https://agendadesc.prefeitura.sp.gov.br/agendamento/","tx_horario_funcionamento":"SEG A SEX (8H AS 17H)","tx_servico":"Descomplica SP Digital; SMADS (CadÚnico); Casa de Mediação; SPTRANS; Subprefeituras; ADESAMPA (Atendimento MEI); CATE","dt_atualizacao":"2024-10-14Z"}},{"type":"Feature","id":"descomplica.243","geometry":{"type":"Point","coordinates":[334520.8791,7389396.9526]},"geometry_name":"ge_ponto","properties":{"cd_identificador_descomplica":243,"cd_identificador_original":23,"nm_equipamento":"Ipiranga","nm_endereco":"RUA BRENO FERRAZ DO AMARAL, 425","tx_telefone":156,"tx_site_servico":"https://descomplicasp.prefeitura.sp.gov.br/","tx_site_unidade":"https://sp156.prefeitura.sp.gov.br/portal/descomplica?id=descomplica-ipiranga","tx_site_agendamento":"https://agendadesc.prefeitura.sp.gov.br/agendamento/","tx_horario_funcionamento":"SEG A SEX (8H AS 17H)","tx_servico":"Descomplica SP Digital; SMADS (CadÚnico); Casa de Mediação; Direitos Humanos; Junta Militar; SPTRANS; Subprefeituras;  CATE; ADESAMPA (Atendimento MEI)","dt_atualizacao":"2024-10-14Z"}},{"type":"Feature","id":"descomplica.244","geometry":{"type":"Point","coordinates":[350551.4745,7394708.3707]},"geometry_name":"ge_ponto","properties":{"cd_identificador_descomplica":244,"cd_identificador_original":24,"nm_equipamento":"Itaquera","nm_endereco":"Avenida Itaquera, 6735","tx_telefone":156,"tx_site_servico":"https://descomplicasp.prefeitura.sp.gov.br/","tx_site_unidade":"","tx_site_agendamento":"https://agendadesc.prefeitura.sp.gov.br/agendamento/","tx_horario_funcionamento":"SEG A SEX (8H AS 17H)","tx_servico":"Descomplica SP Digital; SPTrans; CATe; ADESAMPA (Atendimento MEI); SMADS (CadÚnico); Subprefeitura; Junta Militar; Mediação","dt_atualizacao":"2024-10-14Z"}},{"type":"Feature","id":"descomplica.245","geometry":{"type":"Point","coordinates":[350065.8747,7389299.0758]},"geometry_name":"ge_ponto","properties":{"cd_identificador_descomplica":245,"cd_identificador_original":25,"nm_equipamento":"São Mateus","nm_endereco":"AVENIDA RAGUEB CHOHFI, 1400","tx_telefone":156,"tx_site_servico":"https://descomplicasp.prefeitura.sp.gov.br/","tx_site_unidade":"https://sp156.prefeitura.sp.gov.br/portal/descomplica?id=descomplica-sao-mateus","tx_site_agendamento":"https://agendadesc.prefeitura.sp.gov.br/agendamento/","tx_horario_funcionamento":"SEG A SEX (8H AS 17H)","tx_servico":"Descomplica SP Digital; SMADS (CadÚnico); Casa de Mediação; Direitos Humanos; Fazenda; Junta Militar; SPTRANS; Subprefeituras; ADESAMPA (Atendimento MEI); CATE","dt_atualizacao":"2024-10-14Z"}},{"type":"Feature","id":"descomplica.246","geometry":{"type":"Point","coordinates":[332686.7386,7383794.0429]},"geometry_name":"ge_ponto","properties":{"cd_identificador_descomplica":246,"cd_identificador_original":26,"nm_equipamento":"Jabaquara","nm_endereco":"AVENIDA ENGENHEIRO ARMANDO DE ARRUDA PEREIRA, 2314","tx_telefone":156,"tx_site_servico":"https://descomplicasp.prefeitura.sp.gov.br/","tx_site_unidade":"https://sp156.prefeitura.sp.gov.br/portal/descomplica?id=descomplica-jabaquara","tx_site_agendamento":"https://agendadesc.prefeitura.sp.gov.br/agendamento/","tx_horario_funcionamento":"SEG A SEX (8H AS 17H)","tx_servico":"Descomplica SP Digital; SMADS (CadÚnico); Casa de Mediação; Direitos Humanos; Fazenda; Junta Militar; SPTRANS; Subprefeituras; ADESAMPA (Atendimento MEI); CATE","dt_atualizacao":"2024-10-14Z"}},{"type":"Feature","id":"descomplica.247","geometry":{"type":"Point","coordinates":[355853.4667,7395669.1226]},"geometry_name":"ge_ponto","properties":{"cd_identificador_descomplica":247,"cd_identificador_original":27,"nm_equipamento":"Guaianases","nm_endereco":"Rua Copenhague, 92","tx_telefone":156,"tx_site_servico":"https://descomplicasp.prefeitura.sp.gov.br/","tx_site_unidade":"https://sp156.prefeitura.sp.gov.br/portal/descomplica?id=descomplica-guaianases","tx_site_agendamento":"https://agendadesc.prefeitura.sp.gov.br/agendamento/","tx_horario_funcionamento":"SEG A SEX (8H AS 17H)","tx_servico":"Descomplica SP Digital; SPTrans; CATe; ADESAMPA (Atendimento MEI); SMADS (CadÚnico); Subprefeitura; Mediação","dt_atualizacao":"2024-10-14Z"}},{"type":"Feature","id":"descomplica.248","geometry":{"type":"Point","coordinates":[336163.2361,7402251.5129]},"geometry_name":"ge_ponto","properties":{"cd_identificador_descomplica":248,"cd_identificador_original":28,"nm_equipamento":"Santana/Tucuruvi","nm_endereco":"AVENIDA TUCURUVI, 808","tx_telefone":156,"tx_site_servico":"https://descomplicasp.prefeitura.sp.gov.br/","tx_site_unidade":"https://sp156.prefeitura.sp.gov.br/portal/descomplica?id=descomplica-santana/tucuruvi","tx_site_agendamento":"https://agendadesc.prefeitura.sp.gov.br/agendamento/","tx_horario_funcionamento":"SEG A SEX (8H AS 17H)","tx_servico":"Descomplica SP Digital; SMADS (CadÚnico); Casa de Mediação; Direitos Humanos; Fazenda; SPTRANS; Ouvidoria; Subprefeituras; ADESAMPA (Atendimento MEI); CATE","dt_atualizacao":"2024-10-14Z"}},{"type":"Feature","id":"descomplica.249","geometry":{"type":"Point","coordinates":[333198.3614,7395026.2106]},"geometry_name":"ge_ponto","properties":{"cd_identificador_descomplica":249,"cd_identificador_original":29,"nm_equipamento":"24 horas","nm_endereco":"Rua Quinze de Novembro, 268","tx_telefone":156,"tx_site_servico":"https://descomplicasp.prefeitura.sp.gov.br/","tx_site_unidade":"","tx_site_agendamento":"https://agendadesc.prefeitura.sp.gov.br/agendamento/","tx_horario_funcionamento":"DOM A DOM (00H AS 23H) - exceto feriados","tx_servico":"Descomplica SP Digital; SPTrans; CATe; ENEL ","dt_atualizacao":"2024-10-14Z"}},{"type":"Feature","id":"descomplica.250","geometry":{"type":"Point","coordinates":[322639.6507,7390265.3627]},"geometry_name":"ge_ponto","properties":{"cd_identificador_descomplica":250,"cd_identificador_original":30,"nm_equipamento":"Butantã","nm_endereco":"RUA DR ULPIANO DA COSTA MANSO, 201","tx_telefone":156,"tx_site_servico":"https://descomplicasp.prefeitura.sp.gov.br/","tx_site_unidade":"https://sp156.prefeitura.sp.gov.br/portal/descomplica?id=descomplica-butanta","tx_site_agendamento":"https://agendadesc.prefeitura.sp.gov.br/agendamento/","tx_horario_funcionamento":"SEG A SEX (8H AS 17H)","tx_servico":"Descomplica SP Digital; SMADS (CadÚnico); Casa de Mediação; Direitos Humanos; Fazenda; Junta Militar; SPTRANS; Subprefeituras; ADESAMPA (Atendimento MEI);CATE; SABESP","dt_atualizacao":"2024-10-14Z"}},{"type":"Feature","id":"descomplica.251","geometry":{"type":"Point","coordinates":[344715.034,7398235.783]},"geometry_name":"ge_ponto","properties":{"cd_identificador_descomplica":251,"cd_identificador_original":31,"nm_equipamento":"Penha","nm_endereco":"RUA CANDAPUI, 492","tx_telefone":156,"tx_site_servico":"https://descomplicasp.prefeitura.sp.gov.br/","tx_site_unidade":"https://sp156.prefeitura.sp.gov.br/portal/descomplica?id=descomplica-penha","tx_site_agendamento":"https://agendadesc.prefeitura.sp.gov.br/agendamento/","tx_horario_funcionamento":"SEG A SEX (8H AS 17H)","tx_servico":"Descomplica SP Digital; SMADS (CadÚnico); Casa de Mediação; Direitos Humanos; Fazenda; Junta Militar; SPTRANS; Ouvidoria; Subprefeituras; ADESAMPA (Atendimento MEI); CATE; SABESP","dt_atualizacao":"2024-10-14Z"}},{"type":"Feature","id":"descomplica.252","geometry":{"type":"Point","coordinates":[329977.1782,7402734.9411]},"geometry_name":"ge_ponto","properties":{"cd_identificador_descomplica":252,"cd_identificador_original":32,"nm_equipamento":"Freguesia do Ó/ Brasilândia","nm_endereco":"AVENIDA JOÃO MARCELINO BRANCO,95","tx_telefone":156,"tx_site_servico":"https://descomplicasp.prefeitura.sp.gov.br/","tx_site_unidade":"https://sp156.prefeitura.sp.gov.br/portal/descomplica?id=descomplica-freguesia-do-O/brasilandia","tx_site_agendamento":"https://agendadesc.prefeitura.sp.gov.br/agendamento/","tx_horario_funcionamento":"SEG A SEX (8H AS 17H)","tx_servico":"Descomplica SP Digital; SMADS (CadÚnico); Junta Militar; SPTRANS; Subprefeitura; ADESAMPA (Atendimento MEI); CATE","dt_atualizacao":"2024-10-14Z"}},{"type":"Feature","id":"descomplica.253","geometry":{"type":"Point","coordinates":[325897.2649,7383315.7376]},"geometry_name":"ge_ponto","properties":{"cd_identificador_descomplica":253,"cd_identificador_original":33,"nm_equipamento":"Santo Amaro","nm_endereco":"PRAÇA FLORIANO PEIXOTO, 54","tx_telefone":156,"tx_site_servico":"https://descomplicasp.prefeitura.sp.gov.br/","tx_site_unidade":"https://sp156.prefeitura.sp.gov.br/portal/descomplica?id=descomplica-santo-amaro","tx_site_agendamento":"https://agendadesc.prefeitura.sp.gov.br/agendamento/","tx_horario_funcionamento":"SEG A SEX (8H AS 17H)","tx_servico":"Descomplica SP Digital; SMADS; SPTRANS; CATE; ADESAMPA (Atendimento MEI); Junta Militar; Fazenda; Subprefeitura","dt_atualizacao":"2024-10-14Z"}}],"totalFeatures":33,"numberMatched":33,"numberReturned":33,"timeStamp":"2026-05-17T01:42:43.158Z","crs":{"type":"name","properties":{"name":"urn:ogc:def:crs:EPSG::31983"}}}