{"type":"FeatureCollection","features":[{"type":"Feature","id":"equipamento_saude_unidades_dst-aids_v2.120363","geometry":{"type":"Point","coordinates":[356240.559,7391275.466]},"geometry_name":"ge_ponto","properties":{"cd_identificador":120363,"cd_identificador_tema_equipamento":6,"nm_tema_equipamento":"SAUDE","cd_identificador_rede_equipamento":0,"nm_rede_equipamento":"SEM REDE","tx_rede_equipamento":"Sem descrição","cd_identificador_tipo_equipamento":19,"nm_tipo_equipamento":"Centro de Testagem e Acompanhamento DST/AIDS","tx_tipo_equipamento":"Serviço estruturado para atividades de prevenção, aconselhamento e testes DST, HIV/AIDS e hepatite (B e C).","cd_identificador_classe_equipamento":8,"nm_classe_equipamento":"UNIDADES DST/AIDS","tx_classe_equipamento":"PREVENÇÃO, DIAGNÓSTICO E TRATAMENTO DE PESSOAS COM DST/HIV/AIDS.","cd_identificador_esfera_administrativa_equipamento":1,"nm_esfera_administrativa_equipamento":"Municipal","tx_esfera_administrativa_equipamento":"Administração municipal","cd_equipamento":"224","nm_equipamento":"CTA IST/AIDS CIDADE TIRADENTES","tx_endereco_equipamento":"R. MILAGRE DOS PEIXES, 357","nm_bairro_equipamento":"CONJUNTO HABITACIONA","cd_cep_equipamento":"08474-120","tx_horario_funcionamento":null,"tx_numero_telefone":"2282-7055 / 2964-0784","cd_equipamento_base_origem":null}},{"type":"Feature","id":"equipamento_saude_unidades_dst-aids_v2.120364","geometry":{"type":"Point","coordinates":[355449.169,7395443.615]},"geometry_name":"ge_ponto","properties":{"cd_identificador":120364,"cd_identificador_tema_equipamento":6,"nm_tema_equipamento":"SAUDE","cd_identificador_rede_equipamento":0,"nm_rede_equipamento":"SEM REDE","tx_rede_equipamento":"Sem descrição","cd_identificador_tipo_equipamento":19,"nm_tipo_equipamento":"Centro de Testagem e Acompanhamento DST/AIDS","tx_tipo_equipamento":"Serviço estruturado para atividades de prevenção, aconselhamento e testes DST, HIV/AIDS e hepatite (B e C).","cd_identificador_classe_equipamento":8,"nm_classe_equipamento":"UNIDADES DST/AIDS","tx_classe_equipamento":"PREVENÇÃO, DIAGNÓSTICO E TRATAMENTO DE PESSOAS COM DST/HIV/AIDS.","cd_identificador_esfera_administrativa_equipamento":1,"nm_esfera_administrativa_equipamento":"Municipal","tx_esfera_administrativa_equipamento":"Administração municipal","cd_equipamento":"319","nm_equipamento":"CTA IST/AIDS GUAIANASES","tx_endereco_equipamento":"R. CENTRALINA, 168","nm_bairro_equipamento":"GUAIANASES","cd_cep_equipamento":"08410-000","tx_horario_funcionamento":null,"tx_numero_telefone":"2554-5312","cd_equipamento_base_origem":null}},{"type":"Feature","id":"equipamento_saude_unidades_dst-aids_v2.120365","geometry":{"type":"Point","coordinates":[332890.387,7394824.339]},"geometry_name":"ge_ponto","properties":{"cd_identificador":120365,"cd_identificador_tema_equipamento":6,"nm_tema_equipamento":"SAUDE","cd_identificador_rede_equipamento":0,"nm_rede_equipamento":"SEM REDE","tx_rede_equipamento":"Sem descrição","cd_identificador_tipo_equipamento":19,"nm_tipo_equipamento":"Centro de Testagem e Acompanhamento DST/AIDS","tx_tipo_equipamento":"Serviço estruturado para atividades de prevenção, aconselhamento e testes DST, HIV/AIDS e hepatite (B e C).","cd_identificador_classe_equipamento":8,"nm_classe_equipamento":"UNIDADES DST/AIDS","tx_classe_equipamento":"PREVENÇÃO, DIAGNÓSTICO E TRATAMENTO DE PESSOAS COM DST/HIV/AIDS.","cd_identificador_esfera_administrativa_equipamento":1,"nm_esfera_administrativa_equipamento":"Municipal","tx_esfera_administrativa_equipamento":"Administração municipal","cd_equipamento":"983","nm_equipamento":"CTA IST/AIDS HENFIL - HENRIQUE DE SOUZA FILHO","tx_endereco_equipamento":"R. LÍBERO BADARÓ, 144","nm_bairro_equipamento":"CENTRO","cd_cep_equipamento":"01008-000","tx_horario_funcionamento":null,"tx_numero_telefone":"3241-1627","cd_equipamento_base_origem":null}},{"type":"Feature","id":"equipamento_saude_unidades_dst-aids_v2.120366","geometry":{"type":"Point","coordinates":[332082.06,7395257.103]},"geometry_name":"ge_ponto","properties":{"cd_identificador":120366,"cd_identificador_tema_equipamento":6,"nm_tema_equipamento":"SAUDE","cd_identificador_rede_equipamento":0,"nm_rede_equipamento":"SEM REDE","tx_rede_equipamento":"Sem descrição","cd_identificador_tipo_equipamento":19,"nm_tipo_equipamento":"Centro de Testagem e Acompanhamento DST/AIDS","tx_tipo_equipamento":"Serviço estruturado para atividades de prevenção, aconselhamento e testes DST, HIV/AIDS e hepatite (B e C).","cd_identificador_classe_equipamento":8,"nm_classe_equipamento":"UNIDADES DST/AIDS","tx_classe_equipamento":"PREVENÇÃO, DIAGNÓSTICO E TRATAMENTO DE PESSOAS COM DST/HIV/AIDS.","cd_identificador_esfera_administrativa_equipamento":1,"nm_esfera_administrativa_equipamento":"Municipal","tx_esfera_administrativa_equipamento":"Administração municipal","cd_equipamento":"958","nm_equipamento":"CTA IST/AIDS ITINERANTE DA CIDADE DE SÃO PAULO","tx_endereco_equipamento":"R. GENERAL JARDIM, 36","nm_bairro_equipamento":"VILA BUARQUE","cd_cep_equipamento":"01223-010","tx_horario_funcionamento":null,"tx_numero_telefone":"2027-2000","cd_equipamento_base_origem":null}},{"type":"Feature","id":"equipamento_saude_unidades_dst-aids_v2.120367","geometry":{"type":"Point","coordinates":[318805.189,7385291.281]},"geometry_name":"ge_ponto","properties":{"cd_identificador":120367,"cd_identificador_tema_equipamento":6,"nm_tema_equipamento":"SAUDE","cd_identificador_rede_equipamento":0,"nm_rede_equipamento":"SEM REDE","tx_rede_equipamento":"Sem descrição","cd_identificador_tipo_equipamento":19,"nm_tipo_equipamento":"Centro de Testagem e Acompanhamento DST/AIDS","tx_tipo_equipamento":"Serviço estruturado para atividades de prevenção, aconselhamento e testes DST, HIV/AIDS e hepatite (B e C).","cd_identificador_classe_equipamento":8,"nm_classe_equipamento":"UNIDADES DST/AIDS","tx_classe_equipamento":"PREVENÇÃO, DIAGNÓSTICO E TRATAMENTO DE PESSOAS COM DST/HIV/AIDS.","cd_identificador_esfera_administrativa_equipamento":1,"nm_esfera_administrativa_equipamento":"Municipal","tx_esfera_administrativa_equipamento":"Administração municipal","cd_equipamento":"73","nm_equipamento":"CTA IST/AIDS JOSE ARAUJO LIMA FILHO","tx_endereco_equipamento":"R. LOUIS BOULANGER, 120","nm_bairro_equipamento":"BAIRRO JD BOM REFUGI","cd_cep_equipamento":"05788-330","tx_horario_funcionamento":null,"tx_numero_telefone":"5891-6604","cd_equipamento_base_origem":null}},{"type":"Feature","id":"equipamento_saude_unidades_dst-aids_v2.120368","geometry":{"type":"Point","coordinates":[336868.135,7394540.956]},"geometry_name":"ge_ponto","properties":{"cd_identificador":120368,"cd_identificador_tema_equipamento":6,"nm_tema_equipamento":"SAUDE","cd_identificador_rede_equipamento":0,"nm_rede_equipamento":"SEM REDE","tx_rede_equipamento":"Sem descrição","cd_identificador_tipo_equipamento":19,"nm_tipo_equipamento":"Centro de Testagem e Acompanhamento DST/AIDS","tx_tipo_equipamento":"Serviço estruturado para atividades de prevenção, aconselhamento e testes DST, HIV/AIDS e hepatite (B e C).","cd_identificador_classe_equipamento":8,"nm_classe_equipamento":"UNIDADES DST/AIDS","tx_classe_equipamento":"PREVENÇÃO, DIAGNÓSTICO E TRATAMENTO DE PESSOAS COM DST/HIV/AIDS.","cd_identificador_esfera_administrativa_equipamento":1,"nm_esfera_administrativa_equipamento":"Municipal","tx_esfera_administrativa_equipamento":"Administração municipal","cd_equipamento":"597","nm_equipamento":"CTA IST/AIDS MOOCA","tx_endereco_equipamento":"R. TAQUARI, 549","nm_bairro_equipamento":"MOOCA","cd_cep_equipamento":"03166-000","tx_horario_funcionamento":null,"tx_numero_telefone":"2694-3338","cd_equipamento_base_origem":null}},{"type":"Feature","id":"equipamento_saude_unidades_dst-aids_v2.120369","geometry":{"type":"Point","coordinates":[323632.059,7401498.039]},"geometry_name":"ge_ponto","properties":{"cd_identificador":120369,"cd_identificador_tema_equipamento":6,"nm_tema_equipamento":"SAUDE","cd_identificador_rede_equipamento":0,"nm_rede_equipamento":"SEM REDE","tx_rede_equipamento":"Sem descrição","cd_identificador_tipo_equipamento":19,"nm_tipo_equipamento":"Centro de Testagem e Acompanhamento DST/AIDS","tx_tipo_equipamento":"Serviço estruturado para atividades de prevenção, aconselhamento e testes DST, HIV/AIDS e hepatite (B e C).","cd_identificador_classe_equipamento":8,"nm_classe_equipamento":"UNIDADES DST/AIDS","tx_classe_equipamento":"PREVENÇÃO, DIAGNÓSTICO E TRATAMENTO DE PESSOAS COM DST/HIV/AIDS.","cd_identificador_esfera_administrativa_equipamento":1,"nm_esfera_administrativa_equipamento":"Municipal","tx_esfera_administrativa_equipamento":"Administração municipal","cd_equipamento":"748","nm_equipamento":"CTA IST/AIDS PIRITUBA","tx_endereco_equipamento":"AV. DR FELIPE PINEL, 12","nm_bairro_equipamento":"PIRITUBA","cd_cep_equipamento":"02939-000","tx_horario_funcionamento":null,"tx_numero_telefone":"3974-8580","cd_equipamento_base_origem":null}},{"type":"Feature","id":"equipamento_saude_unidades_dst-aids_v2.120370","geometry":{"type":"Point","coordinates":[325808.954,7383414.253]},"geometry_name":"ge_ponto","properties":{"cd_identificador":120370,"cd_identificador_tema_equipamento":6,"nm_tema_equipamento":"SAUDE","cd_identificador_rede_equipamento":0,"nm_rede_equipamento":"SEM REDE","tx_rede_equipamento":"Sem descrição","cd_identificador_tipo_equipamento":19,"nm_tipo_equipamento":"Centro de Testagem e Acompanhamento DST/AIDS","tx_tipo_equipamento":"Serviço estruturado para atividades de prevenção, aconselhamento e testes DST, HIV/AIDS e hepatite (B e C).","cd_identificador_classe_equipamento":8,"nm_classe_equipamento":"UNIDADES DST/AIDS","tx_classe_equipamento":"PREVENÇÃO, DIAGNÓSTICO E TRATAMENTO DE PESSOAS COM DST/HIV/AIDS.","cd_identificador_esfera_administrativa_equipamento":1,"nm_esfera_administrativa_equipamento":"Municipal","tx_esfera_administrativa_equipamento":"Administração municipal","cd_equipamento":"821","nm_equipamento":"CTA IST/AIDS SANTO AMARO - PAULA LEGNO","tx_endereco_equipamento":"AV. MARIO LOPES LEAO, 240","nm_bairro_equipamento":"SANTO AMARO","cd_cep_equipamento":"04754-010","tx_horario_funcionamento":null,"tx_numero_telefone":"5686-9960","cd_equipamento_base_origem":null}},{"type":"Feature","id":"equipamento_saude_unidades_dst-aids_v2.120371","geometry":{"type":"Point","coordinates":[352501.168,7401059.853]},"geometry_name":"ge_ponto","properties":{"cd_identificador":120371,"cd_identificador_tema_equipamento":6,"nm_tema_equipamento":"SAUDE","cd_identificador_rede_equipamento":0,"nm_rede_equipamento":"SEM REDE","tx_rede_equipamento":"Sem descrição","cd_identificador_tipo_equipamento":19,"nm_tipo_equipamento":"Centro de Testagem e Acompanhamento DST/AIDS","tx_tipo_equipamento":"Serviço estruturado para atividades de prevenção, aconselhamento e testes DST, HIV/AIDS e hepatite (B e C).","cd_identificador_classe_equipamento":8,"nm_classe_equipamento":"UNIDADES DST/AIDS","tx_classe_equipamento":"PREVENÇÃO, DIAGNÓSTICO E TRATAMENTO DE PESSOAS COM DST/HIV/AIDS.","cd_identificador_esfera_administrativa_equipamento":1,"nm_esfera_administrativa_equipamento":"Municipal","tx_esfera_administrativa_equipamento":"Administração municipal","cd_equipamento":"878","nm_equipamento":"CTA IST/AIDS SÃO MIGUEL","tx_endereco_equipamento":"R. JOSE ALDO PIASSI, 85","nm_bairro_equipamento":"SÃO MIGUEL PAULISTA","cd_cep_equipamento":"08011-300","tx_horario_funcionamento":null,"tx_numero_telefone":"2297-6052","cd_equipamento_base_origem":null}},{"type":"Feature","id":"equipamento_saude_unidades_dst-aids_v2.120372","geometry":{"type":"Point","coordinates":[357396.108,7400305.49]},"geometry_name":"ge_ponto","properties":{"cd_identificador":120372,"cd_identificador_tema_equipamento":6,"nm_tema_equipamento":"SAUDE","cd_identificador_rede_equipamento":0,"nm_rede_equipamento":"SEM REDE","tx_rede_equipamento":"Sem descrição","cd_identificador_tipo_equipamento":19,"nm_tipo_equipamento":"Centro de Testagem e Acompanhamento DST/AIDS","tx_tipo_equipamento":"Serviço estruturado para atividades de prevenção, aconselhamento e testes DST, HIV/AIDS e hepatite (B e C).","cd_identificador_classe_equipamento":8,"nm_classe_equipamento":"UNIDADES DST/AIDS","tx_classe_equipamento":"PREVENÇÃO, DIAGNÓSTICO E TRATAMENTO DE PESSOAS COM DST/HIV/AIDS.","cd_identificador_esfera_administrativa_equipamento":1,"nm_esfera_administrativa_equipamento":"Municipal","tx_esfera_administrativa_equipamento":"Administração municipal","cd_equipamento":"379","nm_equipamento":"CTA IST/AIDS SERGIO AROUCA","tx_endereco_equipamento":"R. VALENTE DE NOVAIS, 131","nm_bairro_equipamento":"ITAIM PAULISTA","cd_cep_equipamento":"08120-420","tx_horario_funcionamento":null,"tx_numero_telefone":"2561-3052 / 2963-3458","cd_equipamento_base_origem":null}},{"type":"Feature","id":"equipamento_saude_unidades_dst-aids_v2.120502","geometry":{"type":"Point","coordinates":[338451.795,7391160.489]},"geometry_name":"ge_ponto","properties":{"cd_identificador":120502,"cd_identificador_tema_equipamento":6,"nm_tema_equipamento":"SAUDE","cd_identificador_rede_equipamento":0,"nm_rede_equipamento":"SEM REDE","tx_rede_equipamento":"Sem descrição","cd_identificador_tipo_equipamento":43,"nm_tipo_equipamento":"Serviço de Atendimento Especializado em DST/AIDS (SAE)","tx_tipo_equipamento":"Capacitado para atividades de prevenção, diagnóstico e tratamento de pessoas com DST/HIV/AIDS, em nível ambulatorial e hospital-dia e com equipe multiprofissional.","cd_identificador_classe_equipamento":8,"nm_classe_equipamento":"UNIDADES DST/AIDS","tx_classe_equipamento":"PREVENÇÃO, DIAGNÓSTICO E TRATAMENTO DE PESSOAS COM DST/HIV/AIDS.","cd_identificador_esfera_administrativa_equipamento":1,"nm_esfera_administrativa_equipamento":"Municipal","tx_esfera_administrativa_equipamento":"Administração municipal","cd_equipamento":"1057","nm_equipamento":"SAE IST AIDS VILA PRUDENTE - SHIRLEI MARIOTTI GOMES COELHO","tx_endereco_equipamento":"PRAÇA DO CENTENARIO DE VILA PRUDENTE, 108","nm_bairro_equipamento":"VILA PRUDENTE","cd_cep_equipamento":"03132-050","tx_horario_funcionamento":null,"tx_numero_telefone":"2061-7836","cd_equipamento_base_origem":null}},{"type":"Feature","id":"equipamento_saude_unidades_dst-aids_v2.120503","geometry":{"type":"Point","coordinates":[346302.305,7398985.982]},"geometry_name":"ge_ponto","properties":{"cd_identificador":120503,"cd_identificador_tema_equipamento":6,"nm_tema_equipamento":"SAUDE","cd_identificador_rede_equipamento":0,"nm_rede_equipamento":"SEM REDE","tx_rede_equipamento":"Sem descrição","cd_identificador_tipo_equipamento":43,"nm_tipo_equipamento":"Serviço de Atendimento Especializado em DST/AIDS (SAE)","tx_tipo_equipamento":"Capacitado para atividades de prevenção, diagnóstico e tratamento de pessoas com DST/HIV/AIDS, em nível ambulatorial e hospital-dia e com equipe multiprofissional.","cd_identificador_classe_equipamento":8,"nm_classe_equipamento":"UNIDADES DST/AIDS","tx_classe_equipamento":"PREVENÇÃO, DIAGNÓSTICO E TRATAMENTO DE PESSOAS COM DST/HIV/AIDS.","cd_identificador_esfera_administrativa_equipamento":1,"nm_esfera_administrativa_equipamento":"Municipal","tx_esfera_administrativa_equipamento":"Administração municipal","cd_equipamento":"265","nm_equipamento":"SAE IST/AIDS - FIDELIS RIBEIRO","tx_endereco_equipamento":"R. PEIXOTO, 100","nm_bairro_equipamento":"PONTE RASA","cd_cep_equipamento":"03627-010","tx_horario_funcionamento":null,"tx_numero_telefone":"2621-0217","cd_equipamento_base_origem":null}},{"type":"Feature","id":"equipamento_saude_unidades_dst-aids_v2.120504","geometry":{"type":"Point","coordinates":[347982.262,7390309.789]},"geometry_name":"ge_ponto","properties":{"cd_identificador":120504,"cd_identificador_tema_equipamento":6,"nm_tema_equipamento":"SAUDE","cd_identificador_rede_equipamento":0,"nm_rede_equipamento":"SEM REDE","tx_rede_equipamento":"Sem descrição","cd_identificador_tipo_equipamento":43,"nm_tipo_equipamento":"Serviço de Atendimento Especializado em DST/AIDS (SAE)","tx_tipo_equipamento":"Capacitado para atividades de prevenção, diagnóstico e tratamento de pessoas com DST/HIV/AIDS, em nível ambulatorial e hospital-dia e com equipe multiprofissional.","cd_identificador_classe_equipamento":8,"nm_classe_equipamento":"UNIDADES DST/AIDS","tx_classe_equipamento":"PREVENÇÃO, DIAGNÓSTICO E TRATAMENTO DE PESSOAS COM DST/HIV/AIDS.","cd_identificador_esfera_administrativa_equipamento":1,"nm_esfera_administrativa_equipamento":"Municipal","tx_esfera_administrativa_equipamento":"Administração municipal","cd_equipamento":"851","nm_equipamento":"SAE IST/AIDS - SÃO MATEUS","tx_endereco_equipamento":"AV. MATEO BEI, 838","nm_bairro_equipamento":"SÃO MATEUS","cd_cep_equipamento":"03949-000","tx_horario_funcionamento":null,"tx_numero_telefone":"2919-0697","cd_equipamento_base_origem":null}},{"type":"Feature","id":"equipamento_saude_unidades_dst-aids_v2.120505","geometry":{"type":"Point","coordinates":[320264.171,7391973.27]},"geometry_name":"ge_ponto","properties":{"cd_identificador":120505,"cd_identificador_tema_equipamento":6,"nm_tema_equipamento":"SAUDE","cd_identificador_rede_equipamento":0,"nm_rede_equipamento":"SEM REDE","tx_rede_equipamento":"Sem descrição","cd_identificador_tipo_equipamento":43,"nm_tipo_equipamento":"Serviço de Atendimento Especializado em DST/AIDS (SAE)","tx_tipo_equipamento":"Capacitado para atividades de prevenção, diagnóstico e tratamento de pessoas com DST/HIV/AIDS, em nível ambulatorial e hospital-dia e com equipe multiprofissional.","cd_identificador_classe_equipamento":8,"nm_classe_equipamento":"UNIDADES DST/AIDS","tx_classe_equipamento":"PREVENÇÃO, DIAGNÓSTICO E TRATAMENTO DE PESSOAS COM DST/HIV/AIDS.","cd_identificador_esfera_administrativa_equipamento":1,"nm_esfera_administrativa_equipamento":"Municipal","tx_esfera_administrativa_equipamento":"Administração municipal","cd_equipamento":"44","nm_equipamento":"SAE IST/AIDS BUTANTÃ","tx_endereco_equipamento":"R. DR BERNARDO GUERTZENSTEIN, 45","nm_bairro_equipamento":"RIO PEQUENO","cd_cep_equipamento":"05381-020","tx_horario_funcionamento":null,"tx_numero_telefone":"3765-1692","cd_equipamento_base_origem":null}},{"type":"Feature","id":"equipamento_saude_unidades_dst-aids_v2.120506","geometry":{"type":"Point","coordinates":[332417.59,7396612.91]},"geometry_name":"ge_ponto","properties":{"cd_identificador":120506,"cd_identificador_tema_equipamento":6,"nm_tema_equipamento":"SAUDE","cd_identificador_rede_equipamento":0,"nm_rede_equipamento":"SEM REDE","tx_rede_equipamento":"Sem descrição","cd_identificador_tipo_equipamento":43,"nm_tipo_equipamento":"Serviço de Atendimento Especializado em DST/AIDS (SAE)","tx_tipo_equipamento":"Capacitado para atividades de prevenção, diagnóstico e tratamento de pessoas com DST/HIV/AIDS, em nível ambulatorial e hospital-dia e com equipe multiprofissional.","cd_identificador_classe_equipamento":8,"nm_classe_equipamento":"UNIDADES DST/AIDS","tx_classe_equipamento":"PREVENÇÃO, DIAGNÓSTICO E TRATAMENTO DE PESSOAS COM DST/HIV/AIDS.","cd_identificador_esfera_administrativa_equipamento":1,"nm_esfera_administrativa_equipamento":"Municipal","tx_esfera_administrativa_equipamento":"Administração municipal","cd_equipamento":"967","nm_equipamento":"SAE IST/AIDS CAMPOS ELISEOS","tx_endereco_equipamento":"ALAMEDA CLEVELAND, 374","nm_bairro_equipamento":"CAMPOS ELÍSEOS","cd_cep_equipamento":"01230-000","tx_horario_funcionamento":null,"tx_numero_telefone":"3331-1216","cd_equipamento_base_origem":null}},{"type":"Feature","id":"equipamento_saude_unidades_dst-aids_v2.120507","geometry":{"type":"Point","coordinates":[332055.519,7385916.369]},"geometry_name":"ge_ponto","properties":{"cd_identificador":120507,"cd_identificador_tema_equipamento":6,"nm_tema_equipamento":"SAUDE","cd_identificador_rede_equipamento":0,"nm_rede_equipamento":"SEM REDE","tx_rede_equipamento":"Sem descrição","cd_identificador_tipo_equipamento":43,"nm_tipo_equipamento":"Serviço de Atendimento Especializado em DST/AIDS (SAE)","tx_tipo_equipamento":"Capacitado para atividades de prevenção, diagnóstico e tratamento de pessoas com DST/HIV/AIDS, em nível ambulatorial e hospital-dia e com equipe multiprofissional.","cd_identificador_classe_equipamento":8,"nm_classe_equipamento":"UNIDADES DST/AIDS","tx_classe_equipamento":"PREVENÇÃO, DIAGNÓSTICO E TRATAMENTO DE PESSOAS COM DST/HIV/AIDS.","cd_identificador_esfera_administrativa_equipamento":1,"nm_esfera_administrativa_equipamento":"Municipal","tx_esfera_administrativa_equipamento":"Administração municipal","cd_equipamento":"1025","nm_equipamento":"SAE IST/AIDS CECI","tx_endereco_equipamento":"AV. CECI, 2235","nm_bairro_equipamento":"PLANALTO PAULISTA","cd_cep_equipamento":"04065-004","tx_horario_funcionamento":null,"tx_numero_telefone":"2276-9719","cd_equipamento_base_origem":null}},{"type":"Feature","id":"equipamento_saude_unidades_dst-aids_v2.120508","geometry":{"type":"Point","coordinates":[326160.742,7376767.625]},"geometry_name":"ge_ponto","properties":{"cd_identificador":120508,"cd_identificador_tema_equipamento":6,"nm_tema_equipamento":"SAUDE","cd_identificador_rede_equipamento":0,"nm_rede_equipamento":"SEM REDE","tx_rede_equipamento":"Sem descrição","cd_identificador_tipo_equipamento":43,"nm_tipo_equipamento":"Serviço de Atendimento Especializado em DST/AIDS (SAE)","tx_tipo_equipamento":"Capacitado para atividades de prevenção, diagnóstico e tratamento de pessoas com DST/HIV/AIDS, em nível ambulatorial e hospital-dia e com equipe multiprofissional.","cd_identificador_classe_equipamento":8,"nm_classe_equipamento":"UNIDADES DST/AIDS","tx_classe_equipamento":"PREVENÇÃO, DIAGNÓSTICO E TRATAMENTO DE PESSOAS COM DST/HIV/AIDS.","cd_identificador_esfera_administrativa_equipamento":1,"nm_esfera_administrativa_equipamento":"Municipal","tx_esfera_administrativa_equipamento":"Administração municipal","cd_equipamento":"109","nm_equipamento":"SAE IST/AIDS CIDADE DUTRA","tx_endereco_equipamento":"R. CRISTINA VASCONCELOS CECCATO, 109","nm_bairro_equipamento":"CIDADE DUTRA","cd_cep_equipamento":"04802-080","tx_horario_funcionamento":null,"tx_numero_telefone":"5666-8386 / 5666-8301","cd_equipamento_base_origem":null}},{"type":"Feature","id":"equipamento_saude_unidades_dst-aids_v2.120509","geometry":{"type":"Point","coordinates":[349845.949,7394345.438]},"geometry_name":"ge_ponto","properties":{"cd_identificador":120509,"cd_identificador_tema_equipamento":6,"nm_tema_equipamento":"SAUDE","cd_identificador_rede_equipamento":0,"nm_rede_equipamento":"SEM REDE","tx_rede_equipamento":"Sem descrição","cd_identificador_tipo_equipamento":43,"nm_tipo_equipamento":"Serviço de Atendimento Especializado em DST/AIDS (SAE)","tx_tipo_equipamento":"Capacitado para atividades de prevenção, diagnóstico e tratamento de pessoas com DST/HIV/AIDS, em nível ambulatorial e hospital-dia e com equipe multiprofissional.","cd_identificador_classe_equipamento":8,"nm_classe_equipamento":"UNIDADES DST/AIDS","tx_classe_equipamento":"PREVENÇÃO, DIAGNÓSTICO E TRATAMENTO DE PESSOAS COM DST/HIV/AIDS.","cd_identificador_esfera_administrativa_equipamento":1,"nm_esfera_administrativa_equipamento":"Municipal","tx_esfera_administrativa_equipamento":"Administração municipal","cd_equipamento":"413","nm_equipamento":"SAE IST/AIDS CIDADE LIDER II","tx_endereco_equipamento":"R. MEDIO IGUAÇU, 86","nm_bairro_equipamento":"CIDADE LIDER","cd_cep_equipamento":"08285-130","tx_horario_funcionamento":null,"tx_numero_telefone":"2748-0255","cd_equipamento_base_origem":null}},{"type":"Feature","id":"equipamento_saude_unidades_dst-aids_v2.120510","geometry":{"type":"Point","coordinates":[346617.485,7388605.972]},"geometry_name":"ge_ponto","properties":{"cd_identificador":120510,"cd_identificador_tema_equipamento":6,"nm_tema_equipamento":"SAUDE","cd_identificador_rede_equipamento":0,"nm_rede_equipamento":"SEM REDE","tx_rede_equipamento":"Sem descrição","cd_identificador_tipo_equipamento":43,"nm_tipo_equipamento":"Serviço de Atendimento Especializado em DST/AIDS (SAE)","tx_tipo_equipamento":"Capacitado para atividades de prevenção, diagnóstico e tratamento de pessoas com DST/HIV/AIDS, em nível ambulatorial e hospital-dia e com equipe multiprofissional.","cd_identificador_classe_equipamento":8,"nm_classe_equipamento":"UNIDADES DST/AIDS","tx_classe_equipamento":"PREVENÇÃO, DIAGNÓSTICO E TRATAMENTO DE PESSOAS COM DST/HIV/AIDS.","cd_identificador_esfera_administrativa_equipamento":1,"nm_esfera_administrativa_equipamento":"Municipal","tx_esfera_administrativa_equipamento":"Administração municipal","cd_equipamento":"917","nm_equipamento":"SAE IST/AIDS HERBERT DE SOUZA - BETINHO","tx_endereco_equipamento":"AV. ARQUITETO VILANOVA ARTIGAS, 515","nm_bairro_equipamento":"JD SAPOPEMBA","cd_cep_equipamento":"03928-240","tx_horario_funcionamento":null,"tx_numero_telefone":"2704-3341","cd_equipamento_base_origem":null}},{"type":"Feature","id":"equipamento_saude_unidades_dst-aids_v2.120511","geometry":{"type":"Point","coordinates":[336754.291,7389477.471]},"geometry_name":"ge_ponto","properties":{"cd_identificador":120511,"cd_identificador_tema_equipamento":6,"nm_tema_equipamento":"SAUDE","cd_identificador_rede_equipamento":0,"nm_rede_equipamento":"SEM REDE","tx_rede_equipamento":"Sem descrição","cd_identificador_tipo_equipamento":43,"nm_tipo_equipamento":"Serviço de Atendimento Especializado em DST/AIDS (SAE)","tx_tipo_equipamento":"Capacitado para atividades de prevenção, diagnóstico e tratamento de pessoas com DST/HIV/AIDS, em nível ambulatorial e hospital-dia e com equipe multiprofissional.","cd_identificador_classe_equipamento":8,"nm_classe_equipamento":"UNIDADES DST/AIDS","tx_classe_equipamento":"PREVENÇÃO, DIAGNÓSTICO E TRATAMENTO DE PESSOAS COM DST/HIV/AIDS.","cd_identificador_esfera_administrativa_equipamento":1,"nm_esfera_administrativa_equipamento":"Municipal","tx_esfera_administrativa_equipamento":"Administração municipal","cd_equipamento":"356","nm_equipamento":"SAE IST/AIDS IPIRANGA - DR. JOSÉ FRANCISCO DE ARAÚJO","tx_endereco_equipamento":"R. GONÇALVES LEDO, 606","nm_bairro_equipamento":"IPIRANGA","cd_cep_equipamento":"04216-030","tx_horario_funcionamento":null,"tx_numero_telefone":"2273-5073","cd_equipamento_base_origem":null}},{"type":"Feature","id":"equipamento_saude_unidades_dst-aids_v2.120512","geometry":{"type":"Point","coordinates":[318298.802,7384077.665]},"geometry_name":"ge_ponto","properties":{"cd_identificador":120512,"cd_identificador_tema_equipamento":6,"nm_tema_equipamento":"SAUDE","cd_identificador_rede_equipamento":0,"nm_rede_equipamento":"SEM REDE","tx_rede_equipamento":"Sem descrição","cd_identificador_tipo_equipamento":43,"nm_tipo_equipamento":"Serviço de Atendimento Especializado em DST/AIDS (SAE)","tx_tipo_equipamento":"Capacitado para atividades de prevenção, diagnóstico e tratamento de pessoas com DST/HIV/AIDS, em nível ambulatorial e hospital-dia e com equipe multiprofissional.","cd_identificador_classe_equipamento":8,"nm_classe_equipamento":"UNIDADES DST/AIDS","tx_classe_equipamento":"PREVENÇÃO, DIAGNÓSTICO E TRATAMENTO DE PESSOAS COM DST/HIV/AIDS.","cd_identificador_esfera_administrativa_equipamento":1,"nm_esfera_administrativa_equipamento":"Municipal","tx_esfera_administrativa_equipamento":"Administração municipal","cd_equipamento":"69","nm_equipamento":"SAE IST/AIDS JARDIM MITSUTANI","tx_endereco_equipamento":"R. VITTORIO EMANUELE ROSSI, 97","nm_bairro_equipamento":"JARDIM BOM REFUGIO","cd_cep_equipamento":"05788-280","tx_horario_funcionamento":null,"tx_numero_telefone":"5841-9020","cd_equipamento_base_origem":null}},{"type":"Feature","id":"equipamento_saude_unidades_dst-aids_v2.120513","geometry":{"type":"Point","coordinates":[325730.844,7397287.792]},"geometry_name":"ge_ponto","properties":{"cd_identificador":120513,"cd_identificador_tema_equipamento":6,"nm_tema_equipamento":"SAUDE","cd_identificador_rede_equipamento":0,"nm_rede_equipamento":"SEM REDE","tx_rede_equipamento":"Sem descrição","cd_identificador_tipo_equipamento":43,"nm_tipo_equipamento":"Serviço de Atendimento Especializado em DST/AIDS (SAE)","tx_tipo_equipamento":"Capacitado para atividades de prevenção, diagnóstico e tratamento de pessoas com DST/HIV/AIDS, em nível ambulatorial e hospital-dia e com equipe multiprofissional.","cd_identificador_classe_equipamento":8,"nm_classe_equipamento":"UNIDADES DST/AIDS","tx_classe_equipamento":"PREVENÇÃO, DIAGNÓSTICO E TRATAMENTO DE PESSOAS COM DST/HIV/AIDS.","cd_identificador_esfera_administrativa_equipamento":1,"nm_esfera_administrativa_equipamento":"Municipal","tx_esfera_administrativa_equipamento":"Administração municipal","cd_equipamento":"505","nm_equipamento":"SAE IST/AIDS LAPA - PAULO CÉSAR BONFIM","tx_endereco_equipamento":"R. TOMÉ DE SOUZA, 30","nm_bairro_equipamento":"LAPA","cd_cep_equipamento":"05079-000","tx_horario_funcionamento":null,"tx_numero_telefone":"3832-2386","cd_equipamento_base_origem":null}},{"type":"Feature","id":"equipamento_saude_unidades_dst-aids_v2.120514","geometry":{"type":"Point","coordinates":[320893.604,7381259.58]},"geometry_name":"ge_ponto","properties":{"cd_identificador":120514,"cd_identificador_tema_equipamento":6,"nm_tema_equipamento":"SAUDE","cd_identificador_rede_equipamento":0,"nm_rede_equipamento":"SEM REDE","tx_rede_equipamento":"Sem descrição","cd_identificador_tipo_equipamento":43,"nm_tipo_equipamento":"Serviço de Atendimento Especializado em DST/AIDS (SAE)","tx_tipo_equipamento":"Capacitado para atividades de prevenção, diagnóstico e tratamento de pessoas com DST/HIV/AIDS, em nível ambulatorial e hospital-dia e com equipe multiprofissional.","cd_identificador_classe_equipamento":8,"nm_classe_equipamento":"UNIDADES DST/AIDS","tx_classe_equipamento":"PREVENÇÃO, DIAGNÓSTICO E TRATAMENTO DE PESSOAS COM DST/HIV/AIDS.","cd_identificador_esfera_administrativa_equipamento":1,"nm_esfera_administrativa_equipamento":"Municipal","tx_esfera_administrativa_equipamento":"Administração municipal","cd_equipamento":"568","nm_equipamento":"SAE IST/AIDS M BOI MIRIM","tx_endereco_equipamento":"R. DEOCLECIANO DE OLIVEIRA FILHO, 641","nm_bairro_equipamento":"PQ STO ANTONIO","cd_cep_equipamento":"05834-000","tx_horario_funcionamento":null,"tx_numero_telefone":"5515-6207","cd_equipamento_base_origem":null}},{"type":"Feature","id":"equipamento_saude_unidades_dst-aids_v2.120515","geometry":{"type":"Point","coordinates":[326956.773,7401216.093]},"geometry_name":"ge_ponto","properties":{"cd_identificador":120515,"cd_identificador_tema_equipamento":6,"nm_tema_equipamento":"SAUDE","cd_identificador_rede_equipamento":0,"nm_rede_equipamento":"SEM REDE","tx_rede_equipamento":"Sem descrição","cd_identificador_tipo_equipamento":43,"nm_tipo_equipamento":"Serviço de Atendimento Especializado em DST/AIDS (SAE)","tx_tipo_equipamento":"Capacitado para atividades de prevenção, diagnóstico e tratamento de pessoas com DST/HIV/AIDS, em nível ambulatorial e hospital-dia e com equipe multiprofissional.","cd_identificador_classe_equipamento":8,"nm_classe_equipamento":"UNIDADES DST/AIDS","tx_classe_equipamento":"PREVENÇÃO, DIAGNÓSTICO E TRATAMENTO DE PESSOAS COM DST/HIV/AIDS.","cd_identificador_esfera_administrativa_equipamento":1,"nm_esfera_administrativa_equipamento":"Municipal","tx_esfera_administrativa_equipamento":"Administração municipal","cd_equipamento":"304","nm_equipamento":"SAE IST/AIDS NOSSA SENHORA DO O","tx_endereco_equipamento":"AV. ITABERABA, 1377","nm_bairro_equipamento":"FREGUESIA DO Ó","cd_cep_equipamento":"02734-000","tx_horario_funcionamento":null,"tx_numero_telefone":"3975-9473","cd_equipamento_base_origem":null}},{"type":"Feature","id":"equipamento_saude_unidades_dst-aids_v2.120516","geometry":{"type":"Point","coordinates":[341718.069,7397344.318]},"geometry_name":"ge_ponto","properties":{"cd_identificador":120516,"cd_identificador_tema_equipamento":6,"nm_tema_equipamento":"SAUDE","cd_identificador_rede_equipamento":0,"nm_rede_equipamento":"SEM REDE","tx_rede_equipamento":"Sem descrição","cd_identificador_tipo_equipamento":43,"nm_tipo_equipamento":"Serviço de Atendimento Especializado em DST/AIDS (SAE)","tx_tipo_equipamento":"Capacitado para atividades de prevenção, diagnóstico e tratamento de pessoas com DST/HIV/AIDS, em nível ambulatorial e hospital-dia e com equipe multiprofissional.","cd_identificador_classe_equipamento":8,"nm_classe_equipamento":"UNIDADES DST/AIDS","tx_classe_equipamento":"PREVENÇÃO, DIAGNÓSTICO E TRATAMENTO DE PESSOAS COM DST/HIV/AIDS.","cd_identificador_esfera_administrativa_equipamento":1,"nm_esfera_administrativa_equipamento":"Municipal","tx_esfera_administrativa_equipamento":"Administração municipal","cd_equipamento":"656","nm_equipamento":"SAE IST/AIDS PENHA","tx_endereco_equipamento":"PRAÇA NOSSA SENHORA DA PENHA, 55","nm_bairro_equipamento":"PENHA","cd_cep_equipamento":"03632-010","tx_horario_funcionamento":null,"tx_numero_telefone":"2092-4020","cd_equipamento_base_origem":null}},{"type":"Feature","id":"equipamento_saude_unidades_dst-aids_v2.120517","geometry":{"type":"Point","coordinates":[333605.289,7401726.909]},"geometry_name":"ge_ponto","properties":{"cd_identificador":120517,"cd_identificador_tema_equipamento":6,"nm_tema_equipamento":"SAUDE","cd_identificador_rede_equipamento":0,"nm_rede_equipamento":"SEM REDE","tx_rede_equipamento":"Sem descrição","cd_identificador_tipo_equipamento":43,"nm_tipo_equipamento":"Serviço de Atendimento Especializado em DST/AIDS (SAE)","tx_tipo_equipamento":"Capacitado para atividades de prevenção, diagnóstico e tratamento de pessoas com DST/HIV/AIDS, em nível ambulatorial e hospital-dia e com equipe multiprofissional.","cd_identificador_classe_equipamento":8,"nm_classe_equipamento":"UNIDADES DST/AIDS","tx_classe_equipamento":"PREVENÇÃO, DIAGNÓSTICO E TRATAMENTO DE PESSOAS COM DST/HIV/AIDS.","cd_identificador_esfera_administrativa_equipamento":1,"nm_esfera_administrativa_equipamento":"Municipal","tx_esfera_administrativa_equipamento":"Administração municipal","cd_equipamento":"783","nm_equipamento":"SAE IST/AIDS SANTANA - MARCOS LUTEMBERG","tx_endereco_equipamento":"R. DR LUIS LUSTOSA DA SILVA, 339","nm_bairro_equipamento":"MANDAQUI","cd_cep_equipamento":"02406-040","tx_horario_funcionamento":null,"tx_numero_telefone":"2950-9217","cd_equipamento_base_origem":null}},{"type":"Feature","id":"equipamento_saude_unidades_dst-aids_v2.120518","geometry":{"type":"Point","coordinates":[326305.584,7383555.199]},"geometry_name":"ge_ponto","properties":{"cd_identificador":120518,"cd_identificador_tema_equipamento":6,"nm_tema_equipamento":"SAUDE","cd_identificador_rede_equipamento":0,"nm_rede_equipamento":"SEM REDE","tx_rede_equipamento":"Sem descrição","cd_identificador_tipo_equipamento":43,"nm_tipo_equipamento":"Serviço de Atendimento Especializado em DST/AIDS (SAE)","tx_tipo_equipamento":"Capacitado para atividades de prevenção, diagnóstico e tratamento de pessoas com DST/HIV/AIDS, em nível ambulatorial e hospital-dia e com equipe multiprofissional.","cd_identificador_classe_equipamento":8,"nm_classe_equipamento":"UNIDADES DST/AIDS","tx_classe_equipamento":"PREVENÇÃO, DIAGNÓSTICO E TRATAMENTO DE PESSOAS COM DST/HIV/AIDS.","cd_identificador_esfera_administrativa_equipamento":1,"nm_esfera_administrativa_equipamento":"Municipal","tx_esfera_administrativa_equipamento":"Administração municipal","cd_equipamento":"807","nm_equipamento":"SAE IST/AIDS SANTO AMARO - DRA. DENIZE DORNELAS DE OLIVEIRA","tx_endereco_equipamento":"R. PADRE JOSÉ DE ANCHIETA, 640","nm_bairro_equipamento":"SANTO AMARO","cd_cep_equipamento":"04742-001","tx_horario_funcionamento":null,"tx_numero_telefone":"5524-3032 / 5523-3539","cd_equipamento_base_origem":null}},{"type":"Feature","id":"equipamento_saude_unidades_dst-aids_v2.120376","geometry":{"type":"Point","coordinates":[333065.145,7389473.857]},"geometry_name":"ge_ponto","properties":{"cd_identificador":120376,"cd_identificador_tema_equipamento":6,"nm_tema_equipamento":"SAUDE","cd_identificador_rede_equipamento":0,"nm_rede_equipamento":"SEM REDE","tx_rede_equipamento":"Sem descrição","cd_identificador_tipo_equipamento":59,"nm_tipo_equipamento":"SEM TIPO","tx_tipo_equipamento":"SEM TIPO","cd_identificador_classe_equipamento":8,"nm_classe_equipamento":"UNIDADES DST/AIDS","tx_classe_equipamento":"PREVENÇÃO, DIAGNÓSTICO E TRATAMENTO DE PESSOAS COM DST/HIV/AIDS.","cd_identificador_esfera_administrativa_equipamento":2,"nm_esfera_administrativa_equipamento":"Estadual","tx_esfera_administrativa_equipamento":"Administração estadual vinculada à Secretaria de Estado da Saúde","cd_equipamento":"1046","nm_equipamento":"FARMACIA MEDEX CRT AIDS","tx_endereco_equipamento":"R. SANTA CRUZ, 81","nm_bairro_equipamento":"VILA MARIANA","cd_cep_equipamento":"04121-000","tx_horario_funcionamento":null,"tx_numero_telefone":null,"cd_equipamento_base_origem":null}}],"totalFeatures":28,"numberMatched":28,"numberReturned":28,"timeStamp":"2026-05-16T19:24:40.981Z","crs":{"type":"name","properties":{"name":"urn:ogc:def:crs:EPSG::31983"}}}