{"type":"FeatureCollection","features":[{"type":"Feature","id":"equipamento_postos_eletropaulo_v2.181001","geometry":{"type":"Point","coordinates":[333985.4858,7398952.6718]},"geometry_name":"ge_ponto","properties":{"cd_identificador":181001,"cd_identificador_tema_equipamento":8,"nm_tema_equipamento":"SERVICO","cd_identificador_rede_equipamento":0,"nm_rede_equipamento":"SEM REDE","tx_rede_equipamento":"Sem descrição","cd_identificador_tipo_equipamento":0,"nm_tipo_equipamento":"SEM TIPO","tx_tipo_equipamento":"SEM TIPO","cd_identificador_classe_equipamento":2,"nm_classe_equipamento":"ENEL","tx_classe_equipamento":"POSTOS DE ATENDIMENTO DA ENEL","cd_identificador_esfera_administrativa_equipamento":0,"nm_esfera_administrativa_equipamento":"SEM ESFERA","tx_esfera_administrativa_equipamento":"Sem descrição","cd_equipamento":null,"nm_equipamento":"PONTO DE ATENDIMENTO AO CLIENTE - SANTANA","tx_endereco_equipamento":"RUA VOLUNTÁRIOS DA PATRIA, 1068","nm_bairro_equipamento":"SANTANA","cd_cep_equipamento":null,"tx_horario_funcionamento":"SEG À SEX (8H30 ÀS 16H30)","tx_numero_telefone":null,"cd_equipamento_base_origem":null}},{"type":"Feature","id":"equipamento_postos_eletropaulo_v2.181002","geometry":{"type":"Point","coordinates":[339000.4442,7399796.6275]},"geometry_name":"ge_ponto","properties":{"cd_identificador":181002,"cd_identificador_tema_equipamento":8,"nm_tema_equipamento":"SERVICO","cd_identificador_rede_equipamento":0,"nm_rede_equipamento":"SEM REDE","tx_rede_equipamento":"Sem descrição","cd_identificador_tipo_equipamento":0,"nm_tipo_equipamento":"SEM TIPO","tx_tipo_equipamento":"SEM TIPO","cd_identificador_classe_equipamento":2,"nm_classe_equipamento":"ENEL","tx_classe_equipamento":"POSTOS DE ATENDIMENTO DA ENEL","cd_identificador_esfera_administrativa_equipamento":0,"nm_esfera_administrativa_equipamento":"SEM ESFERA","tx_esfera_administrativa_equipamento":"Sem descrição","cd_equipamento":null,"nm_equipamento":"PONTO DE ATENDIMENTO AO CLIENTE - VILA MARIA","tx_endereco_equipamento":"AV. DAS CEREJEIRAS, 1535","nm_bairro_equipamento":"VILA MARIA","cd_cep_equipamento":null,"tx_horario_funcionamento":"SEG À SEX (8H30 ÀS 16H30)","tx_numero_telefone":null,"cd_equipamento_base_origem":null}},{"type":"Feature","id":"equipamento_postos_eletropaulo_v2.181003","geometry":{"type":"Point","coordinates":[326983.2996,7399765.7658]},"geometry_name":"ge_ponto","properties":{"cd_identificador":181003,"cd_identificador_tema_equipamento":8,"nm_tema_equipamento":"SERVICO","cd_identificador_rede_equipamento":0,"nm_rede_equipamento":"SEM REDE","tx_rede_equipamento":"Sem descrição","cd_identificador_tipo_equipamento":0,"nm_tipo_equipamento":"SEM TIPO","tx_tipo_equipamento":"SEM TIPO","cd_identificador_classe_equipamento":2,"nm_classe_equipamento":"ENEL","tx_classe_equipamento":"POSTOS DE ATENDIMENTO DA ENEL","cd_identificador_esfera_administrativa_equipamento":0,"nm_esfera_administrativa_equipamento":"SEM ESFERA","tx_esfera_administrativa_equipamento":"Sem descrição","cd_equipamento":null,"nm_equipamento":"PONTO DE ATENDIMENTO AO CLIENTE - FREGUESIA","tx_endereco_equipamento":"AV. SANTA MARINA, 2523/2525","nm_bairro_equipamento":"FREGUESIA DO Ó","cd_cep_equipamento":null,"tx_horario_funcionamento":"SEG À SEX (8H30 ÀS 16H30)","tx_numero_telefone":null,"cd_equipamento_base_origem":null}},{"type":"Feature","id":"equipamento_postos_eletropaulo_v2.181004","geometry":{"type":"Point","coordinates":[339561.6763,7395485.9556]},"geometry_name":"ge_ponto","properties":{"cd_identificador":181004,"cd_identificador_tema_equipamento":8,"nm_tema_equipamento":"SERVICO","cd_identificador_rede_equipamento":0,"nm_rede_equipamento":"SEM REDE","tx_rede_equipamento":"Sem descrição","cd_identificador_tipo_equipamento":0,"nm_tipo_equipamento":"SEM TIPO","tx_tipo_equipamento":"SEM TIPO","cd_identificador_classe_equipamento":2,"nm_classe_equipamento":"ENEL","tx_classe_equipamento":"POSTOS DE ATENDIMENTO DA ENEL","cd_identificador_esfera_administrativa_equipamento":0,"nm_esfera_administrativa_equipamento":"SEM ESFERA","tx_esfera_administrativa_equipamento":"Sem descrição","cd_equipamento":null,"nm_equipamento":"PONTO DE ATENDIMENTO AO CLIENTE - TATUAPÉ","tx_endereco_equipamento":"RUA PADRE ESTEVÃO PERNET, 314","nm_bairro_equipamento":"TATUAPE","cd_cep_equipamento":null,"tx_horario_funcionamento":"SEG À SEX (8H30 ÀS 16H30)","tx_numero_telefone":null,"cd_equipamento_base_origem":null}},{"type":"Feature","id":"equipamento_postos_eletropaulo_v2.181005","geometry":{"type":"Point","coordinates":[352096.1461,7401228.7056]},"geometry_name":"ge_ponto","properties":{"cd_identificador":181005,"cd_identificador_tema_equipamento":8,"nm_tema_equipamento":"SERVICO","cd_identificador_rede_equipamento":0,"nm_rede_equipamento":"SEM REDE","tx_rede_equipamento":"Sem descrição","cd_identificador_tipo_equipamento":0,"nm_tipo_equipamento":"SEM TIPO","tx_tipo_equipamento":"SEM TIPO","cd_identificador_classe_equipamento":2,"nm_classe_equipamento":"ENEL","tx_classe_equipamento":"POSTOS DE ATENDIMENTO DA ENEL","cd_identificador_esfera_administrativa_equipamento":0,"nm_esfera_administrativa_equipamento":"SEM ESFERA","tx_esfera_administrativa_equipamento":"Sem descrição","cd_equipamento":null,"nm_equipamento":"PONTO DE ATENDIMENTO AO CLIENTE - SÃO MIGUEL PAULISTA","tx_endereco_equipamento":"AV. SÃO MIGUEL, 9419","nm_bairro_equipamento":"SÃO MIGUEL PAULISTA","cd_cep_equipamento":null,"tx_horario_funcionamento":"SEG À SEX (8H30 ÀS 16H30)","tx_numero_telefone":null,"cd_equipamento_base_origem":null}},{"type":"Feature","id":"equipamento_postos_eletropaulo_v2.181006","geometry":{"type":"Point","coordinates":[332154.7832,7385450.879]},"geometry_name":"ge_ponto","properties":{"cd_identificador":181006,"cd_identificador_tema_equipamento":8,"nm_tema_equipamento":"SERVICO","cd_identificador_rede_equipamento":0,"nm_rede_equipamento":"SEM REDE","tx_rede_equipamento":"Sem descrição","cd_identificador_tipo_equipamento":0,"nm_tipo_equipamento":"SEM TIPO","tx_tipo_equipamento":"SEM TIPO","cd_identificador_classe_equipamento":2,"nm_classe_equipamento":"ENEL","tx_classe_equipamento":"POSTOS DE ATENDIMENTO DA ENEL","cd_identificador_esfera_administrativa_equipamento":0,"nm_esfera_administrativa_equipamento":"SEM ESFERA","tx_esfera_administrativa_equipamento":"Sem descrição","cd_equipamento":null,"nm_equipamento":"PONTO DE ATENDIMENTO AO CLIENTE - JABAQUARA","tx_endereco_equipamento":"AV. ENG. ARMANDO DE ARRUDA PEREIRA, 394","nm_bairro_equipamento":"JABAQUARA","cd_cep_equipamento":null,"tx_horario_funcionamento":"SEG À SEX (8H30 ÀS 16H30)","tx_numero_telefone":null,"cd_equipamento_base_origem":null}},{"type":"Feature","id":"equipamento_postos_eletropaulo_v2.181007","geometry":{"type":"Point","coordinates":[325670.4399,7383313.5438]},"geometry_name":"ge_ponto","properties":{"cd_identificador":181007,"cd_identificador_tema_equipamento":8,"nm_tema_equipamento":"SERVICO","cd_identificador_rede_equipamento":0,"nm_rede_equipamento":"SEM REDE","tx_rede_equipamento":"Sem descrição","cd_identificador_tipo_equipamento":0,"nm_tipo_equipamento":"SEM TIPO","tx_tipo_equipamento":"SEM TIPO","cd_identificador_classe_equipamento":2,"nm_classe_equipamento":"ENEL","tx_classe_equipamento":"POSTOS DE ATENDIMENTO DA ENEL","cd_identificador_esfera_administrativa_equipamento":0,"nm_esfera_administrativa_equipamento":"SEM ESFERA","tx_esfera_administrativa_equipamento":"Sem descrição","cd_equipamento":null,"nm_equipamento":"PONTO DE ATENDIMENTO AO CLIENTE - SANTO AMARO","tx_endereco_equipamento":"RUA BARÃO DO RIO BRANCO, 425","nm_bairro_equipamento":"SANTO AMARO","cd_cep_equipamento":null,"tx_horario_funcionamento":"SEG À SEX (8H30 ÀS 16H30)","tx_numero_telefone":null,"cd_equipamento_base_origem":null}}],"totalFeatures":7,"numberMatched":7,"numberReturned":7,"timeStamp":"2026-05-17T01:42:37.845Z","crs":{"type":"name","properties":{"name":"urn:ogc:def:crs:EPSG::31983"}}}