{"type":"FeatureCollection","features":[{"type":"Feature","id":"equipamento_cultura_espacos_culturais_v3.40193","geometry":{"type":"Point","coordinates":[332490.5804,7393352.1548]},"geometry_name":"ge_ponto","properties":{"cd_identificador":40193,"cd_identificador_tema_equipamento":3,"nm_tema_equipamento":"CULTURA","cd_identificador_rede_equipamento":0,"nm_rede_equipamento":"SEM REDE","tx_rede_equipamento":"Sem descrição","cd_identificador_tipo_equipamento":3,"nm_tipo_equipamento":"Centros Culturais, Casas de Cultura, Espaços Culturais","tx_tipo_equipamento":"Centros Culturais, Casas de Cultura, Espaços Culturais","cd_identificador_classe_equipamento":2,"nm_classe_equipamento":"ESPACOS CULTURAIS","tx_classe_equipamento":"ESPACOS CULTURAIS","cd_identificador_esfera_administrativa_equipamento":1,"nm_esfera_administrativa_equipamento":"Municipal","tx_esfera_administrativa_equipamento":"Entidade mantenedora: PMSP","cd_equipamento":null,"nm_equipamento":"Centro Cultural Vila Itororó","tx_endereco_equipamento":"R. Maestro Cardim, 60","nm_bairro_equipamento":"","cd_cep_equipamento":"01323-000","tx_horario_funcionamento":null,"tx_numero_telefone":"(11) 3253-0187","cd_equipamento_base_origem":null}},{"type":"Feature","id":"equipamento_cultura_espacos_culturais_v3.40194","geometry":{"type":"Point","coordinates":[318797.5909,7385255.7913]},"geometry_name":"ge_ponto","properties":{"cd_identificador":40194,"cd_identificador_tema_equipamento":3,"nm_tema_equipamento":"CULTURA","cd_identificador_rede_equipamento":0,"nm_rede_equipamento":"SEM REDE","tx_rede_equipamento":"Sem descrição","cd_identificador_tipo_equipamento":3,"nm_tipo_equipamento":"Centros Culturais, Casas de Cultura, Espaços Culturais","tx_tipo_equipamento":"Centros Culturais, Casas de Cultura, Espaços Culturais","cd_identificador_classe_equipamento":2,"nm_classe_equipamento":"ESPACOS CULTURAIS","tx_classe_equipamento":"ESPACOS CULTURAIS","cd_identificador_esfera_administrativa_equipamento":1,"nm_esfera_administrativa_equipamento":"Municipal","tx_esfera_administrativa_equipamento":"Entidade mantenedora: PMSP","cd_equipamento":null,"nm_equipamento":"Casa de Cultura Campo Limpo - Dora Nascimento","tx_endereco_equipamento":"Rua Aroldo de Azevedo, 100","nm_bairro_equipamento":"","cd_cep_equipamento":null,"tx_horario_funcionamento":null,"tx_numero_telefone":"(11) 5841-8164","cd_equipamento_base_origem":null}},{"type":"Feature","id":"equipamento_cultura_espacos_culturais_v3.40195","geometry":{"type":"Point","coordinates":[332602.3012,7392281.018]},"geometry_name":"ge_ponto","properties":{"cd_identificador":40195,"cd_identificador_tema_equipamento":3,"nm_tema_equipamento":"CULTURA","cd_identificador_rede_equipamento":0,"nm_rede_equipamento":"SEM REDE","tx_rede_equipamento":"Sem descrição","cd_identificador_tipo_equipamento":3,"nm_tipo_equipamento":"Centros Culturais, Casas de Cultura, Espaços Culturais","tx_tipo_equipamento":"Centros Culturais, Casas de Cultura, Espaços Culturais","cd_identificador_classe_equipamento":2,"nm_classe_equipamento":"ESPACOS CULTURAIS","tx_classe_equipamento":"ESPACOS CULTURAIS","cd_identificador_esfera_administrativa_equipamento":1,"nm_esfera_administrativa_equipamento":"Municipal","tx_esfera_administrativa_equipamento":"Entidade mantenedora: PMSP","cd_equipamento":null,"nm_equipamento":"Centro Cultural São Paulo - CCSP","tx_endereco_equipamento":"Rua Vergueiro, 1000","nm_bairro_equipamento":"","cd_cep_equipamento":null,"tx_horario_funcionamento":null,"tx_numero_telefone":"(11) 3397-4001 / (11) 3397-4002","cd_equipamento_base_origem":null}},{"type":"Feature","id":"equipamento_cultura_espacos_culturais_v3.40196","geometry":{"type":"Point","coordinates":[335877.7921,7387350.3617]},"geometry_name":"ge_ponto","properties":{"cd_identificador":40196,"cd_identificador_tema_equipamento":3,"nm_tema_equipamento":"CULTURA","cd_identificador_rede_equipamento":0,"nm_rede_equipamento":"SEM REDE","tx_rede_equipamento":"Sem descrição","cd_identificador_tipo_equipamento":3,"nm_tipo_equipamento":"Centros Culturais, Casas de Cultura, Espaços Culturais","tx_tipo_equipamento":"Centros Culturais, Casas de Cultura, Espaços Culturais","cd_identificador_classe_equipamento":2,"nm_classe_equipamento":"ESPACOS CULTURAIS","tx_classe_equipamento":"ESPACOS CULTURAIS","cd_identificador_esfera_administrativa_equipamento":1,"nm_esfera_administrativa_equipamento":"Municipal","tx_esfera_administrativa_equipamento":"Entidade mantenedora: PMSP","cd_equipamento":null,"nm_equipamento":"Casa de Cultura Ipiranga - Chico Science","tx_endereco_equipamento":"Avenida Pres. Tancredo Neves, 1265","nm_bairro_equipamento":"","cd_cep_equipamento":null,"tx_horario_funcionamento":null,"tx_numero_telefone":"(11) 2969-7066 / (11) 2352-1138","cd_equipamento_base_origem":null}},{"type":"Feature","id":"equipamento_cultura_espacos_culturais_v3.40197","geometry":{"type":"Point","coordinates":[323196.468,7390399.1673]},"geometry_name":"ge_ponto","properties":{"cd_identificador":40197,"cd_identificador_tema_equipamento":3,"nm_tema_equipamento":"CULTURA","cd_identificador_rede_equipamento":0,"nm_rede_equipamento":"SEM REDE","tx_rede_equipamento":"Sem descrição","cd_identificador_tipo_equipamento":3,"nm_tipo_equipamento":"Centros Culturais, Casas de Cultura, Espaços Culturais","tx_tipo_equipamento":"Centros Culturais, Casas de Cultura, Espaços Culturais","cd_identificador_classe_equipamento":2,"nm_classe_equipamento":"ESPACOS CULTURAIS","tx_classe_equipamento":"ESPACOS CULTURAIS","cd_identificador_esfera_administrativa_equipamento":1,"nm_esfera_administrativa_equipamento":"Municipal","tx_esfera_administrativa_equipamento":"Entidade mantenedora: PMSP","cd_equipamento":null,"nm_equipamento":"Casa de Cultura - Butantã","tx_endereco_equipamento":"Avenida Junta Mizumoto, 13","nm_bairro_equipamento":"","cd_cep_equipamento":null,"tx_horario_funcionamento":null,"tx_numero_telefone":"(11) 3744-4369 / (11) 3742-6218","cd_equipamento_base_origem":null}},{"type":"Feature","id":"equipamento_cultura_espacos_culturais_v3.40198","geometry":{"type":"Point","coordinates":[325859.1719,7383387.0826]},"geometry_name":"ge_ponto","properties":{"cd_identificador":40198,"cd_identificador_tema_equipamento":3,"nm_tema_equipamento":"CULTURA","cd_identificador_rede_equipamento":0,"nm_rede_equipamento":"SEM REDE","tx_rede_equipamento":"Sem descrição","cd_identificador_tipo_equipamento":3,"nm_tipo_equipamento":"Centros Culturais, Casas de Cultura, Espaços Culturais","tx_tipo_equipamento":"Centros Culturais, Casas de Cultura, Espaços Culturais","cd_identificador_classe_equipamento":2,"nm_classe_equipamento":"ESPACOS CULTURAIS","tx_classe_equipamento":"ESPACOS CULTURAIS","cd_identificador_esfera_administrativa_equipamento":1,"nm_esfera_administrativa_equipamento":"Municipal","tx_esfera_administrativa_equipamento":"Entidade mantenedora: PMSP","cd_equipamento":null,"nm_equipamento":"Casa de Cultura Casa Amarela - Júlio Guerra","tx_endereco_equipamento":"Praça Floriano Peixoto, 130","nm_bairro_equipamento":"","cd_cep_equipamento":null,"tx_horario_funcionamento":null,"tx_numero_telefone":"(11) 5523-6455","cd_equipamento_base_origem":null}},{"type":"Feature","id":"equipamento_cultura_espacos_culturais_v3.40199","geometry":{"type":"Point","coordinates":[342807.0999,7392342.0705]},"geometry_name":"ge_ponto","properties":{"cd_identificador":40199,"cd_identificador_tema_equipamento":3,"nm_tema_equipamento":"CULTURA","cd_identificador_rede_equipamento":0,"nm_rede_equipamento":"SEM REDE","tx_rede_equipamento":"Sem descrição","cd_identificador_tipo_equipamento":3,"nm_tipo_equipamento":"Centros Culturais, Casas de Cultura, Espaços Culturais","tx_tipo_equipamento":"Centros Culturais, Casas de Cultura, Espaços Culturais","cd_identificador_classe_equipamento":2,"nm_classe_equipamento":"ESPACOS CULTURAIS","tx_classe_equipamento":"ESPACOS CULTURAIS","cd_identificador_esfera_administrativa_equipamento":1,"nm_esfera_administrativa_equipamento":"Municipal","tx_esfera_administrativa_equipamento":"Entidade mantenedora: PMSP","cd_equipamento":null,"nm_equipamento":"Centro Cultural Vila Formosa","tx_endereco_equipamento":"Avenida Renata, 163","nm_bairro_equipamento":"","cd_cep_equipamento":null,"tx_horario_funcionamento":null,"tx_numero_telefone":"(11) 2216-1520","cd_equipamento_base_origem":null}},{"type":"Feature","id":"equipamento_cultura_espacos_culturais_v3.40200","geometry":{"type":"Point","coordinates":[356534.8048,7391256.5669]},"geometry_name":"ge_ponto","properties":{"cd_identificador":40200,"cd_identificador_tema_equipamento":3,"nm_tema_equipamento":"CULTURA","cd_identificador_rede_equipamento":0,"nm_rede_equipamento":"SEM REDE","tx_rede_equipamento":"Sem descrição","cd_identificador_tipo_equipamento":3,"nm_tipo_equipamento":"Centros Culturais, Casas de Cultura, Espaços Culturais","tx_tipo_equipamento":"Centros Culturais, Casas de Cultura, Espaços Culturais","cd_identificador_classe_equipamento":2,"nm_classe_equipamento":"ESPACOS CULTURAIS","tx_classe_equipamento":"ESPACOS CULTURAIS","cd_identificador_esfera_administrativa_equipamento":1,"nm_esfera_administrativa_equipamento":"Municipal","tx_esfera_administrativa_equipamento":"Entidade mantenedora: PMSP","cd_equipamento":null,"nm_equipamento":"Casa de Cultura Cidade Tiradentes - Hip Hop Leste","tx_endereco_equipamento":"R. Sara Kubistchek, 165","nm_bairro_equipamento":"","cd_cep_equipamento":null,"tx_horario_funcionamento":null,"tx_numero_telefone":"(11) 3333-4896","cd_equipamento_base_origem":null}},{"type":"Feature","id":"equipamento_cultura_espacos_culturais_v3.40201","geometry":{"type":"Point","coordinates":[351892.2427,7400831.5361]},"geometry_name":"ge_ponto","properties":{"cd_identificador":40201,"cd_identificador_tema_equipamento":3,"nm_tema_equipamento":"CULTURA","cd_identificador_rede_equipamento":0,"nm_rede_equipamento":"SEM REDE","tx_rede_equipamento":"Sem descrição","cd_identificador_tipo_equipamento":3,"nm_tipo_equipamento":"Centros Culturais, Casas de Cultura, Espaços Culturais","tx_tipo_equipamento":"Centros Culturais, Casas de Cultura, Espaços Culturais","cd_identificador_classe_equipamento":2,"nm_classe_equipamento":"ESPACOS CULTURAIS","tx_classe_equipamento":"ESPACOS CULTURAIS","cd_identificador_esfera_administrativa_equipamento":1,"nm_esfera_administrativa_equipamento":"Municipal","tx_esfera_administrativa_equipamento":"Entidade mantenedora: PMSP","cd_equipamento":null,"nm_equipamento":"Casa de Cultura São Miguel - Antônio Marcos","tx_endereco_equipamento":"Rua Irineu Bonardi, 169","nm_bairro_equipamento":"","cd_cep_equipamento":null,"tx_horario_funcionamento":null,"tx_numero_telefone":"(11) 2297-9177 / (11) 2037-5009","cd_equipamento_base_origem":null}},{"type":"Feature","id":"equipamento_cultura_espacos_culturais_v3.40202","geometry":{"type":"Point","coordinates":[323743.0581,7363379.4508]},"geometry_name":"ge_ponto","properties":{"cd_identificador":40202,"cd_identificador_tema_equipamento":3,"nm_tema_equipamento":"CULTURA","cd_identificador_rede_equipamento":0,"nm_rede_equipamento":"SEM REDE","tx_rede_equipamento":"Sem descrição","cd_identificador_tipo_equipamento":3,"nm_tipo_equipamento":"Centros Culturais, Casas de Cultura, Espaços Culturais","tx_tipo_equipamento":"Centros Culturais, Casas de Cultura, Espaços Culturais","cd_identificador_classe_equipamento":2,"nm_classe_equipamento":"ESPACOS CULTURAIS","tx_classe_equipamento":"ESPACOS CULTURAIS","cd_identificador_esfera_administrativa_equipamento":1,"nm_esfera_administrativa_equipamento":"Municipal","tx_esfera_administrativa_equipamento":"Entidade mantenedora: PMSP","cd_equipamento":null,"nm_equipamento":"Casa de Cultura - Parelheiros (fechado temporariamente)","tx_endereco_equipamento":"Rua Nazle Mauad Lufti, 169","nm_bairro_equipamento":"","cd_cep_equipamento":null,"tx_horario_funcionamento":null,"tx_numero_telefone":"(11) 5921-1347","cd_equipamento_base_origem":null}},{"type":"Feature","id":"equipamento_cultura_espacos_culturais_v3.40203","geometry":{"type":"Point","coordinates":[334299.7621,7404529.7803]},"geometry_name":"ge_ponto","properties":{"cd_identificador":40203,"cd_identificador_tema_equipamento":3,"nm_tema_equipamento":"CULTURA","cd_identificador_rede_equipamento":0,"nm_rede_equipamento":"SEM REDE","tx_rede_equipamento":"Sem descrição","cd_identificador_tipo_equipamento":3,"nm_tipo_equipamento":"Centros Culturais, Casas de Cultura, Espaços Culturais","tx_tipo_equipamento":"Centros Culturais, Casas de Cultura, Espaços Culturais","cd_identificador_classe_equipamento":2,"nm_classe_equipamento":"ESPACOS CULTURAIS","tx_classe_equipamento":"ESPACOS CULTURAIS","cd_identificador_esfera_administrativa_equipamento":1,"nm_esfera_administrativa_equipamento":"Municipal","tx_esfera_administrativa_equipamento":"Entidade mantenedora: PMSP","cd_equipamento":null,"nm_equipamento":"Casa de Cultura - Tremembé","tx_endereco_equipamento":"Rua Maria Amália Lopes de Azevedo, 190","nm_bairro_equipamento":"","cd_cep_equipamento":null,"tx_horario_funcionamento":null,"tx_numero_telefone":"(11) 2991-4291","cd_equipamento_base_origem":null}},{"type":"Feature","id":"equipamento_cultura_espacos_culturais_v3.40204","geometry":{"type":"Point","coordinates":[341920.2372,7397415.0411]},"geometry_name":"ge_ponto","properties":{"cd_identificador":40204,"cd_identificador_tema_equipamento":3,"nm_tema_equipamento":"CULTURA","cd_identificador_rede_equipamento":0,"nm_rede_equipamento":"SEM REDE","tx_rede_equipamento":"Sem descrição","cd_identificador_tipo_equipamento":3,"nm_tipo_equipamento":"Centros Culturais, Casas de Cultura, Espaços Culturais","tx_tipo_equipamento":"Centros Culturais, Casas de Cultura, Espaços Culturais","cd_identificador_classe_equipamento":2,"nm_classe_equipamento":"ESPACOS CULTURAIS","tx_classe_equipamento":"ESPACOS CULTURAIS","cd_identificador_esfera_administrativa_equipamento":1,"nm_esfera_administrativa_equipamento":"Municipal","tx_esfera_administrativa_equipamento":"Entidade mantenedora: PMSP","cd_equipamento":null,"nm_equipamento":"Centro Cultural Penha","tx_endereco_equipamento":"Largo do Rosário, 20","nm_bairro_equipamento":"","cd_cep_equipamento":null,"tx_horario_funcionamento":null,"tx_numero_telefone":"(11) 2095-6480","cd_equipamento_base_origem":null}},{"type":"Feature","id":"equipamento_cultura_espacos_culturais_v3.40205","geometry":{"type":"Point","coordinates":[328459.2624,7381229.1509]},"geometry_name":"ge_ponto","properties":{"cd_identificador":40205,"cd_identificador_tema_equipamento":3,"nm_tema_equipamento":"CULTURA","cd_identificador_rede_equipamento":0,"nm_rede_equipamento":"SEM REDE","tx_rede_equipamento":"Sem descrição","cd_identificador_tipo_equipamento":3,"nm_tipo_equipamento":"Centros Culturais, Casas de Cultura, Espaços Culturais","tx_tipo_equipamento":"Centros Culturais, Casas de Cultura, Espaços Culturais","cd_identificador_classe_equipamento":2,"nm_classe_equipamento":"ESPACOS CULTURAIS","tx_classe_equipamento":"ESPACOS CULTURAIS","cd_identificador_esfera_administrativa_equipamento":1,"nm_esfera_administrativa_equipamento":"Municipal","tx_esfera_administrativa_equipamento":"Entidade mantenedora: PMSP","cd_equipamento":null,"nm_equipamento":"Casa de Cultura Cora Coralina - Hip Hop Sul","tx_endereco_equipamento":"R Sant'ana, 201","nm_bairro_equipamento":"","cd_cep_equipamento":null,"tx_horario_funcionamento":null,"tx_numero_telefone":"(11) 98454-9138 / (11) 97548-2271","cd_equipamento_base_origem":null}},{"type":"Feature","id":"equipamento_cultura_espacos_culturais_v3.40206","geometry":{"type":"Point","coordinates":[352700.9983,7394496.6578]},"geometry_name":"ge_ponto","properties":{"cd_identificador":40206,"cd_identificador_tema_equipamento":3,"nm_tema_equipamento":"CULTURA","cd_identificador_rede_equipamento":0,"nm_rede_equipamento":"SEM REDE","tx_rede_equipamento":"Sem descrição","cd_identificador_tipo_equipamento":3,"nm_tipo_equipamento":"Centros Culturais, Casas de Cultura, Espaços Culturais","tx_tipo_equipamento":"Centros Culturais, Casas de Cultura, Espaços Culturais","cd_identificador_classe_equipamento":2,"nm_classe_equipamento":"ESPACOS CULTURAIS","tx_classe_equipamento":"ESPACOS CULTURAIS","cd_identificador_esfera_administrativa_equipamento":1,"nm_esfera_administrativa_equipamento":"Municipal","tx_esfera_administrativa_equipamento":"Entidade mantenedora: PMSP","cd_equipamento":null,"nm_equipamento":"Casa de Cultura Itaquera - Raul Seixas (fechado temporariamente)","tx_endereco_equipamento":"Rua Murmúrios da Tarde, 211","nm_bairro_equipamento":"","cd_cep_equipamento":null,"tx_horario_funcionamento":null,"tx_numero_telefone":"(11) 2521-6411","cd_equipamento_base_origem":null}},{"type":"Feature","id":"equipamento_cultura_espacos_culturais_v3.40207","geometry":{"type":"Point","coordinates":[326466.4229,7399897.1424]},"geometry_name":"ge_ponto","properties":{"cd_identificador":40207,"cd_identificador_tema_equipamento":3,"nm_tema_equipamento":"CULTURA","cd_identificador_rede_equipamento":0,"nm_rede_equipamento":"SEM REDE","tx_rede_equipamento":"Sem descrição","cd_identificador_tipo_equipamento":3,"nm_tipo_equipamento":"Centros Culturais, Casas de Cultura, Espaços Culturais","tx_tipo_equipamento":"Centros Culturais, Casas de Cultura, Espaços Culturais","cd_identificador_classe_equipamento":2,"nm_classe_equipamento":"ESPACOS CULTURAIS","tx_classe_equipamento":"ESPACOS CULTURAIS","cd_identificador_esfera_administrativa_equipamento":1,"nm_esfera_administrativa_equipamento":"Municipal","tx_esfera_administrativa_equipamento":"Entidade mantenedora: PMSP","cd_equipamento":null,"nm_equipamento":"Casa de Cultura Freguesia do Ó - Salvador Ligabue","tx_endereco_equipamento":"Largo da Matriz, 215","nm_bairro_equipamento":"","cd_cep_equipamento":null,"tx_horario_funcionamento":null,"tx_numero_telefone":"(11) 3932-7113 / (11) 3931-8266","cd_equipamento_base_origem":null}},{"type":"Feature","id":"equipamento_cultura_espacos_culturais_v3.40208","geometry":{"type":"Point","coordinates":[332861.4566,7395257.649]},"geometry_name":"ge_ponto","properties":{"cd_identificador":40208,"cd_identificador_tema_equipamento":3,"nm_tema_equipamento":"CULTURA","cd_identificador_rede_equipamento":0,"nm_rede_equipamento":"SEM REDE","tx_rede_equipamento":"Sem descrição","cd_identificador_tipo_equipamento":3,"nm_tipo_equipamento":"Centros Culturais, Casas de Cultura, Espaços Culturais","tx_tipo_equipamento":"Centros Culturais, Casas de Cultura, Espaços Culturais","cd_identificador_classe_equipamento":2,"nm_classe_equipamento":"ESPACOS CULTURAIS","tx_classe_equipamento":"ESPACOS CULTURAIS","cd_identificador_esfera_administrativa_equipamento":1,"nm_esfera_administrativa_equipamento":"Municipal","tx_esfera_administrativa_equipamento":"Entidade mantenedora: PMSP","cd_equipamento":null,"nm_equipamento":"Praça das Artes","tx_endereco_equipamento":"Avenida São João, 281","nm_bairro_equipamento":"","cd_cep_equipamento":null,"tx_horario_funcionamento":null,"tx_numero_telefone":null,"cd_equipamento_base_origem":null}},{"type":"Feature","id":"equipamento_cultura_espacos_culturais_v3.40209","geometry":{"type":"Point","coordinates":[322040.8229,7388730.664]},"geometry_name":"ge_ponto","properties":{"cd_identificador":40209,"cd_identificador_tema_equipamento":3,"nm_tema_equipamento":"CULTURA","cd_identificador_rede_equipamento":0,"nm_rede_equipamento":"SEM REDE","tx_rede_equipamento":"Sem descrição","cd_identificador_tipo_equipamento":3,"nm_tipo_equipamento":"Centros Culturais, Casas de Cultura, Espaços Culturais","tx_tipo_equipamento":"Centros Culturais, Casas de Cultura, Espaços Culturais","cd_identificador_classe_equipamento":2,"nm_classe_equipamento":"ESPACOS CULTURAIS","tx_classe_equipamento":"ESPACOS CULTURAIS","cd_identificador_esfera_administrativa_equipamento":1,"nm_esfera_administrativa_equipamento":"Municipal","tx_esfera_administrativa_equipamento":"Entidade mantenedora: PMSP","cd_equipamento":null,"nm_equipamento":"Polo Cultural e Criativo - Chácara do Jockey","tx_endereco_equipamento":"Av. Prof. Francisco Morato, 5300","nm_bairro_equipamento":"","cd_cep_equipamento":"05520-300","tx_horario_funcionamento":null,"tx_numero_telefone":null,"cd_equipamento_base_origem":null}},{"type":"Feature","id":"equipamento_cultura_espacos_culturais_v3.40210","geometry":{"type":"Point","coordinates":[350223.8235,7386525.9553]},"geometry_name":"ge_ponto","properties":{"cd_identificador":40210,"cd_identificador_tema_equipamento":3,"nm_tema_equipamento":"CULTURA","cd_identificador_rede_equipamento":0,"nm_rede_equipamento":"SEM REDE","tx_rede_equipamento":"Sem descrição","cd_identificador_tipo_equipamento":3,"nm_tipo_equipamento":"Centros Culturais, Casas de Cultura, Espaços Culturais","tx_tipo_equipamento":"Centros Culturais, Casas de Cultura, Espaços Culturais","cd_identificador_classe_equipamento":2,"nm_classe_equipamento":"ESPACOS CULTURAIS","tx_classe_equipamento":"ESPACOS CULTURAIS","cd_identificador_esfera_administrativa_equipamento":1,"nm_esfera_administrativa_equipamento":"Municipal","tx_esfera_administrativa_equipamento":"Entidade mantenedora: PMSP","cd_equipamento":null,"nm_equipamento":"Casa de Cultura - São Rafael","tx_endereco_equipamento":"Rua Quaresma Delgado, 354","nm_bairro_equipamento":"","cd_cep_equipamento":null,"tx_horario_funcionamento":null,"tx_numero_telefone":"(11) 3793-1071","cd_equipamento_base_origem":null}},{"type":"Feature","id":"equipamento_cultura_espacos_culturais_v3.40211","geometry":{"type":"Point","coordinates":[329457.1118,7402815.2605]},"geometry_name":"ge_ponto","properties":{"cd_identificador":40211,"cd_identificador_tema_equipamento":3,"nm_tema_equipamento":"CULTURA","cd_identificador_rede_equipamento":0,"nm_rede_equipamento":"SEM REDE","tx_rede_equipamento":"Sem descrição","cd_identificador_tipo_equipamento":3,"nm_tipo_equipamento":"Centros Culturais, Casas de Cultura, Espaços Culturais","tx_tipo_equipamento":"Centros Culturais, Casas de Cultura, Espaços Culturais","cd_identificador_classe_equipamento":2,"nm_classe_equipamento":"ESPACOS CULTURAIS","tx_classe_equipamento":"ESPACOS CULTURAIS","cd_identificador_esfera_administrativa_equipamento":1,"nm_esfera_administrativa_equipamento":"Municipal","tx_esfera_administrativa_equipamento":"Entidade mantenedora: PMSP","cd_equipamento":null,"nm_equipamento":"Centro Cultural Juventude (fechado temporariamente)","tx_endereco_equipamento":"Avenida Deputado Emílio Carlos, 3641","nm_bairro_equipamento":"","cd_cep_equipamento":null,"tx_horario_funcionamento":null,"tx_numero_telefone":"(11) 3343-8972","cd_equipamento_base_origem":null}},{"type":"Feature","id":"equipamento_cultura_espacos_culturais_v3.40212","geometry":{"type":"Point","coordinates":[348210.6015,7390501.7423]},"geometry_name":"ge_ponto","properties":{"cd_identificador":40212,"cd_identificador_tema_equipamento":3,"nm_tema_equipamento":"CULTURA","cd_identificador_rede_equipamento":0,"nm_rede_equipamento":"SEM REDE","tx_rede_equipamento":"Sem descrição","cd_identificador_tipo_equipamento":3,"nm_tipo_equipamento":"Centros Culturais, Casas de Cultura, Espaços Culturais","tx_tipo_equipamento":"Centros Culturais, Casas de Cultura, Espaços Culturais","cd_identificador_classe_equipamento":2,"nm_classe_equipamento":"ESPACOS CULTURAIS","tx_classe_equipamento":"ESPACOS CULTURAIS","cd_identificador_esfera_administrativa_equipamento":1,"nm_esfera_administrativa_equipamento":"Municipal","tx_esfera_administrativa_equipamento":"Entidade mantenedora: PMSP","cd_equipamento":null,"nm_equipamento":"Casa de Cultura - São Mateus","tx_endereco_equipamento":"Rua Monte Mandirá, 40","nm_bairro_equipamento":"","cd_cep_equipamento":null,"tx_horario_funcionamento":null,"tx_numero_telefone":"(11) 3793-1054","cd_equipamento_base_origem":null}},{"type":"Feature","id":"equipamento_cultura_espacos_culturais_v3.40213","geometry":{"type":"Point","coordinates":[325741.8865,7383848.0544]},"geometry_name":"ge_ponto","properties":{"cd_identificador":40213,"cd_identificador_tema_equipamento":3,"nm_tema_equipamento":"CULTURA","cd_identificador_rede_equipamento":0,"nm_rede_equipamento":"SEM REDE","tx_rede_equipamento":"Sem descrição","cd_identificador_tipo_equipamento":3,"nm_tipo_equipamento":"Centros Culturais, Casas de Cultura, Espaços Culturais","tx_tipo_equipamento":"Centros Culturais, Casas de Cultura, Espaços Culturais","cd_identificador_classe_equipamento":2,"nm_classe_equipamento":"ESPACOS CULTURAIS","tx_classe_equipamento":"ESPACOS CULTURAIS","cd_identificador_esfera_administrativa_equipamento":1,"nm_esfera_administrativa_equipamento":"Municipal","tx_esfera_administrativa_equipamento":"Entidade mantenedora: PMSP","cd_equipamento":null,"nm_equipamento":"Casa de Cultura Santo Amaro - Manoel Cardoso de Mendonça","tx_endereco_equipamento":"Praça Doutor Francisco Ferreira Lopes, 434","nm_bairro_equipamento":"","cd_cep_equipamento":null,"tx_horario_funcionamento":null,"tx_numero_telefone":"(11) 5523-6455","cd_equipamento_base_origem":null}},{"type":"Feature","id":"equipamento_cultura_espacos_culturais_v3.40214","geometry":{"type":"Point","coordinates":[332228.9642,7383454.0122]},"geometry_name":"ge_ponto","properties":{"cd_identificador":40214,"cd_identificador_tema_equipamento":3,"nm_tema_equipamento":"CULTURA","cd_identificador_rede_equipamento":0,"nm_rede_equipamento":"SEM REDE","tx_rede_equipamento":"Sem descrição","cd_identificador_tipo_equipamento":3,"nm_tipo_equipamento":"Centros Culturais, Casas de Cultura, Espaços Culturais","tx_tipo_equipamento":"Centros Culturais, Casas de Cultura, Espaços Culturais","cd_identificador_classe_equipamento":2,"nm_classe_equipamento":"ESPACOS CULTURAIS","tx_classe_equipamento":"ESPACOS CULTURAIS","cd_identificador_esfera_administrativa_equipamento":1,"nm_esfera_administrativa_equipamento":"Municipal","tx_esfera_administrativa_equipamento":"Entidade mantenedora: PMSP","cd_equipamento":null,"nm_equipamento":"Centro de Culturas Negras Jabaquara","tx_endereco_equipamento":"Rua Arsênio Tavolieri, 45","nm_bairro_equipamento":"","cd_cep_equipamento":null,"tx_horario_funcionamento":null,"tx_numero_telefone":"(11) 5011-2421","cd_equipamento_base_origem":null}},{"type":"Feature","id":"equipamento_cultura_espacos_culturais_v3.40215","geometry":{"type":"Point","coordinates":[328168.4164,7390471.6183]},"geometry_name":"ge_ponto","properties":{"cd_identificador":40215,"cd_identificador_tema_equipamento":3,"nm_tema_equipamento":"CULTURA","cd_identificador_rede_equipamento":0,"nm_rede_equipamento":"SEM REDE","tx_rede_equipamento":"Sem descrição","cd_identificador_tipo_equipamento":3,"nm_tipo_equipamento":"Centros Culturais, Casas de Cultura, Espaços Culturais","tx_tipo_equipamento":"Centros Culturais, Casas de Cultura, Espaços Culturais","cd_identificador_classe_equipamento":2,"nm_classe_equipamento":"ESPACOS CULTURAIS","tx_classe_equipamento":"ESPACOS CULTURAIS","cd_identificador_esfera_administrativa_equipamento":1,"nm_esfera_administrativa_equipamento":"Municipal","tx_esfera_administrativa_equipamento":"Entidade mantenedora: PMSP","cd_equipamento":null,"nm_equipamento":"Centro Cultural Diversidade","tx_endereco_equipamento":"Rua Lopes Neto, 206","nm_bairro_equipamento":"","cd_cep_equipamento":null,"tx_horario_funcionamento":null,"tx_numero_telefone":"(11) 3079-3438","cd_equipamento_base_origem":null}},{"type":"Feature","id":"equipamento_cultura_espacos_culturais_v3.40216","geometry":{"type":"Point","coordinates":[332692.032,7395362.1323]},"geometry_name":"ge_ponto","properties":{"cd_identificador":40216,"cd_identificador_tema_equipamento":3,"nm_tema_equipamento":"CULTURA","cd_identificador_rede_equipamento":0,"nm_rede_equipamento":"SEM REDE","tx_rede_equipamento":"Sem descrição","cd_identificador_tipo_equipamento":3,"nm_tipo_equipamento":"Centros Culturais, Casas de Cultura, Espaços Culturais","tx_tipo_equipamento":"Centros Culturais, Casas de Cultura, Espaços Culturais","cd_identificador_classe_equipamento":2,"nm_classe_equipamento":"ESPACOS CULTURAIS","tx_classe_equipamento":"ESPACOS CULTURAIS","cd_identificador_esfera_administrativa_equipamento":1,"nm_esfera_administrativa_equipamento":"Municipal","tx_esfera_administrativa_equipamento":"Entidade mantenedora: PMSP","cd_equipamento":null,"nm_equipamento":"Centro Cultural Olido (fechado temporariamente)","tx_endereco_equipamento":"Avenida São João, 473","nm_bairro_equipamento":"","cd_cep_equipamento":null,"tx_horario_funcionamento":null,"tx_numero_telefone":"(11) 2899-7374","cd_equipamento_base_origem":null}},{"type":"Feature","id":"equipamento_cultura_espacos_culturais_v3.40217","geometry":{"type":"Point","coordinates":[332692.032,7395362.1323]},"geometry_name":"ge_ponto","properties":{"cd_identificador":40217,"cd_identificador_tema_equipamento":3,"nm_tema_equipamento":"CULTURA","cd_identificador_rede_equipamento":0,"nm_rede_equipamento":"SEM REDE","tx_rede_equipamento":"Sem descrição","cd_identificador_tipo_equipamento":3,"nm_tipo_equipamento":"Centros Culturais, Casas de Cultura, Espaços Culturais","tx_tipo_equipamento":"Centros Culturais, Casas de Cultura, Espaços Culturais","cd_identificador_classe_equipamento":2,"nm_classe_equipamento":"ESPACOS CULTURAIS","tx_classe_equipamento":"ESPACOS CULTURAIS","cd_identificador_esfera_administrativa_equipamento":1,"nm_esfera_administrativa_equipamento":"Municipal","tx_esfera_administrativa_equipamento":"Entidade mantenedora: PMSP","cd_equipamento":null,"nm_equipamento":"Centro de Memória do Circo - Galeria Olido","tx_endereco_equipamento":"Avenida São João, 473","nm_bairro_equipamento":"","cd_cep_equipamento":null,"tx_horario_funcionamento":null,"tx_numero_telefone":"(11) 2899-7377","cd_equipamento_base_origem":null}},{"type":"Feature","id":"equipamento_cultura_espacos_culturais_v3.40218","geometry":{"type":"Point","coordinates":[356874.8434,7400676.6078]},"geometry_name":"ge_ponto","properties":{"cd_identificador":40218,"cd_identificador_tema_equipamento":3,"nm_tema_equipamento":"CULTURA","cd_identificador_rede_equipamento":0,"nm_rede_equipamento":"SEM REDE","tx_rede_equipamento":"Sem descrição","cd_identificador_tipo_equipamento":3,"nm_tipo_equipamento":"Centros Culturais, Casas de Cultura, Espaços Culturais","tx_tipo_equipamento":"Centros Culturais, Casas de Cultura, Espaços Culturais","cd_identificador_classe_equipamento":2,"nm_classe_equipamento":"ESPACOS CULTURAIS","tx_classe_equipamento":"ESPACOS CULTURAIS","cd_identificador_esfera_administrativa_equipamento":1,"nm_esfera_administrativa_equipamento":"Municipal","tx_esfera_administrativa_equipamento":"Entidade mantenedora: PMSP","cd_equipamento":null,"nm_equipamento":"Casa de Cultura - Itaim Paulista","tx_endereco_equipamento":"Rua Monte Camberela, 490","nm_bairro_equipamento":"","cd_cep_equipamento":null,"tx_horario_funcionamento":null,"tx_numero_telefone":"(11) 2568-3329 / (11) 2963-2742 / (11) 2025-1950","cd_equipamento_base_origem":null}},{"type":"Feature","id":"equipamento_cultura_espacos_culturais_v3.40219","geometry":{"type":"Point","coordinates":[327455.9343,7373941.9501]},"geometry_name":"ge_ponto","properties":{"cd_identificador":40219,"cd_identificador_tema_equipamento":3,"nm_tema_equipamento":"CULTURA","cd_identificador_rede_equipamento":0,"nm_rede_equipamento":"SEM REDE","tx_rede_equipamento":"Sem descrição","cd_identificador_tipo_equipamento":3,"nm_tipo_equipamento":"Centros Culturais, Casas de Cultura, Espaços Culturais","tx_tipo_equipamento":"Centros Culturais, Casas de Cultura, Espaços Culturais","cd_identificador_classe_equipamento":2,"nm_classe_equipamento":"ESPACOS CULTURAIS","tx_classe_equipamento":"ESPACOS CULTURAIS","cd_identificador_esfera_administrativa_equipamento":1,"nm_esfera_administrativa_equipamento":"Municipal","tx_esfera_administrativa_equipamento":"Entidade mantenedora: PMSP","cd_equipamento":null,"nm_equipamento":"Centro Cultural Grajaú","tx_endereco_equipamento":"Rua Professor Oscar Barreto Filho, 50","nm_bairro_equipamento":"","cd_cep_equipamento":null,"tx_horario_funcionamento":null,"tx_numero_telefone":"(11) 5925-4943","cd_equipamento_base_origem":null}},{"type":"Feature","id":"equipamento_cultura_espacos_culturais_v3.40220","geometry":{"type":"Point","coordinates":[358142.9359,7391529.5953]},"geometry_name":"ge_ponto","properties":{"cd_identificador":40220,"cd_identificador_tema_equipamento":3,"nm_tema_equipamento":"CULTURA","cd_identificador_rede_equipamento":0,"nm_rede_equipamento":"SEM REDE","tx_rede_equipamento":"Sem descrição","cd_identificador_tipo_equipamento":3,"nm_tipo_equipamento":"Centros Culturais, Casas de Cultura, Espaços Culturais","tx_tipo_equipamento":"Centros Culturais, Casas de Cultura, Espaços Culturais","cd_identificador_classe_equipamento":2,"nm_classe_equipamento":"ESPACOS CULTURAIS","tx_classe_equipamento":"ESPACOS CULTURAIS","cd_identificador_esfera_administrativa_equipamento":1,"nm_esfera_administrativa_equipamento":"Municipal","tx_esfera_administrativa_equipamento":"Entidade mantenedora: PMSP","cd_equipamento":null,"nm_equipamento":"Centro de Formação Cultural da Cidade de Tiradentes","tx_endereco_equipamento":"R. Inácio Monteiro, 6900","nm_bairro_equipamento":"","cd_cep_equipamento":null,"tx_horario_funcionamento":null,"tx_numero_telefone":null,"cd_equipamento_base_origem":null}},{"type":"Feature","id":"equipamento_cultura_espacos_culturais_v3.40221","geometry":{"type":"Point","coordinates":[326794.2788,7397714.5809]},"geometry_name":"ge_ponto","properties":{"cd_identificador":40221,"cd_identificador_tema_equipamento":3,"nm_tema_equipamento":"CULTURA","cd_identificador_rede_equipamento":0,"nm_rede_equipamento":"SEM REDE","tx_rede_equipamento":"Sem descrição","cd_identificador_tipo_equipamento":3,"nm_tipo_equipamento":"Centros Culturais, Casas de Cultura, Espaços Culturais","tx_tipo_equipamento":"Centros Culturais, Casas de Cultura, Espaços Culturais","cd_identificador_classe_equipamento":2,"nm_classe_equipamento":"ESPACOS CULTURAIS","tx_classe_equipamento":"ESPACOS CULTURAIS","cd_identificador_esfera_administrativa_equipamento":1,"nm_esfera_administrativa_equipamento":"Municipal","tx_esfera_administrativa_equipamento":"Entidade mantenedora: PMSP","cd_equipamento":null,"nm_equipamento":"Centro Cultural Tendal da Lapa","tx_endereco_equipamento":"Rua Constança, 72","nm_bairro_equipamento":"","cd_cep_equipamento":null,"tx_horario_funcionamento":null,"tx_numero_telefone":"(11) 3862-1837","cd_equipamento_base_origem":null}},{"type":"Feature","id":"equipamento_cultura_espacos_culturais_v3.40222","geometry":{"type":"Point","coordinates":[325708.9626,7384030.6566]},"geometry_name":"ge_ponto","properties":{"cd_identificador":40222,"cd_identificador_tema_equipamento":3,"nm_tema_equipamento":"CULTURA","cd_identificador_rede_equipamento":0,"nm_rede_equipamento":"SEM REDE","tx_rede_equipamento":"Sem descrição","cd_identificador_tipo_equipamento":3,"nm_tipo_equipamento":"Centros Culturais, Casas de Cultura, Espaços Culturais","tx_tipo_equipamento":"Centros Culturais, Casas de Cultura, Espaços Culturais","cd_identificador_classe_equipamento":2,"nm_classe_equipamento":"ESPACOS CULTURAIS","tx_classe_equipamento":"ESPACOS CULTURAIS","cd_identificador_esfera_administrativa_equipamento":1,"nm_esfera_administrativa_equipamento":"Municipal","tx_esfera_administrativa_equipamento":"Entidade mantenedora: PMSP","cd_equipamento":null,"nm_equipamento":"Centro Cultural Santo Amaro","tx_endereco_equipamento":"Avenida João Dias, 822","nm_bairro_equipamento":"","cd_cep_equipamento":null,"tx_horario_funcionamento":null,"tx_numero_telefone":"(11) 5687-0513","cd_equipamento_base_origem":null}},{"type":"Feature","id":"equipamento_cultura_espacos_culturais_v3.40223","geometry":{"type":"Point","coordinates":[332765.2785,7395073.3076]},"geometry_name":"ge_ponto","properties":{"cd_identificador":40223,"cd_identificador_tema_equipamento":3,"nm_tema_equipamento":"CULTURA","cd_identificador_rede_equipamento":0,"nm_rede_equipamento":"SEM REDE","tx_rede_equipamento":"Sem descrição","cd_identificador_tipo_equipamento":3,"nm_tipo_equipamento":"Centros Culturais, Casas de Cultura, Espaços Culturais","tx_tipo_equipamento":"Centros Culturais, Casas de Cultura, Espaços Culturais","cd_identificador_classe_equipamento":2,"nm_classe_equipamento":"ESPACOS CULTURAIS","tx_classe_equipamento":"ESPACOS CULTURAIS","cd_identificador_esfera_administrativa_equipamento":1,"nm_esfera_administrativa_equipamento":"Municipal","tx_esfera_administrativa_equipamento":"Entidade mantenedora: PMSP","cd_equipamento":null,"nm_equipamento":"Centro de Referência da Dança","tx_endereco_equipamento":"Baixos do Viaduto do Chá, s/n","nm_bairro_equipamento":"","cd_cep_equipamento":null,"tx_horario_funcionamento":null,"tx_numero_telefone":"(11) 3214-3249","cd_equipamento_base_origem":null}},{"type":"Feature","id":"equipamento_cultura_espacos_culturais_v3.40224","geometry":{"type":"Point","coordinates":[356924.0693,7394832.607]},"geometry_name":"ge_ponto","properties":{"cd_identificador":40224,"cd_identificador_tema_equipamento":3,"nm_tema_equipamento":"CULTURA","cd_identificador_rede_equipamento":0,"nm_rede_equipamento":"SEM REDE","tx_rede_equipamento":"Sem descrição","cd_identificador_tipo_equipamento":3,"nm_tipo_equipamento":"Centros Culturais, Casas de Cultura, Espaços Culturais","tx_tipo_equipamento":"Centros Culturais, Casas de Cultura, Espaços Culturais","cd_identificador_classe_equipamento":2,"nm_classe_equipamento":"ESPACOS CULTURAIS","tx_classe_equipamento":"ESPACOS CULTURAIS","cd_identificador_esfera_administrativa_equipamento":1,"nm_esfera_administrativa_equipamento":"Municipal","tx_esfera_administrativa_equipamento":"Entidade mantenedora: PMSP","cd_equipamento":null,"nm_equipamento":"Casa de Cultura Guaianases - Richard David Manuel Junior","tx_endereco_equipamento":"Rua Castelo de Leça, s/n","nm_bairro_equipamento":"","cd_cep_equipamento":null,"tx_horario_funcionamento":null,"tx_numero_telefone":"(11) 2016-1961","cd_equipamento_base_origem":null}},{"type":"Feature","id":"equipamento_cultura_espacos_culturais_v3.40225","geometry":{"type":"Point","coordinates":[322304.927,7380869.617]},"geometry_name":"ge_ponto","properties":{"cd_identificador":40225,"cd_identificador_tema_equipamento":3,"nm_tema_equipamento":"CULTURA","cd_identificador_rede_equipamento":0,"nm_rede_equipamento":"SEM REDE","tx_rede_equipamento":"Sem descrição","cd_identificador_tipo_equipamento":3,"nm_tipo_equipamento":"Centros Culturais, Casas de Cultura, Espaços Culturais","tx_tipo_equipamento":"Centros Culturais, Casas de Cultura, Espaços Culturais","cd_identificador_classe_equipamento":2,"nm_classe_equipamento":"ESPACOS CULTURAIS","tx_classe_equipamento":"ESPACOS CULTURAIS","cd_identificador_esfera_administrativa_equipamento":1,"nm_esfera_administrativa_equipamento":"Municipal","tx_esfera_administrativa_equipamento":"Entidade mantenedora: PMSP","cd_equipamento":null,"nm_equipamento":"Casa de Cultura - M'Boi Mirim","tx_endereco_equipamento":"Avenida Inácio Dias da Silva, s/n","nm_bairro_equipamento":"","cd_cep_equipamento":null,"tx_horario_funcionamento":null,"tx_numero_telefone":"(11) 5514-3408","cd_equipamento_base_origem":null}},{"type":"Feature","id":"equipamento_cultura_espacos_culturais_v3.40226","geometry":{"type":"Point","coordinates":[326487.7745,7403465.8188]},"geometry_name":"ge_ponto","properties":{"cd_identificador":40226,"cd_identificador_tema_equipamento":3,"nm_tema_equipamento":"CULTURA","cd_identificador_rede_equipamento":0,"nm_rede_equipamento":"SEM REDE","tx_rede_equipamento":"Sem descrição","cd_identificador_tipo_equipamento":3,"nm_tipo_equipamento":"Centros Culturais, Casas de Cultura, Espaços Culturais","tx_tipo_equipamento":"Centros Culturais, Casas de Cultura, Espaços Culturais","cd_identificador_classe_equipamento":2,"nm_classe_equipamento":"ESPACOS CULTURAIS","tx_classe_equipamento":"ESPACOS CULTURAIS","cd_identificador_esfera_administrativa_equipamento":1,"nm_esfera_administrativa_equipamento":"Municipal","tx_esfera_administrativa_equipamento":"Entidade mantenedora: PMSP","cd_equipamento":null,"nm_equipamento":"Casa de Cultura Brasilândia - Sonia Franieck","tx_endereco_equipamento":"Praça Benedicta Cavalheiro, s/n","nm_bairro_equipamento":"","cd_cep_equipamento":null,"tx_horario_funcionamento":null,"tx_numero_telefone":"(11) 3922-9123 / (11) 3922-7664","cd_equipamento_base_origem":null}},{"type":"Feature","id":"equipamento_cultura_espacos_culturais_v3.40227","geometry":{"type":"Point","coordinates":[336573.268,7399368.9229]},"geometry_name":"ge_ponto","properties":{"cd_identificador":40227,"cd_identificador_tema_equipamento":3,"nm_tema_equipamento":"CULTURA","cd_identificador_rede_equipamento":0,"nm_rede_equipamento":"SEM REDE","tx_rede_equipamento":"Sem descrição","cd_identificador_tipo_equipamento":3,"nm_tipo_equipamento":"Centros Culturais, Casas de Cultura, Espaços Culturais","tx_tipo_equipamento":"Centros Culturais, Casas de Cultura, Espaços Culturais","cd_identificador_classe_equipamento":2,"nm_classe_equipamento":"ESPACOS CULTURAIS","tx_classe_equipamento":"ESPACOS CULTURAIS","cd_identificador_esfera_administrativa_equipamento":1,"nm_esfera_administrativa_equipamento":"Municipal","tx_esfera_administrativa_equipamento":"Entidade mantenedora: PMSP","cd_equipamento":null,"nm_equipamento":"Casa de Cultura Vila Guilherme - Casarão (fechado temporariamente)","tx_endereco_equipamento":"Praça Oscar Silva, s/n","nm_bairro_equipamento":"","cd_cep_equipamento":null,"tx_horario_funcionamento":null,"tx_numero_telefone":"(11) 2909-0065","cd_equipamento_base_origem":null}}],"totalFeatures":35,"numberMatched":35,"numberReturned":35,"timeStamp":"2026-05-17T01:43:17.908Z","crs":{"type":"name","properties":{"name":"urn:ogc:def:crs:EPSG::31983"}}}