{"type":"FeatureCollection","features":[{"type":"Feature","id":"equipamento_guarda_civil_metropolitana_v2.150067","geometry":{"type":"Point","coordinates":[333473.4837,7397757.2628]},"geometry_name":"ge_ponto","properties":{"cd_identificador":150067,"cd_identificador_tema_equipamento":7,"nm_tema_equipamento":"SEGURANCA","cd_identificador_rede_equipamento":0,"nm_rede_equipamento":"SEM REDE","tx_rede_equipamento":"Sem descrição","cd_identificador_tipo_equipamento":0,"nm_tipo_equipamento":"SEM TIPO","tx_tipo_equipamento":"SEM TIPO","cd_identificador_classe_equipamento":2,"nm_classe_equipamento":"UNIDADE GUARDA CIVIL METROPOLITANA","tx_classe_equipamento":"UNIDADE GUARDA CIVIL METROPOLITANA","cd_identificador_esfera_administrativa_equipamento":0,"nm_esfera_administrativa_equipamento":"SEM ESFERA","tx_esfera_administrativa_equipamento":"Sem descrição","cd_equipamento":null,"nm_equipamento":"COMANDO OPERACIONAL CENTRO","tx_endereco_equipamento":"AV SANTOS DUMONT, 767","nm_bairro_equipamento":"BOM RETIRO","cd_cep_equipamento":"01101-000","tx_horario_funcionamento":null,"tx_numero_telefone":null,"cd_equipamento_base_origem":null}},{"type":"Feature","id":"equipamento_guarda_civil_metropolitana_v2.150068","geometry":{"type":"Point","coordinates":[353742.1327,7394648.7821]},"geometry_name":"ge_ponto","properties":{"cd_identificador":150068,"cd_identificador_tema_equipamento":7,"nm_tema_equipamento":"SEGURANCA","cd_identificador_rede_equipamento":0,"nm_rede_equipamento":"SEM REDE","tx_rede_equipamento":"Sem descrição","cd_identificador_tipo_equipamento":0,"nm_tipo_equipamento":"SEM TIPO","tx_tipo_equipamento":"SEM TIPO","cd_identificador_classe_equipamento":2,"nm_classe_equipamento":"UNIDADE GUARDA CIVIL METROPOLITANA","tx_classe_equipamento":"UNIDADE GUARDA CIVIL METROPOLITANA","cd_identificador_esfera_administrativa_equipamento":0,"nm_esfera_administrativa_equipamento":"SEM ESFERA","tx_esfera_administrativa_equipamento":"Sem descrição","cd_equipamento":null,"nm_equipamento":"COMANDO OPERACIONAL LESTE","tx_endereco_equipamento":"AV PROFESSOR JOÃO BATISTA CONTI, 773","nm_bairro_equipamento":"CONJ JOSE BONIFÁCIO","cd_cep_equipamento":"08255-210","tx_horario_funcionamento":null,"tx_numero_telefone":null,"cd_equipamento_base_origem":null}},{"type":"Feature","id":"equipamento_guarda_civil_metropolitana_v2.150069","geometry":{"type":"Point","coordinates":[332758.8321,7399322.8713]},"geometry_name":"ge_ponto","properties":{"cd_identificador":150069,"cd_identificador_tema_equipamento":7,"nm_tema_equipamento":"SEGURANCA","cd_identificador_rede_equipamento":0,"nm_rede_equipamento":"SEM REDE","tx_rede_equipamento":"Sem descrição","cd_identificador_tipo_equipamento":0,"nm_tipo_equipamento":"SEM TIPO","tx_tipo_equipamento":"SEM TIPO","cd_identificador_classe_equipamento":2,"nm_classe_equipamento":"UNIDADE GUARDA CIVIL METROPOLITANA","tx_classe_equipamento":"UNIDADE GUARDA CIVIL METROPOLITANA","cd_identificador_esfera_administrativa_equipamento":0,"nm_esfera_administrativa_equipamento":"SEM ESFERA","tx_esfera_administrativa_equipamento":"Sem descrição","cd_equipamento":null,"nm_equipamento":"COMANDO OPERACIONAL NORTE","tx_endereco_equipamento":"PC HEROIS DA FORCA EXPEDICIONARIA BRASILEIRA, S/N","nm_bairro_equipamento":"SANTANA","cd_cep_equipamento":"02022-000","tx_horario_funcionamento":null,"tx_numero_telefone":null,"cd_equipamento_base_origem":null}},{"type":"Feature","id":"equipamento_guarda_civil_metropolitana_v2.150070","geometry":{"type":"Point","coordinates":[322425.5838,7397522.5278]},"geometry_name":"ge_ponto","properties":{"cd_identificador":150070,"cd_identificador_tema_equipamento":7,"nm_tema_equipamento":"SEGURANCA","cd_identificador_rede_equipamento":0,"nm_rede_equipamento":"SEM REDE","tx_rede_equipamento":"Sem descrição","cd_identificador_tipo_equipamento":0,"nm_tipo_equipamento":"SEM TIPO","tx_tipo_equipamento":"SEM TIPO","cd_identificador_classe_equipamento":2,"nm_classe_equipamento":"UNIDADE GUARDA CIVIL METROPOLITANA","tx_classe_equipamento":"UNIDADE GUARDA CIVIL METROPOLITANA","cd_identificador_esfera_administrativa_equipamento":0,"nm_esfera_administrativa_equipamento":"SEM ESFERA","tx_esfera_administrativa_equipamento":"Sem descrição","cd_equipamento":null,"nm_equipamento":"COMANDO OPERACIONAL OESTE","tx_endereco_equipamento":"R MAJOR PALADINO, 180","nm_bairro_equipamento":"VILA RIBEIRO DE BARROS","cd_cep_equipamento":"05307-000","tx_horario_funcionamento":null,"tx_numero_telefone":null,"cd_equipamento_base_origem":null}},{"type":"Feature","id":"equipamento_guarda_civil_metropolitana_v2.150071","geometry":{"type":"Point","coordinates":[326576.7715,7375624.3402]},"geometry_name":"ge_ponto","properties":{"cd_identificador":150071,"cd_identificador_tema_equipamento":7,"nm_tema_equipamento":"SEGURANCA","cd_identificador_rede_equipamento":0,"nm_rede_equipamento":"SEM REDE","tx_rede_equipamento":"Sem descrição","cd_identificador_tipo_equipamento":0,"nm_tipo_equipamento":"SEM TIPO","tx_tipo_equipamento":"SEM TIPO","cd_identificador_classe_equipamento":2,"nm_classe_equipamento":"UNIDADE GUARDA CIVIL METROPOLITANA","tx_classe_equipamento":"UNIDADE GUARDA CIVIL METROPOLITANA","cd_identificador_esfera_administrativa_equipamento":0,"nm_esfera_administrativa_equipamento":"SEM ESFERA","tx_esfera_administrativa_equipamento":"Sem descrição","cd_equipamento":null,"nm_equipamento":"COMANDO OPERACIONAL SUL","tx_endereco_equipamento":"R CASSIANO DOS SANTOS, 475","nm_bairro_equipamento":"RIO BONITO","cd_cep_equipamento":"04827-110","tx_horario_funcionamento":null,"tx_numero_telefone":null,"cd_equipamento_base_origem":null}},{"type":"Feature","id":"equipamento_guarda_civil_metropolitana_v2.150072","geometry":{"type":"Point","coordinates":[332493.0559,7394560.3577]},"geometry_name":"ge_ponto","properties":{"cd_identificador":150072,"cd_identificador_tema_equipamento":7,"nm_tema_equipamento":"SEGURANCA","cd_identificador_rede_equipamento":0,"nm_rede_equipamento":"SEM REDE","tx_rede_equipamento":"Sem descrição","cd_identificador_tipo_equipamento":0,"nm_tipo_equipamento":"SEM TIPO","tx_tipo_equipamento":"SEM TIPO","cd_identificador_classe_equipamento":2,"nm_classe_equipamento":"UNIDADE GUARDA CIVIL METROPOLITANA","tx_classe_equipamento":"UNIDADE GUARDA CIVIL METROPOLITANA","cd_identificador_esfera_administrativa_equipamento":0,"nm_esfera_administrativa_equipamento":"SEM ESFERA","tx_esfera_administrativa_equipamento":"Sem descrição","cd_equipamento":null,"nm_equipamento":"INSPETORIA DA CAMARA MUNICIPAL","tx_endereco_equipamento":"VD JACAREI, 100","nm_bairro_equipamento":"BELA VISTA","cd_cep_equipamento":"01319-900","tx_horario_funcionamento":null,"tx_numero_telefone":null,"cd_equipamento_base_origem":null}},{"type":"Feature","id":"equipamento_guarda_civil_metropolitana_v2.150073","geometry":{"type":"Point","coordinates":[336788.6287,7394993.2502]},"geometry_name":"ge_ponto","properties":{"cd_identificador":150073,"cd_identificador_tema_equipamento":7,"nm_tema_equipamento":"SEGURANCA","cd_identificador_rede_equipamento":0,"nm_rede_equipamento":"SEM REDE","tx_rede_equipamento":"Sem descrição","cd_identificador_tipo_equipamento":0,"nm_tipo_equipamento":"SEM TIPO","tx_tipo_equipamento":"SEM TIPO","cd_identificador_classe_equipamento":2,"nm_classe_equipamento":"UNIDADE GUARDA CIVIL METROPOLITANA","tx_classe_equipamento":"UNIDADE GUARDA CIVIL METROPOLITANA","cd_identificador_esfera_administrativa_equipamento":0,"nm_esfera_administrativa_equipamento":"SEM ESFERA","tx_esfera_administrativa_equipamento":"Sem descrição","cd_equipamento":null,"nm_equipamento":"INSPETORIA DE ACOES COM MOTOCICLETAS","tx_endereco_equipamento":"R JOAO TOBIAS, 12","nm_bairro_equipamento":"BELENZINHO","cd_cep_equipamento":"03163-060","tx_horario_funcionamento":null,"tx_numero_telefone":null,"cd_equipamento_base_origem":null}},{"type":"Feature","id":"equipamento_guarda_civil_metropolitana_v2.150074","geometry":{"type":"Point","coordinates":[333473.4837,7397757.2628]},"geometry_name":"ge_ponto","properties":{"cd_identificador":150074,"cd_identificador_tema_equipamento":7,"nm_tema_equipamento":"SEGURANCA","cd_identificador_rede_equipamento":0,"nm_rede_equipamento":"SEM REDE","tx_rede_equipamento":"Sem descrição","cd_identificador_tipo_equipamento":0,"nm_tipo_equipamento":"SEM TIPO","tx_tipo_equipamento":"SEM TIPO","cd_identificador_classe_equipamento":2,"nm_classe_equipamento":"UNIDADE GUARDA CIVIL METROPOLITANA","tx_classe_equipamento":"UNIDADE GUARDA CIVIL METROPOLITANA","cd_identificador_esfera_administrativa_equipamento":0,"nm_esfera_administrativa_equipamento":"SEM ESFERA","tx_esfera_administrativa_equipamento":"Sem descrição","cd_equipamento":null,"nm_equipamento":"INSPETORIA DE AÇÕES TÁTICAS ESPECIAIS","tx_endereco_equipamento":"AV SANTOS DUMONT, 767","nm_bairro_equipamento":"BOM RETIRO","cd_cep_equipamento":"01101-000","tx_horario_funcionamento":null,"tx_numero_telefone":null,"cd_equipamento_base_origem":null}},{"type":"Feature","id":"equipamento_guarda_civil_metropolitana_v2.150075","geometry":{"type":"Point","coordinates":[317411.9077,7408663.0923]},"geometry_name":"ge_ponto","properties":{"cd_identificador":150075,"cd_identificador_tema_equipamento":7,"nm_tema_equipamento":"SEGURANCA","cd_identificador_rede_equipamento":0,"nm_rede_equipamento":"SEM REDE","tx_rede_equipamento":"Sem descrição","cd_identificador_tipo_equipamento":0,"nm_tipo_equipamento":"SEM TIPO","tx_tipo_equipamento":"SEM TIPO","cd_identificador_classe_equipamento":2,"nm_classe_equipamento":"UNIDADE GUARDA CIVIL METROPOLITANA","tx_classe_equipamento":"UNIDADE GUARDA CIVIL METROPOLITANA","cd_identificador_esfera_administrativa_equipamento":0,"nm_esfera_administrativa_equipamento":"SEM ESFERA","tx_esfera_administrativa_equipamento":"Sem descrição","cd_equipamento":null,"nm_equipamento":"INSPETORIA DE DEFESA AMBIENTAL ANHANGUERA","tx_endereco_equipamento":"EST DE PERUS, 300","nm_bairro_equipamento":"ANHANGUERA","cd_cep_equipamento":"05276-110","tx_horario_funcionamento":null,"tx_numero_telefone":null,"cd_equipamento_base_origem":null}},{"type":"Feature","id":"equipamento_guarda_civil_metropolitana_v2.150076","geometry":{"type":"Point","coordinates":[333309.2368,7405035.5955]},"geometry_name":"ge_ponto","properties":{"cd_identificador":150076,"cd_identificador_tema_equipamento":7,"nm_tema_equipamento":"SEGURANCA","cd_identificador_rede_equipamento":0,"nm_rede_equipamento":"SEM REDE","tx_rede_equipamento":"Sem descrição","cd_identificador_tipo_equipamento":0,"nm_tipo_equipamento":"SEM TIPO","tx_tipo_equipamento":"SEM TIPO","cd_identificador_classe_equipamento":2,"nm_classe_equipamento":"UNIDADE GUARDA CIVIL METROPOLITANA","tx_classe_equipamento":"UNIDADE GUARDA CIVIL METROPOLITANA","cd_identificador_esfera_administrativa_equipamento":0,"nm_esfera_administrativa_equipamento":"SEM ESFERA","tx_esfera_administrativa_equipamento":"Sem descrição","cd_equipamento":null,"nm_equipamento":"INSPETORIA DE DEFESA AMBIENTAL CANTAREIRA","tx_endereco_equipamento":"R CONCHITA, 267","nm_bairro_equipamento":"HORTO FLORESTAL","cd_cep_equipamento":"02377-090","tx_horario_funcionamento":null,"tx_numero_telefone":null,"cd_equipamento_base_origem":null}},{"type":"Feature","id":"equipamento_guarda_civil_metropolitana_v2.150077","geometry":{"type":"Point","coordinates":[323595.9026,7366186.0904]},"geometry_name":"ge_ponto","properties":{"cd_identificador":150077,"cd_identificador_tema_equipamento":7,"nm_tema_equipamento":"SEGURANCA","cd_identificador_rede_equipamento":0,"nm_rede_equipamento":"SEM REDE","tx_rede_equipamento":"Sem descrição","cd_identificador_tipo_equipamento":0,"nm_tipo_equipamento":"SEM TIPO","tx_tipo_equipamento":"SEM TIPO","cd_identificador_classe_equipamento":2,"nm_classe_equipamento":"UNIDADE GUARDA CIVIL METROPOLITANA","tx_classe_equipamento":"UNIDADE GUARDA CIVIL METROPOLITANA","cd_identificador_esfera_administrativa_equipamento":0,"nm_esfera_administrativa_equipamento":"SEM ESFERA","tx_esfera_administrativa_equipamento":"Sem descrição","cd_equipamento":null,"nm_equipamento":"INSPETORIA DE DEFESA AMBIENTAL CAPIVARI-MONOS","tx_endereco_equipamento":"R ANTONIO MARCONDES BOETA, 620","nm_bairro_equipamento":"JARDIM ALADIM","cd_cep_equipamento":"04883-210","tx_horario_funcionamento":null,"tx_numero_telefone":null,"cd_equipamento_base_origem":null}},{"type":"Feature","id":"equipamento_guarda_civil_metropolitana_v2.150078","geometry":{"type":"Point","coordinates":[354692.9861,7394386.8083]},"geometry_name":"ge_ponto","properties":{"cd_identificador":150078,"cd_identificador_tema_equipamento":7,"nm_tema_equipamento":"SEGURANCA","cd_identificador_rede_equipamento":0,"nm_rede_equipamento":"SEM REDE","tx_rede_equipamento":"Sem descrição","cd_identificador_tipo_equipamento":0,"nm_tipo_equipamento":"SEM TIPO","tx_tipo_equipamento":"SEM TIPO","cd_identificador_classe_equipamento":2,"nm_classe_equipamento":"UNIDADE GUARDA CIVIL METROPOLITANA","tx_classe_equipamento":"UNIDADE GUARDA CIVIL METROPOLITANA","cd_identificador_esfera_administrativa_equipamento":0,"nm_esfera_administrativa_equipamento":"SEM ESFERA","tx_esfera_administrativa_equipamento":"Sem descrição","cd_equipamento":null,"nm_equipamento":"INSPETORIA DE DEFESA AMBIENTAL CARMO","tx_endereco_equipamento":"R LUIS MATEUS, 1485","nm_bairro_equipamento":"JARDIM SÃO PEDRO/SP","cd_cep_equipamento":"08421-750","tx_horario_funcionamento":null,"tx_numero_telefone":null,"cd_equipamento_base_origem":null}},{"type":"Feature","id":"equipamento_guarda_civil_metropolitana_v2.150079","geometry":{"type":"Point","coordinates":[325426.7218,7376926.4287]},"geometry_name":"ge_ponto","properties":{"cd_identificador":150079,"cd_identificador_tema_equipamento":7,"nm_tema_equipamento":"SEGURANCA","cd_identificador_rede_equipamento":0,"nm_rede_equipamento":"SEM REDE","tx_rede_equipamento":"Sem descrição","cd_identificador_tipo_equipamento":0,"nm_tipo_equipamento":"SEM TIPO","tx_tipo_equipamento":"SEM TIPO","cd_identificador_classe_equipamento":2,"nm_classe_equipamento":"UNIDADE GUARDA CIVIL METROPOLITANA","tx_classe_equipamento":"UNIDADE GUARDA CIVIL METROPOLITANA","cd_identificador_esfera_administrativa_equipamento":0,"nm_esfera_administrativa_equipamento":"SEM ESFERA","tx_esfera_administrativa_equipamento":"Sem descrição","cd_equipamento":null,"nm_equipamento":"INSPETORIA DE DEFESA AMBIENTAL REPRESAS","tx_endereco_equipamento":"AV ATLANTICA, 5048","nm_bairro_equipamento":"PARQUE ATLANTICO","cd_cep_equipamento":"04805-000","tx_horario_funcionamento":null,"tx_numero_telefone":null,"cd_equipamento_base_origem":null}},{"type":"Feature","id":"equipamento_guarda_civil_metropolitana_v2.150080","geometry":{"type":"Point","coordinates":[331943.6302,7394677.5815]},"geometry_name":"ge_ponto","properties":{"cd_identificador":150080,"cd_identificador_tema_equipamento":7,"nm_tema_equipamento":"SEGURANCA","cd_identificador_rede_equipamento":0,"nm_rede_equipamento":"SEM REDE","tx_rede_equipamento":"Sem descrição","cd_identificador_tipo_equipamento":0,"nm_tipo_equipamento":"SEM TIPO","tx_tipo_equipamento":"SEM TIPO","cd_identificador_classe_equipamento":2,"nm_classe_equipamento":"UNIDADE GUARDA CIVIL METROPOLITANA","tx_classe_equipamento":"UNIDADE GUARDA CIVIL METROPOLITANA","cd_identificador_esfera_administrativa_equipamento":0,"nm_esfera_administrativa_equipamento":"SEM ESFERA","tx_esfera_administrativa_equipamento":"Sem descrição","cd_equipamento":null,"nm_equipamento":"INSPETORIA DE DEFESA DA MULHER E ACOES SOCIAIS","tx_endereco_equipamento":"R AUGUSTA, 10","nm_bairro_equipamento":"CONSOLACAO","cd_cep_equipamento":"01304-000","tx_horario_funcionamento":null,"tx_numero_telefone":null,"cd_equipamento_base_origem":null}},{"type":"Feature","id":"equipamento_guarda_civil_metropolitana_v2.150081","geometry":{"type":"Point","coordinates":[334966.0569,7397922.9325]},"geometry_name":"ge_ponto","properties":{"cd_identificador":150081,"cd_identificador_tema_equipamento":7,"nm_tema_equipamento":"SEGURANCA","cd_identificador_rede_equipamento":0,"nm_rede_equipamento":"SEM REDE","tx_rede_equipamento":"Sem descrição","cd_identificador_tipo_equipamento":0,"nm_tipo_equipamento":"SEM TIPO","tx_tipo_equipamento":"SEM TIPO","cd_identificador_classe_equipamento":2,"nm_classe_equipamento":"UNIDADE GUARDA CIVIL METROPOLITANA","tx_classe_equipamento":"UNIDADE GUARDA CIVIL METROPOLITANA","cd_identificador_esfera_administrativa_equipamento":0,"nm_esfera_administrativa_equipamento":"SEM ESFERA","tx_esfera_administrativa_equipamento":"Sem descrição","cd_equipamento":null,"nm_equipamento":"INSPETORIA DE OPERACOES ESPECIAIS","tx_endereco_equipamento":"R AZURITA, 100","nm_bairro_equipamento":"CANINDE","cd_cep_equipamento":"03034-050","tx_horario_funcionamento":null,"tx_numero_telefone":null,"cd_equipamento_base_origem":null}},{"type":"Feature","id":"equipamento_guarda_civil_metropolitana_v2.150082","geometry":{"type":"Point","coordinates":[334829.6777,7398784.7697]},"geometry_name":"ge_ponto","properties":{"cd_identificador":150082,"cd_identificador_tema_equipamento":7,"nm_tema_equipamento":"SEGURANCA","cd_identificador_rede_equipamento":0,"nm_rede_equipamento":"SEM REDE","tx_rede_equipamento":"Sem descrição","cd_identificador_tipo_equipamento":0,"nm_tipo_equipamento":"SEM TIPO","tx_tipo_equipamento":"SEM TIPO","cd_identificador_classe_equipamento":2,"nm_classe_equipamento":"UNIDADE GUARDA CIVIL METROPOLITANA","tx_classe_equipamento":"UNIDADE GUARDA CIVIL METROPOLITANA","cd_identificador_esfera_administrativa_equipamento":0,"nm_esfera_administrativa_equipamento":"SEM ESFERA","tx_esfera_administrativa_equipamento":"Sem descrição","cd_equipamento":null,"nm_equipamento":"INSPETORIA DO CANIL","tx_endereco_equipamento":"R ANNA PAPINI GUARANHA, 60","nm_bairro_equipamento":"VILA GUILHERME","cd_cep_equipamento":"02049-005","tx_horario_funcionamento":null,"tx_numero_telefone":null,"cd_equipamento_base_origem":null}},{"type":"Feature","id":"equipamento_guarda_civil_metropolitana_v2.150083","geometry":{"type":"Point","coordinates":[343676.898,7395064.7478]},"geometry_name":"ge_ponto","properties":{"cd_identificador":150083,"cd_identificador_tema_equipamento":7,"nm_tema_equipamento":"SEGURANCA","cd_identificador_rede_equipamento":0,"nm_rede_equipamento":"SEM REDE","tx_rede_equipamento":"Sem descrição","cd_identificador_tipo_equipamento":0,"nm_tipo_equipamento":"SEM TIPO","tx_tipo_equipamento":"SEM TIPO","cd_identificador_classe_equipamento":2,"nm_classe_equipamento":"UNIDADE GUARDA CIVIL METROPOLITANA","tx_classe_equipamento":"UNIDADE GUARDA CIVIL METROPOLITANA","cd_identificador_esfera_administrativa_equipamento":0,"nm_esfera_administrativa_equipamento":"SEM ESFERA","tx_esfera_administrativa_equipamento":"Sem descrição","cd_equipamento":null,"nm_equipamento":"INSPETORIA REGIONAL ARICANDUVA / VILA FORMOSA","tx_endereco_equipamento":"PC HAROLDO DALTRO, 441","nm_bairro_equipamento":"VILA NOVA MANCHESTER","cd_cep_equipamento":"03444-090","tx_horario_funcionamento":null,"tx_numero_telefone":null,"cd_equipamento_base_origem":null}},{"type":"Feature","id":"equipamento_guarda_civil_metropolitana_v2.150084","geometry":{"type":"Point","coordinates":[324213.5773,7391686.8437]},"geometry_name":"ge_ponto","properties":{"cd_identificador":150084,"cd_identificador_tema_equipamento":7,"nm_tema_equipamento":"SEGURANCA","cd_identificador_rede_equipamento":0,"nm_rede_equipamento":"SEM REDE","tx_rede_equipamento":"Sem descrição","cd_identificador_tipo_equipamento":0,"nm_tipo_equipamento":"SEM TIPO","tx_tipo_equipamento":"SEM TIPO","cd_identificador_classe_equipamento":2,"nm_classe_equipamento":"UNIDADE GUARDA CIVIL METROPOLITANA","tx_classe_equipamento":"UNIDADE GUARDA CIVIL METROPOLITANA","cd_identificador_esfera_administrativa_equipamento":0,"nm_esfera_administrativa_equipamento":"SEM ESFERA","tx_esfera_administrativa_equipamento":"Sem descrição","cd_equipamento":null,"nm_equipamento":"INSPETORIA REGIONAL BUTANTA","tx_endereco_equipamento":"PC JOAO PISANI, 499","nm_bairro_equipamento":"JARDIM ADHEMAR DE BARROS","cd_cep_equipamento":"05540-110","tx_horario_funcionamento":null,"tx_numero_telefone":null,"cd_equipamento_base_origem":null}},{"type":"Feature","id":"equipamento_guarda_civil_metropolitana_v2.150085","geometry":{"type":"Point","coordinates":[319643.4887,7381600.3707]},"geometry_name":"ge_ponto","properties":{"cd_identificador":150085,"cd_identificador_tema_equipamento":7,"nm_tema_equipamento":"SEGURANCA","cd_identificador_rede_equipamento":0,"nm_rede_equipamento":"SEM REDE","tx_rede_equipamento":"Sem descrição","cd_identificador_tipo_equipamento":0,"nm_tipo_equipamento":"SEM TIPO","tx_tipo_equipamento":"SEM TIPO","cd_identificador_classe_equipamento":2,"nm_classe_equipamento":"UNIDADE GUARDA CIVIL METROPOLITANA","tx_classe_equipamento":"UNIDADE GUARDA CIVIL METROPOLITANA","cd_identificador_esfera_administrativa_equipamento":0,"nm_esfera_administrativa_equipamento":"SEM ESFERA","tx_esfera_administrativa_equipamento":"Sem descrição","cd_equipamento":null,"nm_equipamento":"INSPETORIA REGIONAL CAMPO LIMPO","tx_endereco_equipamento":"R MANOEL JOSE PEREIRA, 300","nm_bairro_equipamento":"CAPAO REDONDO","cd_cep_equipamento":"05859-110","tx_horario_funcionamento":null,"tx_numero_telefone":null,"cd_equipamento_base_origem":null}},{"type":"Feature","id":"equipamento_guarda_civil_metropolitana_v2.150086","geometry":{"type":"Point","coordinates":[325114.0866,7379269.4307]},"geometry_name":"ge_ponto","properties":{"cd_identificador":150086,"cd_identificador_tema_equipamento":7,"nm_tema_equipamento":"SEGURANCA","cd_identificador_rede_equipamento":0,"nm_rede_equipamento":"SEM REDE","tx_rede_equipamento":"Sem descrição","cd_identificador_tipo_equipamento":0,"nm_tipo_equipamento":"SEM TIPO","tx_tipo_equipamento":"SEM TIPO","cd_identificador_classe_equipamento":2,"nm_classe_equipamento":"UNIDADE GUARDA CIVIL METROPOLITANA","tx_classe_equipamento":"UNIDADE GUARDA CIVIL METROPOLITANA","cd_identificador_esfera_administrativa_equipamento":0,"nm_esfera_administrativa_equipamento":"SEM ESFERA","tx_esfera_administrativa_equipamento":"Sem descrição","cd_equipamento":null,"nm_equipamento":"INSPETORIA REGIONAL CAPELA DO SOCORRO","tx_endereco_equipamento":"AV ATLANTICA, 2450","nm_bairro_equipamento":"JARDIM TRES MARIAS","cd_cep_equipamento":"04772-000","tx_horario_funcionamento":null,"tx_numero_telefone":null,"cd_equipamento_base_origem":null}},{"type":"Feature","id":"equipamento_guarda_civil_metropolitana_v2.150087","geometry":{"type":"Point","coordinates":[330086.1534,7399328.127]},"geometry_name":"ge_ponto","properties":{"cd_identificador":150087,"cd_identificador_tema_equipamento":7,"nm_tema_equipamento":"SEGURANCA","cd_identificador_rede_equipamento":0,"nm_rede_equipamento":"SEM REDE","tx_rede_equipamento":"Sem descrição","cd_identificador_tipo_equipamento":0,"nm_tipo_equipamento":"SEM TIPO","tx_tipo_equipamento":"SEM TIPO","cd_identificador_classe_equipamento":2,"nm_classe_equipamento":"UNIDADE GUARDA CIVIL METROPOLITANA","tx_classe_equipamento":"UNIDADE GUARDA CIVIL METROPOLITANA","cd_identificador_esfera_administrativa_equipamento":0,"nm_esfera_administrativa_equipamento":"SEM ESFERA","tx_esfera_administrativa_equipamento":"Sem descrição","cd_equipamento":null,"nm_equipamento":"INSPETORIA REGIONAL CASA VERDE / CACHOEIRINHA","tx_endereco_equipamento":"R XIRO, 266","nm_bairro_equipamento":"JARDIM DAS LARANJEIRAS","cd_cep_equipamento":"02517-030","tx_horario_funcionamento":null,"tx_numero_telefone":null,"cd_equipamento_base_origem":null}},{"type":"Feature","id":"equipamento_guarda_civil_metropolitana_v2.150088","geometry":{"type":"Point","coordinates":[333035.3264,7380231.7587]},"geometry_name":"ge_ponto","properties":{"cd_identificador":150088,"cd_identificador_tema_equipamento":7,"nm_tema_equipamento":"SEGURANCA","cd_identificador_rede_equipamento":0,"nm_rede_equipamento":"SEM REDE","tx_rede_equipamento":"Sem descrição","cd_identificador_tipo_equipamento":0,"nm_tipo_equipamento":"SEM TIPO","tx_tipo_equipamento":"SEM TIPO","cd_identificador_classe_equipamento":2,"nm_classe_equipamento":"UNIDADE GUARDA CIVIL METROPOLITANA","tx_classe_equipamento":"UNIDADE GUARDA CIVIL METROPOLITANA","cd_identificador_esfera_administrativa_equipamento":0,"nm_esfera_administrativa_equipamento":"SEM ESFERA","tx_esfera_administrativa_equipamento":"Sem descrição","cd_equipamento":null,"nm_equipamento":"INSPETORIA REGIONAL CIDADE ADEMAR","tx_endereco_equipamento":"R SEBASTIAO AFONSO, 828","nm_bairro_equipamento":"JARDIM MIRIAM","cd_cep_equipamento":"04417-100","tx_horario_funcionamento":null,"tx_numero_telefone":null,"cd_equipamento_base_origem":null}},{"type":"Feature","id":"equipamento_guarda_civil_metropolitana_v2.150089","geometry":{"type":"Point","coordinates":[356843.2256,7390181.9542]},"geometry_name":"ge_ponto","properties":{"cd_identificador":150089,"cd_identificador_tema_equipamento":7,"nm_tema_equipamento":"SEGURANCA","cd_identificador_rede_equipamento":0,"nm_rede_equipamento":"SEM REDE","tx_rede_equipamento":"Sem descrição","cd_identificador_tipo_equipamento":0,"nm_tipo_equipamento":"SEM TIPO","tx_tipo_equipamento":"SEM TIPO","cd_identificador_classe_equipamento":2,"nm_classe_equipamento":"UNIDADE GUARDA CIVIL METROPOLITANA","tx_classe_equipamento":"UNIDADE GUARDA CIVIL METROPOLITANA","cd_identificador_esfera_administrativa_equipamento":0,"nm_esfera_administrativa_equipamento":"SEM ESFERA","tx_esfera_administrativa_equipamento":"Sem descrição","cd_equipamento":null,"nm_equipamento":"INSPETORIA REGIONAL CIDADE TIRADENTES","tx_endereco_equipamento":"R DOS TEXTEIS, 1331","nm_bairro_equipamento":"CHACARA SANTA ETELVINA","cd_cep_equipamento":"08490-585","tx_horario_funcionamento":null,"tx_numero_telefone":null,"cd_equipamento_base_origem":null}},{"type":"Feature","id":"equipamento_guarda_civil_metropolitana_v2.150090","geometry":{"type":"Point","coordinates":[348612.2283,7398471.4465]},"geometry_name":"ge_ponto","properties":{"cd_identificador":150090,"cd_identificador_tema_equipamento":7,"nm_tema_equipamento":"SEGURANCA","cd_identificador_rede_equipamento":0,"nm_rede_equipamento":"SEM REDE","tx_rede_equipamento":"Sem descrição","cd_identificador_tipo_equipamento":0,"nm_tipo_equipamento":"SEM TIPO","tx_tipo_equipamento":"SEM TIPO","cd_identificador_classe_equipamento":2,"nm_classe_equipamento":"UNIDADE GUARDA CIVIL METROPOLITANA","tx_classe_equipamento":"UNIDADE GUARDA CIVIL METROPOLITANA","cd_identificador_esfera_administrativa_equipamento":0,"nm_esfera_administrativa_equipamento":"SEM ESFERA","tx_esfera_administrativa_equipamento":"Sem descrição","cd_equipamento":null,"nm_equipamento":"INSPETORIA REGIONAL ERMELINO MATARAZZO","tx_endereco_equipamento":"EST DE MOGI DAS CRUZES, 1860","nm_bairro_equipamento":"JARDIM SORAIA","cd_cep_equipamento":"03890-100","tx_horario_funcionamento":null,"tx_numero_telefone":null,"cd_equipamento_base_origem":null}},{"type":"Feature","id":"equipamento_guarda_civil_metropolitana_v2.150091","geometry":{"type":"Point","coordinates":[327496.9889,7403036.407]},"geometry_name":"ge_ponto","properties":{"cd_identificador":150091,"cd_identificador_tema_equipamento":7,"nm_tema_equipamento":"SEGURANCA","cd_identificador_rede_equipamento":0,"nm_rede_equipamento":"SEM REDE","tx_rede_equipamento":"Sem descrição","cd_identificador_tipo_equipamento":0,"nm_tipo_equipamento":"SEM TIPO","tx_tipo_equipamento":"SEM TIPO","cd_identificador_classe_equipamento":2,"nm_classe_equipamento":"UNIDADE GUARDA CIVIL METROPOLITANA","tx_classe_equipamento":"UNIDADE GUARDA CIVIL METROPOLITANA","cd_identificador_esfera_administrativa_equipamento":0,"nm_esfera_administrativa_equipamento":"SEM ESFERA","tx_esfera_administrativa_equipamento":"Sem descrição","cd_equipamento":null,"nm_equipamento":"INSPETORIA REGIONAL FREGUESIA / BRASILANDIA","tx_endereco_equipamento":"R JOAO LUIZ CALHEIROS, 40","nm_bairro_equipamento":"VILA BRASILANDIA","cd_cep_equipamento":"02842-270","tx_horario_funcionamento":null,"tx_numero_telefone":null,"cd_equipamento_base_origem":null}},{"type":"Feature","id":"equipamento_guarda_civil_metropolitana_v2.150092","geometry":{"type":"Point","coordinates":[357047.3187,7393031.1612]},"geometry_name":"ge_ponto","properties":{"cd_identificador":150092,"cd_identificador_tema_equipamento":7,"nm_tema_equipamento":"SEGURANCA","cd_identificador_rede_equipamento":0,"nm_rede_equipamento":"SEM REDE","tx_rede_equipamento":"Sem descrição","cd_identificador_tipo_equipamento":0,"nm_tipo_equipamento":"SEM TIPO","tx_tipo_equipamento":"SEM TIPO","cd_identificador_classe_equipamento":2,"nm_classe_equipamento":"UNIDADE GUARDA CIVIL METROPOLITANA","tx_classe_equipamento":"UNIDADE GUARDA CIVIL METROPOLITANA","cd_identificador_esfera_administrativa_equipamento":0,"nm_esfera_administrativa_equipamento":"SEM ESFERA","tx_esfera_administrativa_equipamento":"Sem descrição","cd_equipamento":null,"nm_equipamento":"INSPETORIA REGIONAL GUAIANASES","tx_endereco_equipamento":"R FERNANDEZ PALERO, 301","nm_bairro_equipamento":"CONJUNTO HABITACIONAL JUSCELINO KUBTISCHEK","cd_cep_equipamento":"08465-120","tx_horario_funcionamento":null,"tx_numero_telefone":null,"cd_equipamento_base_origem":null}},{"type":"Feature","id":"equipamento_guarda_civil_metropolitana_v2.150093","geometry":{"type":"Point","coordinates":[334559.9403,7389484.2808]},"geometry_name":"ge_ponto","properties":{"cd_identificador":150093,"cd_identificador_tema_equipamento":7,"nm_tema_equipamento":"SEGURANCA","cd_identificador_rede_equipamento":0,"nm_rede_equipamento":"SEM REDE","tx_rede_equipamento":"Sem descrição","cd_identificador_tipo_equipamento":0,"nm_tipo_equipamento":"SEM TIPO","tx_tipo_equipamento":"SEM TIPO","cd_identificador_classe_equipamento":2,"nm_classe_equipamento":"UNIDADE GUARDA CIVIL METROPOLITANA","tx_classe_equipamento":"UNIDADE GUARDA CIVIL METROPOLITANA","cd_identificador_esfera_administrativa_equipamento":0,"nm_esfera_administrativa_equipamento":"SEM ESFERA","tx_esfera_administrativa_equipamento":"Sem descrição","cd_equipamento":null,"nm_equipamento":"INSPETORIA REGIONAL IPIRANGA","tx_endereco_equipamento":"R BRENO FERRAZ DO AMARAL, 415","nm_bairro_equipamento":"VILA FIRMIANO PINTO","cd_cep_equipamento":"04124-020","tx_horario_funcionamento":null,"tx_numero_telefone":null,"cd_equipamento_base_origem":null}},{"type":"Feature","id":"equipamento_guarda_civil_metropolitana_v2.150094","geometry":{"type":"Point","coordinates":[355298.8376,7401015.219]},"geometry_name":"ge_ponto","properties":{"cd_identificador":150094,"cd_identificador_tema_equipamento":7,"nm_tema_equipamento":"SEGURANCA","cd_identificador_rede_equipamento":0,"nm_rede_equipamento":"SEM REDE","tx_rede_equipamento":"Sem descrição","cd_identificador_tipo_equipamento":0,"nm_tipo_equipamento":"SEM TIPO","tx_tipo_equipamento":"SEM TIPO","cd_identificador_classe_equipamento":2,"nm_classe_equipamento":"UNIDADE GUARDA CIVIL METROPOLITANA","tx_classe_equipamento":"UNIDADE GUARDA CIVIL METROPOLITANA","cd_identificador_esfera_administrativa_equipamento":0,"nm_esfera_administrativa_equipamento":"SEM ESFERA","tx_esfera_administrativa_equipamento":"Sem descrição","cd_equipamento":null,"nm_equipamento":"INSPETORIA REGIONAL ITAIM PAULISTA","tx_endereco_equipamento":"AV MARECHAL TITO, 3012","nm_bairro_equipamento":"JARDIM SILVA TELES","cd_cep_equipamento":"08160-495","tx_horario_funcionamento":null,"tx_numero_telefone":null,"cd_equipamento_base_origem":null}},{"type":"Feature","id":"equipamento_guarda_civil_metropolitana_v2.150095","geometry":{"type":"Point","coordinates":[353742.1327,7394648.7821]},"geometry_name":"ge_ponto","properties":{"cd_identificador":150095,"cd_identificador_tema_equipamento":7,"nm_tema_equipamento":"SEGURANCA","cd_identificador_rede_equipamento":0,"nm_rede_equipamento":"SEM REDE","tx_rede_equipamento":"Sem descrição","cd_identificador_tipo_equipamento":0,"nm_tipo_equipamento":"SEM TIPO","tx_tipo_equipamento":"SEM TIPO","cd_identificador_classe_equipamento":2,"nm_classe_equipamento":"UNIDADE GUARDA CIVIL METROPOLITANA","tx_classe_equipamento":"UNIDADE GUARDA CIVIL METROPOLITANA","cd_identificador_esfera_administrativa_equipamento":0,"nm_esfera_administrativa_equipamento":"SEM ESFERA","tx_esfera_administrativa_equipamento":"Sem descrição","cd_equipamento":null,"nm_equipamento":"INSPETORIA REGIONAL ITAQUERA","tx_endereco_equipamento":"AV PROFESSOR JOÃO BATISTA CONTI, 773","nm_bairro_equipamento":"CONJ. JOSE BONIFÁCIO","cd_cep_equipamento":"08255-210","tx_horario_funcionamento":null,"tx_numero_telefone":null,"cd_equipamento_base_origem":null}},{"type":"Feature","id":"equipamento_guarda_civil_metropolitana_v2.150096","geometry":{"type":"Point","coordinates":[332915.5223,7384603.8686]},"geometry_name":"ge_ponto","properties":{"cd_identificador":150096,"cd_identificador_tema_equipamento":7,"nm_tema_equipamento":"SEGURANCA","cd_identificador_rede_equipamento":0,"nm_rede_equipamento":"SEM REDE","tx_rede_equipamento":"Sem descrição","cd_identificador_tipo_equipamento":0,"nm_tipo_equipamento":"SEM TIPO","tx_tipo_equipamento":"SEM TIPO","cd_identificador_classe_equipamento":2,"nm_classe_equipamento":"UNIDADE GUARDA CIVIL METROPOLITANA","tx_classe_equipamento":"UNIDADE GUARDA CIVIL METROPOLITANA","cd_identificador_esfera_administrativa_equipamento":0,"nm_esfera_administrativa_equipamento":"SEM ESFERA","tx_esfera_administrativa_equipamento":"Sem descrição","cd_equipamento":null,"nm_equipamento":"INSPETORIA REGIONAL JABAQUARA","tx_endereco_equipamento":"R LUSSANVIRA, 178","nm_bairro_equipamento":"VILA GUARANI","cd_cep_equipamento":"04316-000","tx_horario_funcionamento":null,"tx_numero_telefone":null,"cd_equipamento_base_origem":null}},{"type":"Feature","id":"equipamento_guarda_civil_metropolitana_v2.150097","geometry":{"type":"Point","coordinates":[338078.3452,7404893.9418]},"geometry_name":"ge_ponto","properties":{"cd_identificador":150097,"cd_identificador_tema_equipamento":7,"nm_tema_equipamento":"SEGURANCA","cd_identificador_rede_equipamento":0,"nm_rede_equipamento":"SEM REDE","tx_rede_equipamento":"Sem descrição","cd_identificador_tipo_equipamento":0,"nm_tipo_equipamento":"SEM TIPO","tx_tipo_equipamento":"SEM TIPO","cd_identificador_classe_equipamento":2,"nm_classe_equipamento":"UNIDADE GUARDA CIVIL METROPOLITANA","tx_classe_equipamento":"UNIDADE GUARDA CIVIL METROPOLITANA","cd_identificador_esfera_administrativa_equipamento":0,"nm_esfera_administrativa_equipamento":"SEM ESFERA","tx_esfera_administrativa_equipamento":"Sem descrição","cd_equipamento":null,"nm_equipamento":"INSPETORIA REGIONAL JACANA / TREMEMBE (PROV)","tx_endereco_equipamento":"R PAULO LINCOLN DO VALE PONTIM, 800","nm_bairro_equipamento":"JACANA","cd_cep_equipamento":"02273-011","tx_horario_funcionamento":null,"tx_numero_telefone":null,"cd_equipamento_base_origem":null}},{"type":"Feature","id":"equipamento_guarda_civil_metropolitana_v2.150098","geometry":{"type":"Point","coordinates":[322425.5838,7397522.5278]},"geometry_name":"ge_ponto","properties":{"cd_identificador":150098,"cd_identificador_tema_equipamento":7,"nm_tema_equipamento":"SEGURANCA","cd_identificador_rede_equipamento":0,"nm_rede_equipamento":"SEM REDE","tx_rede_equipamento":"Sem descrição","cd_identificador_tipo_equipamento":0,"nm_tipo_equipamento":"SEM TIPO","tx_tipo_equipamento":"SEM TIPO","cd_identificador_classe_equipamento":2,"nm_classe_equipamento":"UNIDADE GUARDA CIVIL METROPOLITANA","tx_classe_equipamento":"UNIDADE GUARDA CIVIL METROPOLITANA","cd_identificador_esfera_administrativa_equipamento":0,"nm_esfera_administrativa_equipamento":"SEM ESFERA","tx_esfera_administrativa_equipamento":"Sem descrição","cd_equipamento":null,"nm_equipamento":"INSPETORIA REGIONAL LAPA","tx_endereco_equipamento":"R MAJOR PALADINO, 180","nm_bairro_equipamento":"VILA RIBEIRO DE BARROS","cd_cep_equipamento":"05307-000","tx_horario_funcionamento":null,"tx_numero_telefone":null,"cd_equipamento_base_origem":null}},{"type":"Feature","id":"equipamento_guarda_civil_metropolitana_v2.150099","geometry":{"type":"Point","coordinates":[322179.7686,7381684.7049]},"geometry_name":"ge_ponto","properties":{"cd_identificador":150099,"cd_identificador_tema_equipamento":7,"nm_tema_equipamento":"SEGURANCA","cd_identificador_rede_equipamento":0,"nm_rede_equipamento":"SEM REDE","tx_rede_equipamento":"Sem descrição","cd_identificador_tipo_equipamento":0,"nm_tipo_equipamento":"SEM TIPO","tx_tipo_equipamento":"SEM TIPO","cd_identificador_classe_equipamento":2,"nm_classe_equipamento":"UNIDADE GUARDA CIVIL METROPOLITANA","tx_classe_equipamento":"UNIDADE GUARDA CIVIL METROPOLITANA","cd_identificador_esfera_administrativa_equipamento":0,"nm_esfera_administrativa_equipamento":"SEM ESFERA","tx_esfera_administrativa_equipamento":"Sem descrição","cd_equipamento":null,"nm_equipamento":"INSPETORIA REGIONAL M BOI MIRIM","tx_endereco_equipamento":"R NOVA DO TUPAROQUERA, 2220","nm_bairro_equipamento":"JARDIM NOVO SANTO AMARO","cd_cep_equipamento":"05820-200","tx_horario_funcionamento":null,"tx_numero_telefone":null,"cd_equipamento_base_origem":null}},{"type":"Feature","id":"equipamento_guarda_civil_metropolitana_v2.150100","geometry":{"type":"Point","coordinates":[333640.4345,7395159.3591]},"geometry_name":"ge_ponto","properties":{"cd_identificador":150100,"cd_identificador_tema_equipamento":7,"nm_tema_equipamento":"SEGURANCA","cd_identificador_rede_equipamento":0,"nm_rede_equipamento":"SEM REDE","tx_rede_equipamento":"Sem descrição","cd_identificador_tipo_equipamento":0,"nm_tipo_equipamento":"SEM TIPO","tx_tipo_equipamento":"SEM TIPO","cd_identificador_classe_equipamento":2,"nm_classe_equipamento":"UNIDADE GUARDA CIVIL METROPOLITANA","tx_classe_equipamento":"UNIDADE GUARDA CIVIL METROPOLITANA","cd_identificador_esfera_administrativa_equipamento":0,"nm_esfera_administrativa_equipamento":"SEM ESFERA","tx_esfera_administrativa_equipamento":"Sem descrição","cd_equipamento":null,"nm_equipamento":"INSPETORIA REGIONAL MOOCA","tx_endereco_equipamento":"AV DO ESTADO, 3350","nm_bairro_equipamento":"CENTRO HISTORICO","cd_cep_equipamento":"01025-020","tx_horario_funcionamento":null,"tx_numero_telefone":null,"cd_equipamento_base_origem":null}},{"type":"Feature","id":"equipamento_guarda_civil_metropolitana_v2.150101","geometry":{"type":"Point","coordinates":[323178.4299,7365113.973]},"geometry_name":"ge_ponto","properties":{"cd_identificador":150101,"cd_identificador_tema_equipamento":7,"nm_tema_equipamento":"SEGURANCA","cd_identificador_rede_equipamento":0,"nm_rede_equipamento":"SEM REDE","tx_rede_equipamento":"Sem descrição","cd_identificador_tipo_equipamento":0,"nm_tipo_equipamento":"SEM TIPO","tx_tipo_equipamento":"SEM TIPO","cd_identificador_classe_equipamento":2,"nm_classe_equipamento":"UNIDADE GUARDA CIVIL METROPOLITANA","tx_classe_equipamento":"UNIDADE GUARDA CIVIL METROPOLITANA","cd_identificador_esfera_administrativa_equipamento":0,"nm_esfera_administrativa_equipamento":"SEM ESFERA","tx_esfera_administrativa_equipamento":"Sem descrição","cd_equipamento":null,"nm_equipamento":"INSPETORIA REGIONAL PARELHEIROS","tx_endereco_equipamento":"EST ECOTURISTICA DE PARELHEIROS, 5252","nm_bairro_equipamento":"JARDIM DOS ALAMOS","cd_cep_equipamento":"04883-025","tx_horario_funcionamento":null,"tx_numero_telefone":null,"cd_equipamento_base_origem":null}},{"type":"Feature","id":"equipamento_guarda_civil_metropolitana_v2.150102","geometry":{"type":"Point","coordinates":[344236.3017,7396880.9346]},"geometry_name":"ge_ponto","properties":{"cd_identificador":150102,"cd_identificador_tema_equipamento":7,"nm_tema_equipamento":"SEGURANCA","cd_identificador_rede_equipamento":0,"nm_rede_equipamento":"SEM REDE","tx_rede_equipamento":"Sem descrição","cd_identificador_tipo_equipamento":0,"nm_tipo_equipamento":"SEM TIPO","tx_tipo_equipamento":"SEM TIPO","cd_identificador_classe_equipamento":2,"nm_classe_equipamento":"UNIDADE GUARDA CIVIL METROPOLITANA","tx_classe_equipamento":"UNIDADE GUARDA CIVIL METROPOLITANA","cd_identificador_esfera_administrativa_equipamento":0,"nm_esfera_administrativa_equipamento":"SEM ESFERA","tx_esfera_administrativa_equipamento":"Sem descrição","cd_equipamento":null,"nm_equipamento":"INSPETORIA REGIONAL PENHA","tx_endereco_equipamento":"R EVANS, 939","nm_bairro_equipamento":"VILA ESPERANCA","cd_cep_equipamento":"03648-020","tx_horario_funcionamento":null,"tx_numero_telefone":null,"cd_equipamento_base_origem":null}},{"type":"Feature","id":"equipamento_guarda_civil_metropolitana_v2.150103","geometry":{"type":"Point","coordinates":[320549.8571,7409796.4191]},"geometry_name":"ge_ponto","properties":{"cd_identificador":150103,"cd_identificador_tema_equipamento":7,"nm_tema_equipamento":"SEGURANCA","cd_identificador_rede_equipamento":0,"nm_rede_equipamento":"SEM REDE","tx_rede_equipamento":"Sem descrição","cd_identificador_tipo_equipamento":0,"nm_tipo_equipamento":"SEM TIPO","tx_tipo_equipamento":"SEM TIPO","cd_identificador_classe_equipamento":2,"nm_classe_equipamento":"UNIDADE GUARDA CIVIL METROPOLITANA","tx_classe_equipamento":"UNIDADE GUARDA CIVIL METROPOLITANA","cd_identificador_esfera_administrativa_equipamento":0,"nm_esfera_administrativa_equipamento":"SEM ESFERA","tx_esfera_administrativa_equipamento":"Sem descrição","cd_equipamento":null,"nm_equipamento":"INSPETORIA REGIONAL PERUS","tx_endereco_equipamento":"R JULIO CESAR LEAL, 221","nm_bairro_equipamento":"VILA PERUS","cd_cep_equipamento":"05208-000","tx_horario_funcionamento":null,"tx_numero_telefone":null,"cd_equipamento_base_origem":null}},{"type":"Feature","id":"equipamento_guarda_civil_metropolitana_v2.150104","geometry":{"type":"Point","coordinates":[326161.2207,7393171.4999]},"geometry_name":"ge_ponto","properties":{"cd_identificador":150104,"cd_identificador_tema_equipamento":7,"nm_tema_equipamento":"SEGURANCA","cd_identificador_rede_equipamento":0,"nm_rede_equipamento":"SEM REDE","tx_rede_equipamento":"Sem descrição","cd_identificador_tipo_equipamento":0,"nm_tipo_equipamento":"SEM TIPO","tx_tipo_equipamento":"SEM TIPO","cd_identificador_classe_equipamento":2,"nm_classe_equipamento":"UNIDADE GUARDA CIVIL METROPOLITANA","tx_classe_equipamento":"UNIDADE GUARDA CIVIL METROPOLITANA","cd_identificador_esfera_administrativa_equipamento":0,"nm_esfera_administrativa_equipamento":"SEM ESFERA","tx_esfera_administrativa_equipamento":"Sem descrição","cd_equipamento":null,"nm_equipamento":"INSPETORIA REGIONAL PINHEIROS","tx_endereco_equipamento":"AV PROFESSOR FREDERICO HERMAN JUNIOR, 656","nm_bairro_equipamento":"ALTO DE PINHEIROS","cd_cep_equipamento":"05459-010","tx_horario_funcionamento":null,"tx_numero_telefone":null,"cd_equipamento_base_origem":null}},{"type":"Feature","id":"equipamento_guarda_civil_metropolitana_v2.150105","geometry":{"type":"Point","coordinates":[323620.8417,7401336.1724]},"geometry_name":"ge_ponto","properties":{"cd_identificador":150105,"cd_identificador_tema_equipamento":7,"nm_tema_equipamento":"SEGURANCA","cd_identificador_rede_equipamento":0,"nm_rede_equipamento":"SEM REDE","tx_rede_equipamento":"Sem descrição","cd_identificador_tipo_equipamento":0,"nm_tipo_equipamento":"SEM TIPO","tx_tipo_equipamento":"SEM TIPO","cd_identificador_classe_equipamento":2,"nm_classe_equipamento":"UNIDADE GUARDA CIVIL METROPOLITANA","tx_classe_equipamento":"UNIDADE GUARDA CIVIL METROPOLITANA","cd_identificador_esfera_administrativa_equipamento":0,"nm_esfera_administrativa_equipamento":"SEM ESFERA","tx_esfera_administrativa_equipamento":"Sem descrição","cd_equipamento":null,"nm_equipamento":"INSPETORIA REGIONAL PIRITUBA / JARAGUA","tx_endereco_equipamento":"R DOUTOR CARLOS AFRANIO DA CUNHA MATTOS, 67","nm_bairro_equipamento":"CHACARA INGLESA","cd_cep_equipamento":"05140-040","tx_horario_funcionamento":null,"tx_numero_telefone":null,"cd_equipamento_base_origem":null}},{"type":"Feature","id":"equipamento_guarda_civil_metropolitana_v2.150106","geometry":{"type":"Point","coordinates":[332758.8321,7399322.8713]},"geometry_name":"ge_ponto","properties":{"cd_identificador":150106,"cd_identificador_tema_equipamento":7,"nm_tema_equipamento":"SEGURANCA","cd_identificador_rede_equipamento":0,"nm_rede_equipamento":"SEM REDE","tx_rede_equipamento":"Sem descrição","cd_identificador_tipo_equipamento":0,"nm_tipo_equipamento":"SEM TIPO","tx_tipo_equipamento":"SEM TIPO","cd_identificador_classe_equipamento":2,"nm_classe_equipamento":"UNIDADE GUARDA CIVIL METROPOLITANA","tx_classe_equipamento":"UNIDADE GUARDA CIVIL METROPOLITANA","cd_identificador_esfera_administrativa_equipamento":0,"nm_esfera_administrativa_equipamento":"SEM ESFERA","tx_esfera_administrativa_equipamento":"Sem descrição","cd_equipamento":null,"nm_equipamento":"INSPETORIA REGIONAL SANTANA / TUCURUVI","tx_endereco_equipamento":"PC HEROIS DA FORCA EXPEDICIONARIA BRASILEIRA, S/N","nm_bairro_equipamento":"SANTANA","cd_cep_equipamento":"02022-000","tx_horario_funcionamento":null,"tx_numero_telefone":null,"cd_equipamento_base_origem":null}},{"type":"Feature","id":"equipamento_guarda_civil_metropolitana_v2.150107","geometry":{"type":"Point","coordinates":[326636.4128,7382951.2463]},"geometry_name":"ge_ponto","properties":{"cd_identificador":150107,"cd_identificador_tema_equipamento":7,"nm_tema_equipamento":"SEGURANCA","cd_identificador_rede_equipamento":0,"nm_rede_equipamento":"SEM REDE","tx_rede_equipamento":"Sem descrição","cd_identificador_tipo_equipamento":0,"nm_tipo_equipamento":"SEM TIPO","tx_tipo_equipamento":"SEM TIPO","cd_identificador_classe_equipamento":2,"nm_classe_equipamento":"UNIDADE GUARDA CIVIL METROPOLITANA","tx_classe_equipamento":"UNIDADE GUARDA CIVIL METROPOLITANA","cd_identificador_esfera_administrativa_equipamento":0,"nm_esfera_administrativa_equipamento":"SEM ESFERA","tx_esfera_administrativa_equipamento":"Sem descrição","cd_equipamento":null,"nm_equipamento":"INSPETORIA REGIONAL SANTO AMARO","tx_endereco_equipamento":"R DARWIN, 221","nm_bairro_equipamento":"JARDIM SANTO AMARO","cd_cep_equipamento":"04741-010","tx_horario_funcionamento":null,"tx_numero_telefone":null,"cd_equipamento_base_origem":null}},{"type":"Feature","id":"equipamento_guarda_civil_metropolitana_v2.150108","geometry":{"type":"Point","coordinates":[353482.4961,7389676.9472]},"geometry_name":"ge_ponto","properties":{"cd_identificador":150108,"cd_identificador_tema_equipamento":7,"nm_tema_equipamento":"SEGURANCA","cd_identificador_rede_equipamento":0,"nm_rede_equipamento":"SEM REDE","tx_rede_equipamento":"Sem descrição","cd_identificador_tipo_equipamento":0,"nm_tipo_equipamento":"SEM TIPO","tx_tipo_equipamento":"SEM TIPO","cd_identificador_classe_equipamento":2,"nm_classe_equipamento":"UNIDADE GUARDA CIVIL METROPOLITANA","tx_classe_equipamento":"UNIDADE GUARDA CIVIL METROPOLITANA","cd_identificador_esfera_administrativa_equipamento":0,"nm_esfera_administrativa_equipamento":"SEM ESFERA","tx_esfera_administrativa_equipamento":"Sem descrição","cd_equipamento":null,"nm_equipamento":"INSPETORIA REGIONAL SAO MATEUS","tx_endereco_equipamento":"PC TANQUE DO ZUNEGA, 31","nm_bairro_equipamento":"JARDIM ROSELI","cd_cep_equipamento":"08380-042","tx_horario_funcionamento":null,"tx_numero_telefone":null,"cd_equipamento_base_origem":null}},{"type":"Feature","id":"equipamento_guarda_civil_metropolitana_v2.150109","geometry":{"type":"Point","coordinates":[348607.5646,7398498.6375]},"geometry_name":"ge_ponto","properties":{"cd_identificador":150109,"cd_identificador_tema_equipamento":7,"nm_tema_equipamento":"SEGURANCA","cd_identificador_rede_equipamento":0,"nm_rede_equipamento":"SEM REDE","tx_rede_equipamento":"Sem descrição","cd_identificador_tipo_equipamento":0,"nm_tipo_equipamento":"SEM TIPO","tx_tipo_equipamento":"SEM TIPO","cd_identificador_classe_equipamento":2,"nm_classe_equipamento":"UNIDADE GUARDA CIVIL METROPOLITANA","tx_classe_equipamento":"UNIDADE GUARDA CIVIL METROPOLITANA","cd_identificador_esfera_administrativa_equipamento":0,"nm_esfera_administrativa_equipamento":"SEM ESFERA","tx_esfera_administrativa_equipamento":"Sem descrição","cd_equipamento":null,"nm_equipamento":"INSPETORIA REGIONAL SAO MIGUEL PAULISTA","tx_endereco_equipamento":"EST DE MOGI DAS CRUZES, 1860","nm_bairro_equipamento":"JARDIM SAO SEBASTIAO","cd_cep_equipamento":"03890-100","tx_horario_funcionamento":null,"tx_numero_telefone":null,"cd_equipamento_base_origem":null}},{"type":"Feature","id":"equipamento_guarda_civil_metropolitana_v2.150110","geometry":{"type":"Point","coordinates":[345636.3396,7388111.7848]},"geometry_name":"ge_ponto","properties":{"cd_identificador":150110,"cd_identificador_tema_equipamento":7,"nm_tema_equipamento":"SEGURANCA","cd_identificador_rede_equipamento":0,"nm_rede_equipamento":"SEM REDE","tx_rede_equipamento":"Sem descrição","cd_identificador_tipo_equipamento":0,"nm_tipo_equipamento":"SEM TIPO","tx_tipo_equipamento":"SEM TIPO","cd_identificador_classe_equipamento":2,"nm_classe_equipamento":"UNIDADE GUARDA CIVIL METROPOLITANA","tx_classe_equipamento":"UNIDADE GUARDA CIVIL METROPOLITANA","cd_identificador_esfera_administrativa_equipamento":0,"nm_esfera_administrativa_equipamento":"SEM ESFERA","tx_esfera_administrativa_equipamento":"Sem descrição","cd_equipamento":null,"nm_equipamento":"INSPETORIA REGIONAL SAPOPEMBA","tx_endereco_equipamento":"R IAMACARU, 131","nm_bairro_equipamento":"PARQUE SANTA MADALENA","cd_cep_equipamento":"03982-060","tx_horario_funcionamento":null,"tx_numero_telefone":null,"cd_equipamento_base_origem":null}},{"type":"Feature","id":"equipamento_guarda_civil_metropolitana_v2.150111","geometry":{"type":"Point","coordinates":[334060.403,7396194.3337]},"geometry_name":"ge_ponto","properties":{"cd_identificador":150111,"cd_identificador_tema_equipamento":7,"nm_tema_equipamento":"SEGURANCA","cd_identificador_rede_equipamento":0,"nm_rede_equipamento":"SEM REDE","tx_rede_equipamento":"Sem descrição","cd_identificador_tipo_equipamento":0,"nm_tipo_equipamento":"SEM TIPO","tx_tipo_equipamento":"SEM TIPO","cd_identificador_classe_equipamento":2,"nm_classe_equipamento":"UNIDADE GUARDA CIVIL METROPOLITANA","tx_classe_equipamento":"UNIDADE GUARDA CIVIL METROPOLITANA","cd_identificador_esfera_administrativa_equipamento":0,"nm_esfera_administrativa_equipamento":"SEM ESFERA","tx_esfera_administrativa_equipamento":"Sem descrição","cd_equipamento":null,"nm_equipamento":"INSPETORIA REGIONAL SE","tx_endereco_equipamento":"AV DO ESTADO, 680","nm_bairro_equipamento":"BOM RETIRO","cd_cep_equipamento":"01108-000","tx_horario_funcionamento":null,"tx_numero_telefone":null,"cd_equipamento_base_origem":null}},{"type":"Feature","id":"equipamento_guarda_civil_metropolitana_v2.150112","geometry":{"type":"Point","coordinates":[334869.1889,7398729.7617]},"geometry_name":"ge_ponto","properties":{"cd_identificador":150112,"cd_identificador_tema_equipamento":7,"nm_tema_equipamento":"SEGURANCA","cd_identificador_rede_equipamento":0,"nm_rede_equipamento":"SEM REDE","tx_rede_equipamento":"Sem descrição","cd_identificador_tipo_equipamento":0,"nm_tipo_equipamento":"SEM TIPO","tx_tipo_equipamento":"SEM TIPO","cd_identificador_classe_equipamento":2,"nm_classe_equipamento":"UNIDADE GUARDA CIVIL METROPOLITANA","tx_classe_equipamento":"UNIDADE GUARDA CIVIL METROPOLITANA","cd_identificador_esfera_administrativa_equipamento":0,"nm_esfera_administrativa_equipamento":"SEM ESFERA","tx_esfera_administrativa_equipamento":"Sem descrição","cd_equipamento":null,"nm_equipamento":"INSPETORIA REGIONAL VILA MARIA / VILA GUILHERME","tx_endereco_equipamento":"R GCM ADRIANO DE SOUZA BARBOSA, 422","nm_bairro_equipamento":"VILA GUILHERME","cd_cep_equipamento":"02049-015","tx_horario_funcionamento":null,"tx_numero_telefone":null,"cd_equipamento_base_origem":null}},{"type":"Feature","id":"equipamento_guarda_civil_metropolitana_v2.150113","geometry":{"type":"Point","coordinates":[332118.4811,7389861.5394]},"geometry_name":"ge_ponto","properties":{"cd_identificador":150113,"cd_identificador_tema_equipamento":7,"nm_tema_equipamento":"SEGURANCA","cd_identificador_rede_equipamento":0,"nm_rede_equipamento":"SEM REDE","tx_rede_equipamento":"Sem descrição","cd_identificador_tipo_equipamento":0,"nm_tipo_equipamento":"SEM TIPO","tx_tipo_equipamento":"SEM TIPO","cd_identificador_classe_equipamento":2,"nm_classe_equipamento":"UNIDADE GUARDA CIVIL METROPOLITANA","tx_classe_equipamento":"UNIDADE GUARDA CIVIL METROPOLITANA","cd_identificador_esfera_administrativa_equipamento":0,"nm_esfera_administrativa_equipamento":"SEM ESFERA","tx_esfera_administrativa_equipamento":"Sem descrição","cd_equipamento":null,"nm_equipamento":"INSPETORIA REGIONAL VILA MARIANA","tx_endereco_equipamento":"R CAPITAO MACEDO, 553","nm_bairro_equipamento":"VILA CLEMENTINO","cd_cep_equipamento":"04021-020","tx_horario_funcionamento":null,"tx_numero_telefone":null,"cd_equipamento_base_origem":null}},{"type":"Feature","id":"equipamento_guarda_civil_metropolitana_v2.150114","geometry":{"type":"Point","coordinates":[341578.5482,7390941.4766]},"geometry_name":"ge_ponto","properties":{"cd_identificador":150114,"cd_identificador_tema_equipamento":7,"nm_tema_equipamento":"SEGURANCA","cd_identificador_rede_equipamento":0,"nm_rede_equipamento":"SEM REDE","tx_rede_equipamento":"Sem descrição","cd_identificador_tipo_equipamento":0,"nm_tipo_equipamento":"SEM TIPO","tx_tipo_equipamento":"SEM TIPO","cd_identificador_classe_equipamento":2,"nm_classe_equipamento":"UNIDADE GUARDA CIVIL METROPOLITANA","tx_classe_equipamento":"UNIDADE GUARDA CIVIL METROPOLITANA","cd_identificador_esfera_administrativa_equipamento":0,"nm_esfera_administrativa_equipamento":"SEM ESFERA","tx_esfera_administrativa_equipamento":"Sem descrição","cd_equipamento":null,"nm_equipamento":"INSPETORIA REGIONAL VILA PRUDENTE","tx_endereco_equipamento":"R DOMINGOS DA SILVA BUENO, 61","nm_bairro_equipamento":"JARDIM TERESA","cd_cep_equipamento":"03261-010","tx_horario_funcionamento":null,"tx_numero_telefone":null,"cd_equipamento_base_origem":null}}],"totalFeatures":48,"numberMatched":48,"numberReturned":48,"timeStamp":"2026-05-16T19:32:04.659Z","crs":{"type":"name","properties":{"name":"urn:ogc:def:crs:EPSG::31983"}}}