{"type":"FeatureCollection","features":[{"type":"Feature","id":"junta_servico_militar.1","geometry":{"type":"Point","coordinates":[331164.7967,7394605.4376]},"geometry_name":"ge_ponto","properties":{"cd_identificador_junta_servico_militar":1,"nm_unidade_junta_servico_militar":"COORDENACAO DAS JUNTAS DO SERVICO MILITAR","tx_endereco":"R. DA CONSOLACAO,1379","tx_complemento":"CONSOLACAO","tx_cep":"01301-100","dt_atualizacao":"2026-01-22Z"}},{"type":"Feature","id":"junta_servico_militar.2","geometry":{"type":"Point","coordinates":[322633.3225,7390293.496]},"geometry_name":"ge_ponto","properties":{"cd_identificador_junta_servico_militar":2,"nm_unidade_junta_servico_militar":"JUNTA DO SERVICO MILITAR - BUTANTA","tx_endereco":"R. DOUTOR ULPIANO DA COSTA MANSO,201","tx_complemento":"JARDIM PERI PERI","tx_cep":"05538-000","dt_atualizacao":"2026-01-22Z"}},{"type":"Feature","id":"junta_servico_militar.3","geometry":{"type":"Point","coordinates":[322942.7155,7384280.6102]},"geometry_name":"ge_ponto","properties":{"cd_identificador_junta_servico_militar":3,"nm_unidade_junta_servico_militar":"JUNTA DO SERVICO MILITAR - CAMPO LIMPO","tx_endereco":"AV. GIOVANNI GRONCHI,7143","tx_complemento":"VILA ANDRADE","tx_cep":"05724-005","dt_atualizacao":"2026-01-22Z"}},{"type":"Feature","id":"junta_servico_militar.4","geometry":{"type":"Point","coordinates":[326519.0685,7375710.2523]},"geometry_name":"ge_ponto","properties":{"cd_identificador_junta_servico_militar":4,"nm_unidade_junta_servico_militar":"JUNTA DO SERVICO MILITAR - CAPELA DO SOCORRO","tx_endereco":"R. CASSIANO DOS SANTOS,499","tx_complemento":"RIO BONITO","tx_cep":"04827-110","dt_atualizacao":"2026-01-22Z"}},{"type":"Feature","id":"junta_servico_militar.5","geometry":{"type":"Point","coordinates":[329978.0199,7402753.7296]},"geometry_name":"ge_ponto","properties":{"cd_identificador_junta_servico_militar":5,"nm_unidade_junta_servico_militar":"JUNTA DO SERVICO MILITAR - FREGUESIA DO O","tx_endereco":"AV. JOAO MARCELINO BRANCO,95","tx_complemento":"VILA DOS ANDRADES","tx_cep":"02610-000","dt_atualizacao":"2026-01-22Z"}},{"type":"Feature","id":"junta_servico_militar.6","geometry":{"type":"Point","coordinates":[334555.4767,7389508.8528]},"geometry_name":"ge_ponto","properties":{"cd_identificador_junta_servico_militar":6,"nm_unidade_junta_servico_militar":"JUNTA DO SERVICO MILITAR - IPIRANGA","tx_endereco":"R. BRENO FERRAZ DO AMARAL,425","tx_complemento":"VILA FIRMIANO PINTO","tx_cep":"04124-020","dt_atualizacao":"2026-01-22Z"}},{"type":"Feature","id":"junta_servico_militar.7","geometry":{"type":"Point","coordinates":[350545.7843,7394728.3737]},"geometry_name":"ge_ponto","properties":{"cd_identificador_junta_servico_militar":7,"nm_unidade_junta_servico_militar":"JUNTA DO SERVICO MILITAR - ITAQUERA","tx_endereco":"AV. ITAQUERA,6735","tx_complemento":"CIDADE LIDER","tx_cep":"08285-065","dt_atualizacao":"2026-01-22Z"}},{"type":"Feature","id":"junta_servico_militar.8","geometry":{"type":"Point","coordinates":[338401.3384,7403782.1609]},"geometry_name":"ge_ponto","properties":{"cd_identificador_junta_servico_militar":8,"nm_unidade_junta_servico_militar":"JUNTA DO SERVICO MILITAR - JACANA - TREMEMBE","tx_endereco":"AV. LUIS STAMATIS,300","tx_complemento":"ENTRADA LATERALVILA CONSTANCA","tx_cep":"02260-000","dt_atualizacao":"2026-01-22Z"}},{"type":"Feature","id":"junta_servico_militar.9","geometry":{"type":"Point","coordinates":[326872.3472,7397644.961]},"geometry_name":"ge_ponto","properties":{"cd_identificador_junta_servico_militar":9,"nm_unidade_junta_servico_militar":"JUNTA DO SERVICO MILITAR - LAPA","tx_endereco":"R. GUAICURUS,1000","tx_complemento":"AGUA BRANCA","tx_cep":"05033-002","dt_atualizacao":"2026-01-22Z"}},{"type":"Feature","id":"junta_servico_militar.10","geometry":{"type":"Point","coordinates":[323638.5593,7381357.1102]},"geometry_name":"ge_ponto","properties":{"cd_identificador_junta_servico_militar":10,"nm_unidade_junta_servico_militar":"JUNTA DO SERVICO MILITAR - M'BOI MIRIM","tx_endereco":"AV. GUARAPIRANGA,1695","tx_complemento":"PARQUE ALVES DE LIMA","tx_cep":"04902-015","dt_atualizacao":"2026-01-22Z"}},{"type":"Feature","id":"junta_servico_militar.11","geometry":{"type":"Point","coordinates":[336311.7694,7394492.6999]},"geometry_name":"ge_ponto","properties":{"cd_identificador_junta_servico_militar":11,"nm_unidade_junta_servico_militar":"JUNTA DO SERVICO MILITAR - MOOCA","tx_endereco":"R. HIPODROMO,1552","tx_complemento":"MOOCA","tx_cep":"03162-020","dt_atualizacao":"2026-01-22Z"}},{"type":"Feature","id":"junta_servico_militar.12","geometry":{"type":"Point","coordinates":[344705.3231,7398265.3932]},"geometry_name":"ge_ponto","properties":{"cd_identificador_junta_servico_militar":12,"nm_unidade_junta_servico_militar":"JUNTA DO SERVICO MILITAR - PENHA","tx_endereco":"R. CANDAPUI,492","tx_complemento":"VILA MARIETA","tx_cep":"03621-000","dt_atualizacao":"2026-01-22Z"}},{"type":"Feature","id":"junta_servico_militar.13","geometry":{"type":"Point","coordinates":[325132.2054,7400513.322]},"geometry_name":"ge_ponto","properties":{"cd_identificador_junta_servico_militar":13,"nm_unidade_junta_servico_militar":"JUNTA DO SERVICO MILITAR - PIRITUBA","tx_endereco":"AV. PAULA FERREIRA,1708","tx_complemento":"PIRITUBA","tx_cep":"02916-000","dt_atualizacao":"2026-01-22Z"}},{"type":"Feature","id":"junta_servico_militar.14","geometry":{"type":"Point","coordinates":[333766.364,7399655.4883]},"geometry_name":"ge_ponto","properties":{"cd_identificador_junta_servico_militar":14,"nm_unidade_junta_servico_militar":"JUNTA DO SERVICO MILITAR - SANTANA","tx_endereco":"PC. HEROIS DA FORCA EXPEDICIONARIA BRASILEIRA,S/N","tx_complemento":"SANTANA","tx_cep":"02022-000","dt_atualizacao":"2026-01-22Z"}},{"type":"Feature","id":"junta_servico_militar.15","geometry":{"type":"Point","coordinates":[325900.6407,7383337.0457]},"geometry_name":"ge_ponto","properties":{"cd_identificador_junta_servico_militar":15,"nm_unidade_junta_servico_militar":"JUNTA DO SERVICO MILITAR - SANTO AMARO","tx_endereco":"PC. FLORIANO PEIXOTO,54","tx_complemento":"SANTO AMARO","tx_cep":"04751-030","dt_atualizacao":"2026-01-22Z"}},{"type":"Feature","id":"junta_servico_militar.16","geometry":{"type":"Point","coordinates":[350066.3891,7389316.5332]},"geometry_name":"ge_ponto","properties":{"cd_identificador_junta_servico_militar":16,"nm_unidade_junta_servico_militar":"JUNTA DO SERVICO MILITAR - SAO MATEUS","tx_endereco":"AV. RAGUEB CHOHFI,1400","tx_complemento":"JARDIM TRES MARIAS","tx_cep":"08375-000","dt_atualizacao":"2026-01-22Z"}},{"type":"Feature","id":"junta_servico_militar.17","geometry":{"type":"Point","coordinates":[351818.6457,7400333.7047]},"geometry_name":"ge_ponto","properties":{"cd_identificador_junta_servico_militar":17,"nm_unidade_junta_servico_militar":"JUNTA DO SERVICO MILITAR - SAO MIGUEL PAULISTA","tx_endereco":"R. DONA ANA FLORA PINHEIRO DE SOUSA,76","tx_complemento":"VILA JACUI","tx_cep":"08060-150","dt_atualizacao":"2026-01-22Z"}},{"type":"Feature","id":"junta_servico_militar.18","geometry":{"type":"Point","coordinates":[331164.7967,7394605.4376]},"geometry_name":"ge_ponto","properties":{"cd_identificador_junta_servico_militar":18,"nm_unidade_junta_servico_militar":"JUNTA DO SERVICO MILITAR - SE","tx_endereco":"R. DA CONSOLACAO,1379","tx_complemento":"CONSOLACAO","tx_cep":"01301-100","dt_atualizacao":"2026-01-22Z"}},{"type":"Feature","id":"junta_servico_militar.19","geometry":{"type":"Point","coordinates":[346483.9226,7392757.4854]},"geometry_name":"ge_ponto","properties":{"cd_identificador_junta_servico_militar":19,"nm_unidade_junta_servico_militar":"JUNTA DO SERVICO MILITAR - TATUAPE","tx_endereco":"AV. ARICANDUVA,5777","tx_complemento":"VILA ARICANDUVA","tx_cep":"03527-000","dt_atualizacao":"2026-01-22Z"}},{"type":"Feature","id":"junta_servico_militar.20","geometry":{"type":"Point","coordinates":[336606.3346,7399352.428]},"geometry_name":"ge_ponto","properties":{"cd_identificador_junta_servico_militar":20,"nm_unidade_junta_servico_militar":"JUNTA DO SERVICO MILITAR - VILA MARIA","tx_endereco":"R. CASSIO DE ALMEIDA,85","tx_complemento":"VILA GUILHERME","tx_cep":"02067-060","dt_atualizacao":"2026-01-22Z"}},{"type":"Feature","id":"junta_servico_militar.21","geometry":{"type":"Point","coordinates":[331682.1314,7389286.1235]},"geometry_name":"ge_ponto","properties":{"cd_identificador_junta_servico_militar":21,"nm_unidade_junta_servico_militar":"JUNTA DO SERVICO MILITAR - VILA MARIANA","tx_endereco":"R. JOSE DE MAGALHAES,500","tx_complemento":"VILA CLEMENTINO","tx_cep":"04026-090","dt_atualizacao":"2026-01-22Z"}},{"type":"Feature","id":"junta_servico_militar.22","geometry":{"type":"Point","coordinates":[340679.0401,7391109.6293]},"geometry_name":"ge_ponto","properties":{"cd_identificador_junta_servico_militar":22,"nm_unidade_junta_servico_militar":"JUNTA DO SERVICO MILITAR - VILA PRUDENTE","tx_endereco":"AV. DO ORATORIO,172","tx_complemento":"VILA INDEPENDENCIA","tx_cep":"03220-000","dt_atualizacao":"2026-01-22Z"}},{"type":"Feature","id":"junta_servico_militar.23","geometry":{"type":"Point","coordinates":[355543.7319,7391169.4176]},"geometry_name":"ge_ponto","properties":{"cd_identificador_junta_servico_militar":23,"nm_unidade_junta_servico_militar":"JUNTA DO SERVICO MILITAR - CIDADE TIRADENTES","tx_endereco":"EST. IGUATEMI,7001","tx_complemento":"JARDIM PEDRA BRANCA","tx_cep":"08490-500","dt_atualizacao":"2026-01-22Z"}}],"totalFeatures":23,"numberMatched":23,"numberReturned":23,"timeStamp":"2026-05-16T19:42:46.746Z","crs":{"type":"name","properties":{"name":"urn:ogc:def:crs:EPSG::31983"}}}