{"type":"FeatureCollection","features":[{"type":"Feature","id":"equipamento_policia_civil_v2.150115","geometry":{"type":"Point","coordinates":[333186.7899,7393869.4547]},"geometry_name":"ge_ponto","properties":{"cd_identificador":150115,"cd_identificador_tema_equipamento":7,"nm_tema_equipamento":"SEGURANCA","cd_identificador_rede_equipamento":0,"nm_rede_equipamento":"SEM REDE","tx_rede_equipamento":"Sem descrição","cd_identificador_tipo_equipamento":0,"nm_tipo_equipamento":"SEM TIPO","tx_tipo_equipamento":"SEM TIPO","cd_identificador_classe_equipamento":4,"nm_classe_equipamento":"POLICIA CIVIL","tx_classe_equipamento":"POLICIA CIVIL","cd_identificador_esfera_administrativa_equipamento":0,"nm_esfera_administrativa_equipamento":"SEM ESFERA","tx_esfera_administrativa_equipamento":"Sem descrição","cd_equipamento":null,"nm_equipamento":"1° DP - Liberdade","tx_endereco_equipamento":"RUA DA GLÓRIA, 410","nm_bairro_equipamento":null,"cd_cep_equipamento":null,"tx_horario_funcionamento":null,"tx_numero_telefone":null,"cd_equipamento_base_origem":null}},{"type":"Feature","id":"equipamento_policia_civil_v2.150116","geometry":{"type":"Point","coordinates":[332135.0642,7397613.4285]},"geometry_name":"ge_ponto","properties":{"cd_identificador":150116,"cd_identificador_tema_equipamento":7,"nm_tema_equipamento":"SEGURANCA","cd_identificador_rede_equipamento":0,"nm_rede_equipamento":"SEM REDE","tx_rede_equipamento":"Sem descrição","cd_identificador_tipo_equipamento":0,"nm_tipo_equipamento":"SEM TIPO","tx_tipo_equipamento":"SEM TIPO","cd_identificador_classe_equipamento":4,"nm_classe_equipamento":"POLICIA CIVIL","tx_classe_equipamento":"POLICIA CIVIL","cd_identificador_esfera_administrativa_equipamento":0,"nm_esfera_administrativa_equipamento":"SEM ESFERA","tx_esfera_administrativa_equipamento":"Sem descrição","cd_equipamento":null,"nm_equipamento":"2° DP - Bom Retiro","tx_endereco_equipamento":"RUA JARAGUÁ, 383","nm_bairro_equipamento":null,"cd_cep_equipamento":null,"tx_horario_funcionamento":null,"tx_numero_telefone":null,"cd_equipamento_base_origem":null}},{"type":"Feature","id":"equipamento_policia_civil_v2.150117","geometry":{"type":"Point","coordinates":[332617.9059,7395818.5556]},"geometry_name":"ge_ponto","properties":{"cd_identificador":150117,"cd_identificador_tema_equipamento":7,"nm_tema_equipamento":"SEGURANCA","cd_identificador_rede_equipamento":0,"nm_rede_equipamento":"SEM REDE","tx_rede_equipamento":"Sem descrição","cd_identificador_tipo_equipamento":0,"nm_tipo_equipamento":"SEM TIPO","tx_tipo_equipamento":"SEM TIPO","cd_identificador_classe_equipamento":4,"nm_classe_equipamento":"POLICIA CIVIL","tx_classe_equipamento":"POLICIA CIVIL","cd_identificador_esfera_administrativa_equipamento":0,"nm_esfera_administrativa_equipamento":"SEM ESFERA","tx_esfera_administrativa_equipamento":"Sem descrição","cd_equipamento":null,"nm_equipamento":"3° DP - Campos Elíseos","tx_endereco_equipamento":"RUA AURORA, 322","nm_bairro_equipamento":null,"cd_cep_equipamento":null,"tx_horario_funcionamento":null,"tx_numero_telefone":null,"cd_equipamento_base_origem":null}},{"type":"Feature","id":"equipamento_policia_civil_v2.150118","geometry":{"type":"Point","coordinates":[331575.6535,7394551.7429]},"geometry_name":"ge_ponto","properties":{"cd_identificador":150118,"cd_identificador_tema_equipamento":7,"nm_tema_equipamento":"SEGURANCA","cd_identificador_rede_equipamento":0,"nm_rede_equipamento":"SEM REDE","tx_rede_equipamento":"Sem descrição","cd_identificador_tipo_equipamento":0,"nm_tipo_equipamento":"SEM TIPO","tx_tipo_equipamento":"SEM TIPO","cd_identificador_classe_equipamento":4,"nm_classe_equipamento":"POLICIA CIVIL","tx_classe_equipamento":"POLICIA CIVIL","cd_identificador_esfera_administrativa_equipamento":0,"nm_esfera_administrativa_equipamento":"SEM ESFERA","tx_esfera_administrativa_equipamento":"Sem descrição","cd_equipamento":null,"nm_equipamento":"4° DP - Consolação","tx_endereco_equipamento":"RUA MQ. DE PARANAGUÁ, 246","nm_bairro_equipamento":null,"cd_cep_equipamento":null,"tx_horario_funcionamento":null,"tx_numero_telefone":null,"cd_equipamento_base_origem":null}},{"type":"Feature","id":"equipamento_policia_civil_v2.150119","geometry":{"type":"Point","coordinates":[332812.6426,7392908.3651]},"geometry_name":"ge_ponto","properties":{"cd_identificador":150119,"cd_identificador_tema_equipamento":7,"nm_tema_equipamento":"SEGURANCA","cd_identificador_rede_equipamento":0,"nm_rede_equipamento":"SEM REDE","tx_rede_equipamento":"Sem descrição","cd_identificador_tipo_equipamento":0,"nm_tipo_equipamento":"SEM TIPO","tx_tipo_equipamento":"SEM TIPO","cd_identificador_classe_equipamento":4,"nm_classe_equipamento":"POLICIA CIVIL","tx_classe_equipamento":"POLICIA CIVIL","cd_identificador_esfera_administrativa_equipamento":0,"nm_esfera_administrativa_equipamento":"SEM ESFERA","tx_esfera_administrativa_equipamento":"Sem descrição","cd_equipamento":null,"nm_equipamento":"5° DP - Aclimação","tx_endereco_equipamento":"RUA PROF. ANTÔNIO PRUDENTE, 160","nm_bairro_equipamento":null,"cd_cep_equipamento":null,"tx_horario_funcionamento":null,"tx_numero_telefone":null,"cd_equipamento_base_origem":null}},{"type":"Feature","id":"equipamento_policia_civil_v2.150120","geometry":{"type":"Point","coordinates":[334303.6067,7392703.3334]},"geometry_name":"ge_ponto","properties":{"cd_identificador":150120,"cd_identificador_tema_equipamento":7,"nm_tema_equipamento":"SEGURANCA","cd_identificador_rede_equipamento":0,"nm_rede_equipamento":"SEM REDE","tx_rede_equipamento":"Sem descrição","cd_identificador_tipo_equipamento":0,"nm_tipo_equipamento":"SEM TIPO","tx_tipo_equipamento":"SEM TIPO","cd_identificador_classe_equipamento":4,"nm_classe_equipamento":"POLICIA CIVIL","tx_classe_equipamento":"POLICIA CIVIL","cd_identificador_esfera_administrativa_equipamento":0,"nm_esfera_administrativa_equipamento":"SEM ESFERA","tx_esfera_administrativa_equipamento":"Sem descrição","cd_equipamento":null,"nm_equipamento":"6° DP - Cambuci","tx_endereco_equipamento":"RUA HERMÍNIO LEMOS, 70","nm_bairro_equipamento":null,"cd_cep_equipamento":null,"tx_horario_funcionamento":null,"tx_numero_telefone":null,"cd_equipamento_base_origem":null}},{"type":"Feature","id":"equipamento_policia_civil_v2.150121","geometry":{"type":"Point","coordinates":[326946.8965,7396835.759]},"geometry_name":"ge_ponto","properties":{"cd_identificador":150121,"cd_identificador_tema_equipamento":7,"nm_tema_equipamento":"SEGURANCA","cd_identificador_rede_equipamento":0,"nm_rede_equipamento":"SEM REDE","tx_rede_equipamento":"Sem descrição","cd_identificador_tipo_equipamento":0,"nm_tipo_equipamento":"SEM TIPO","tx_tipo_equipamento":"SEM TIPO","cd_identificador_classe_equipamento":4,"nm_classe_equipamento":"POLICIA CIVIL","tx_classe_equipamento":"POLICIA CIVIL","cd_identificador_esfera_administrativa_equipamento":0,"nm_esfera_administrativa_equipamento":"SEM ESFERA","tx_esfera_administrativa_equipamento":"Sem descrição","cd_equipamento":null,"nm_equipamento":"7° DP - Lapa","tx_endereco_equipamento":"RUA CAMILO, 317","nm_bairro_equipamento":null,"cd_cep_equipamento":null,"tx_horario_funcionamento":null,"tx_numero_telefone":null,"cd_equipamento_base_origem":null}},{"type":"Feature","id":"equipamento_policia_civil_v2.150122","geometry":{"type":"Point","coordinates":[337318.2265,7394874.1314]},"geometry_name":"ge_ponto","properties":{"cd_identificador":150122,"cd_identificador_tema_equipamento":7,"nm_tema_equipamento":"SEGURANCA","cd_identificador_rede_equipamento":0,"nm_rede_equipamento":"SEM REDE","tx_rede_equipamento":"Sem descrição","cd_identificador_tipo_equipamento":0,"nm_tipo_equipamento":"SEM TIPO","tx_tipo_equipamento":"SEM TIPO","cd_identificador_classe_equipamento":4,"nm_classe_equipamento":"POLICIA CIVIL","tx_classe_equipamento":"POLICIA CIVIL","cd_identificador_esfera_administrativa_equipamento":0,"nm_esfera_administrativa_equipamento":"SEM ESFERA","tx_esfera_administrativa_equipamento":"Sem descrição","cd_equipamento":null,"nm_equipamento":"8° DP - Brás/Belém","tx_endereco_equipamento":"RUA SAPUCAIA, 206","nm_bairro_equipamento":null,"cd_cep_equipamento":null,"tx_horario_funcionamento":null,"tx_numero_telefone":null,"cd_equipamento_base_origem":null}},{"type":"Feature","id":"equipamento_policia_civil_v2.150123","geometry":{"type":"Point","coordinates":[335299.7131,7399828.8136]},"geometry_name":"ge_ponto","properties":{"cd_identificador":150123,"cd_identificador_tema_equipamento":7,"nm_tema_equipamento":"SEGURANCA","cd_identificador_rede_equipamento":0,"nm_rede_equipamento":"SEM REDE","tx_rede_equipamento":"Sem descrição","cd_identificador_tipo_equipamento":0,"nm_tipo_equipamento":"SEM TIPO","tx_tipo_equipamento":"SEM TIPO","cd_identificador_classe_equipamento":4,"nm_classe_equipamento":"POLICIA CIVIL","tx_classe_equipamento":"POLICIA CIVIL","cd_identificador_esfera_administrativa_equipamento":0,"nm_esfera_administrativa_equipamento":"SEM ESFERA","tx_esfera_administrativa_equipamento":"Sem descrição","cd_equipamento":null,"nm_equipamento":"9° DP - Carandiru","tx_endereco_equipamento":"RUA DOS CAMARÉS, 94","nm_bairro_equipamento":null,"cd_cep_equipamento":null,"tx_horario_funcionamento":null,"tx_numero_telefone":null,"cd_equipamento_base_origem":null}},{"type":"Feature","id":"equipamento_policia_civil_v2.150124","geometry":{"type":"Point","coordinates":[341352.6207,7397079.3871]},"geometry_name":"ge_ponto","properties":{"cd_identificador":150124,"cd_identificador_tema_equipamento":7,"nm_tema_equipamento":"SEGURANCA","cd_identificador_rede_equipamento":0,"nm_rede_equipamento":"SEM REDE","tx_rede_equipamento":"Sem descrição","cd_identificador_tipo_equipamento":0,"nm_tipo_equipamento":"SEM TIPO","tx_tipo_equipamento":"SEM TIPO","cd_identificador_classe_equipamento":4,"nm_classe_equipamento":"POLICIA CIVIL","tx_classe_equipamento":"POLICIA CIVIL","cd_identificador_esfera_administrativa_equipamento":0,"nm_esfera_administrativa_equipamento":"SEM ESFERA","tx_esfera_administrativa_equipamento":"Sem descrição","cd_equipamento":null,"nm_equipamento":"10° DP - Penha","tx_endereco_equipamento":"AV. AIRTON PRETINI, 69","nm_bairro_equipamento":null,"cd_cep_equipamento":null,"tx_horario_funcionamento":null,"tx_numero_telefone":null,"cd_equipamento_base_origem":null}},{"type":"Feature","id":"equipamento_policia_civil_v2.150125","geometry":{"type":"Point","coordinates":[326432.107,7383483.6072]},"geometry_name":"ge_ponto","properties":{"cd_identificador":150125,"cd_identificador_tema_equipamento":7,"nm_tema_equipamento":"SEGURANCA","cd_identificador_rede_equipamento":0,"nm_rede_equipamento":"SEM REDE","tx_rede_equipamento":"Sem descrição","cd_identificador_tipo_equipamento":0,"nm_tipo_equipamento":"SEM TIPO","tx_tipo_equipamento":"SEM TIPO","cd_identificador_classe_equipamento":4,"nm_classe_equipamento":"POLICIA CIVIL","tx_classe_equipamento":"POLICIA CIVIL","cd_identificador_esfera_administrativa_equipamento":0,"nm_esfera_administrativa_equipamento":"SEM ESFERA","tx_esfera_administrativa_equipamento":"Sem descrição","cd_equipamento":null,"nm_equipamento":"11° DP - Santo Amaro","tx_endereco_equipamento":"RUA PE. JOSÉ DE ANCHIETA, 138","nm_bairro_equipamento":null,"cd_cep_equipamento":null,"tx_horario_funcionamento":null,"tx_numero_telefone":null,"cd_equipamento_base_origem":null}},{"type":"Feature","id":"equipamento_policia_civil_v2.150126","geometry":{"type":"Point","coordinates":[335402.1568,7396913.3905]},"geometry_name":"ge_ponto","properties":{"cd_identificador":150126,"cd_identificador_tema_equipamento":7,"nm_tema_equipamento":"SEGURANCA","cd_identificador_rede_equipamento":0,"nm_rede_equipamento":"SEM REDE","tx_rede_equipamento":"Sem descrição","cd_identificador_tipo_equipamento":0,"nm_tipo_equipamento":"SEM TIPO","tx_tipo_equipamento":"SEM TIPO","cd_identificador_classe_equipamento":4,"nm_classe_equipamento":"POLICIA CIVIL","tx_classe_equipamento":"POLICIA CIVIL","cd_identificador_esfera_administrativa_equipamento":0,"nm_esfera_administrativa_equipamento":"SEM ESFERA","tx_esfera_administrativa_equipamento":"Sem descrição","cd_equipamento":null,"nm_equipamento":"12° DP - Pari","tx_endereco_equipamento":"RUA RIO BONITO, 950","nm_bairro_equipamento":null,"cd_cep_equipamento":null,"tx_horario_funcionamento":null,"tx_numero_telefone":null,"cd_equipamento_base_origem":null}},{"type":"Feature","id":"equipamento_policia_civil_v2.150127","geometry":{"type":"Point","coordinates":[331611.2023,7400108.6414]},"geometry_name":"ge_ponto","properties":{"cd_identificador":150127,"cd_identificador_tema_equipamento":7,"nm_tema_equipamento":"SEGURANCA","cd_identificador_rede_equipamento":0,"nm_rede_equipamento":"SEM REDE","tx_rede_equipamento":"Sem descrição","cd_identificador_tipo_equipamento":0,"nm_tipo_equipamento":"SEM TIPO","tx_tipo_equipamento":"SEM TIPO","cd_identificador_classe_equipamento":4,"nm_classe_equipamento":"POLICIA CIVIL","tx_classe_equipamento":"POLICIA CIVIL","cd_identificador_esfera_administrativa_equipamento":0,"nm_esfera_administrativa_equipamento":"SEM ESFERA","tx_esfera_administrativa_equipamento":"Sem descrição","cd_equipamento":null,"nm_equipamento":"13° DP - Casa Verde","tx_endereco_equipamento":"AV. CASA VERDE, 677","nm_bairro_equipamento":null,"cd_cep_equipamento":null,"tx_horario_funcionamento":null,"tx_numero_telefone":null,"cd_equipamento_base_origem":null}},{"type":"Feature","id":"equipamento_policia_civil_v2.150128","geometry":{"type":"Point","coordinates":[327393.4002,7393271.5986]},"geometry_name":"ge_ponto","properties":{"cd_identificador":150128,"cd_identificador_tema_equipamento":7,"nm_tema_equipamento":"SEGURANCA","cd_identificador_rede_equipamento":0,"nm_rede_equipamento":"SEM REDE","tx_rede_equipamento":"Sem descrição","cd_identificador_tipo_equipamento":0,"nm_tipo_equipamento":"SEM TIPO","tx_tipo_equipamento":"SEM TIPO","cd_identificador_classe_equipamento":4,"nm_classe_equipamento":"POLICIA CIVIL","tx_classe_equipamento":"POLICIA CIVIL","cd_identificador_esfera_administrativa_equipamento":0,"nm_esfera_administrativa_equipamento":"SEM ESFERA","tx_esfera_administrativa_equipamento":"Sem descrição","cd_equipamento":null,"nm_equipamento":"14° DP - Pinheiros","tx_endereco_equipamento":"RUA DEP. LACERDA FRANCO, 372","nm_bairro_equipamento":null,"cd_cep_equipamento":null,"tx_horario_funcionamento":null,"tx_numero_telefone":null,"cd_equipamento_base_origem":null}},{"type":"Feature","id":"equipamento_policia_civil_v2.150129","geometry":{"type":"Point","coordinates":[329118.6199,7391084.86]},"geometry_name":"ge_ponto","properties":{"cd_identificador":150129,"cd_identificador_tema_equipamento":7,"nm_tema_equipamento":"SEGURANCA","cd_identificador_rede_equipamento":0,"nm_rede_equipamento":"SEM REDE","tx_rede_equipamento":"Sem descrição","cd_identificador_tipo_equipamento":0,"nm_tipo_equipamento":"SEM TIPO","tx_tipo_equipamento":"SEM TIPO","cd_identificador_classe_equipamento":4,"nm_classe_equipamento":"POLICIA CIVIL","tx_classe_equipamento":"POLICIA CIVIL","cd_identificador_esfera_administrativa_equipamento":0,"nm_esfera_administrativa_equipamento":"SEM ESFERA","tx_esfera_administrativa_equipamento":"Sem descrição","cd_equipamento":null,"nm_equipamento":"15° DP - Itaim Bibi","tx_endereco_equipamento":"RUA DR. RENATO PAES DE BARROS, 340","nm_bairro_equipamento":null,"cd_cep_equipamento":null,"tx_horario_funcionamento":null,"tx_numero_telefone":null,"cd_equipamento_base_origem":null}},{"type":"Feature","id":"equipamento_policia_civil_v2.150130","geometry":{"type":"Point","coordinates":[332897.0639,7388899.3153]},"geometry_name":"ge_ponto","properties":{"cd_identificador":150130,"cd_identificador_tema_equipamento":7,"nm_tema_equipamento":"SEGURANCA","cd_identificador_rede_equipamento":0,"nm_rede_equipamento":"SEM REDE","tx_rede_equipamento":"Sem descrição","cd_identificador_tipo_equipamento":0,"nm_tipo_equipamento":"SEM TIPO","tx_tipo_equipamento":"SEM TIPO","cd_identificador_classe_equipamento":4,"nm_classe_equipamento":"POLICIA CIVIL","tx_classe_equipamento":"POLICIA CIVIL","cd_identificador_esfera_administrativa_equipamento":0,"nm_esfera_administrativa_equipamento":"SEM ESFERA","tx_esfera_administrativa_equipamento":"Sem descrição","cd_equipamento":null,"nm_equipamento":"16° DP - V. Clementino","tx_endereco_equipamento":"AV. ONZE DE JUNHO, 89","nm_bairro_equipamento":null,"cd_cep_equipamento":null,"tx_horario_funcionamento":null,"tx_numero_telefone":null,"cd_equipamento_base_origem":null}},{"type":"Feature","id":"equipamento_policia_civil_v2.150131","geometry":{"type":"Point","coordinates":[335846.7381,7390139.0949]},"geometry_name":"ge_ponto","properties":{"cd_identificador":150131,"cd_identificador_tema_equipamento":7,"nm_tema_equipamento":"SEGURANCA","cd_identificador_rede_equipamento":0,"nm_rede_equipamento":"SEM REDE","tx_rede_equipamento":"Sem descrição","cd_identificador_tipo_equipamento":0,"nm_tipo_equipamento":"SEM TIPO","tx_tipo_equipamento":"SEM TIPO","cd_identificador_classe_equipamento":4,"nm_classe_equipamento":"POLICIA CIVIL","tx_classe_equipamento":"POLICIA CIVIL","cd_identificador_esfera_administrativa_equipamento":0,"nm_esfera_administrativa_equipamento":"SEM ESFERA","tx_esfera_administrativa_equipamento":"Sem descrição","cd_equipamento":null,"nm_equipamento":"17° DP - Ipiranga","tx_endereco_equipamento":"RUA DOM LUÍS LASANHA, 534","nm_bairro_equipamento":null,"cd_cep_equipamento":null,"tx_horario_funcionamento":null,"tx_numero_telefone":null,"cd_equipamento_base_origem":null}},{"type":"Feature","id":"equipamento_policia_civil_v2.150132","geometry":{"type":"Point","coordinates":[337567.5789,7392421.5731]},"geometry_name":"ge_ponto","properties":{"cd_identificador":150132,"cd_identificador_tema_equipamento":7,"nm_tema_equipamento":"SEGURANCA","cd_identificador_rede_equipamento":0,"nm_rede_equipamento":"SEM REDE","tx_rede_equipamento":"Sem descrição","cd_identificador_tipo_equipamento":0,"nm_tipo_equipamento":"SEM TIPO","tx_tipo_equipamento":"SEM TIPO","cd_identificador_classe_equipamento":4,"nm_classe_equipamento":"POLICIA CIVIL","tx_classe_equipamento":"POLICIA CIVIL","cd_identificador_esfera_administrativa_equipamento":0,"nm_esfera_administrativa_equipamento":"SEM ESFERA","tx_esfera_administrativa_equipamento":"Sem descrição","cd_equipamento":null,"nm_equipamento":"18° DP - Alto da Moóca","tx_endereco_equipamento":"RUA JUVENTUS, 350","nm_bairro_equipamento":null,"cd_cep_equipamento":null,"tx_horario_funcionamento":null,"tx_numero_telefone":null,"cd_equipamento_base_origem":null}},{"type":"Feature","id":"equipamento_policia_civil_v2.150133","geometry":{"type":"Point","coordinates":[338202.2268,7398260.848]},"geometry_name":"ge_ponto","properties":{"cd_identificador":150133,"cd_identificador_tema_equipamento":7,"nm_tema_equipamento":"SEGURANCA","cd_identificador_rede_equipamento":0,"nm_rede_equipamento":"SEM REDE","tx_rede_equipamento":"Sem descrição","cd_identificador_tipo_equipamento":0,"nm_tipo_equipamento":"SEM TIPO","tx_tipo_equipamento":"SEM TIPO","cd_identificador_classe_equipamento":4,"nm_classe_equipamento":"POLICIA CIVIL","tx_classe_equipamento":"POLICIA CIVIL","cd_identificador_esfera_administrativa_equipamento":0,"nm_esfera_administrativa_equipamento":"SEM ESFERA","tx_esfera_administrativa_equipamento":"Sem descrição","cd_equipamento":null,"nm_equipamento":"19° DP - V. Maria","tx_endereco_equipamento":"RUA AMAMBAÍ, 1181","nm_bairro_equipamento":null,"cd_cep_equipamento":null,"tx_horario_funcionamento":null,"tx_numero_telefone":null,"cd_equipamento_base_origem":null}},{"type":"Feature","id":"equipamento_policia_civil_v2.150134","geometry":{"type":"Point","coordinates":[334481.1124,7402602.8848]},"geometry_name":"ge_ponto","properties":{"cd_identificador":150134,"cd_identificador_tema_equipamento":7,"nm_tema_equipamento":"SEGURANCA","cd_identificador_rede_equipamento":0,"nm_rede_equipamento":"SEM REDE","tx_rede_equipamento":"Sem descrição","cd_identificador_tipo_equipamento":0,"nm_tipo_equipamento":"SEM TIPO","tx_tipo_equipamento":"SEM TIPO","cd_identificador_classe_equipamento":4,"nm_classe_equipamento":"POLICIA CIVIL","tx_classe_equipamento":"POLICIA CIVIL","cd_identificador_esfera_administrativa_equipamento":0,"nm_esfera_administrativa_equipamento":"SEM ESFERA","tx_esfera_administrativa_equipamento":"Sem descrição","cd_equipamento":null,"nm_equipamento":"20° DP - Água Fria","tx_endereco_equipamento":"RUA SÃO ZEFERINO, 34","nm_bairro_equipamento":null,"cd_cep_equipamento":null,"tx_horario_funcionamento":null,"tx_numero_telefone":null,"cd_equipamento_base_origem":null}},{"type":"Feature","id":"equipamento_policia_civil_v2.150135","geometry":{"type":"Point","coordinates":[344164.3571,7396198.2794]},"geometry_name":"ge_ponto","properties":{"cd_identificador":150135,"cd_identificador_tema_equipamento":7,"nm_tema_equipamento":"SEGURANCA","cd_identificador_rede_equipamento":0,"nm_rede_equipamento":"SEM REDE","tx_rede_equipamento":"Sem descrição","cd_identificador_tipo_equipamento":0,"nm_tipo_equipamento":"SEM TIPO","tx_tipo_equipamento":"SEM TIPO","cd_identificador_classe_equipamento":4,"nm_classe_equipamento":"POLICIA CIVIL","tx_classe_equipamento":"POLICIA CIVIL","cd_identificador_esfera_administrativa_equipamento":0,"nm_esfera_administrativa_equipamento":"SEM ESFERA","tx_esfera_administrativa_equipamento":"Sem descrição","cd_equipamento":null,"nm_equipamento":"21° DP - V. Matilde","tx_endereco_equipamento":"AV. MARCONDES DE BRITO, 1416","nm_bairro_equipamento":null,"cd_cep_equipamento":null,"tx_horario_funcionamento":null,"tx_numero_telefone":null,"cd_equipamento_base_origem":null}},{"type":"Feature","id":"equipamento_policia_civil_v2.150136","geometry":{"type":"Point","coordinates":[352836.3716,7400799.2543]},"geometry_name":"ge_ponto","properties":{"cd_identificador":150136,"cd_identificador_tema_equipamento":7,"nm_tema_equipamento":"SEGURANCA","cd_identificador_rede_equipamento":0,"nm_rede_equipamento":"SEM REDE","tx_rede_equipamento":"Sem descrição","cd_identificador_tipo_equipamento":0,"nm_tipo_equipamento":"SEM TIPO","tx_tipo_equipamento":"SEM TIPO","cd_identificador_classe_equipamento":4,"nm_classe_equipamento":"POLICIA CIVIL","tx_classe_equipamento":"POLICIA CIVIL","cd_identificador_esfera_administrativa_equipamento":0,"nm_esfera_administrativa_equipamento":"SEM ESFERA","tx_esfera_administrativa_equipamento":"Sem descrição","cd_equipamento":null,"nm_equipamento":"22° DP - São Miguel Paulista","tx_endereco_equipamento":"RUA AMÉRICO GOMES DA COSTA, 305","nm_bairro_equipamento":null,"cd_cep_equipamento":null,"tx_horario_funcionamento":null,"tx_numero_telefone":null,"cd_equipamento_base_origem":null}},{"type":"Feature","id":"equipamento_policia_civil_v2.150137","geometry":{"type":"Point","coordinates":[330003.7116,7396024.2304]},"geometry_name":"ge_ponto","properties":{"cd_identificador":150137,"cd_identificador_tema_equipamento":7,"nm_tema_equipamento":"SEGURANCA","cd_identificador_rede_equipamento":0,"nm_rede_equipamento":"SEM REDE","tx_rede_equipamento":"Sem descrição","cd_identificador_tipo_equipamento":0,"nm_tipo_equipamento":"SEM TIPO","tx_tipo_equipamento":"SEM TIPO","cd_identificador_classe_equipamento":4,"nm_classe_equipamento":"POLICIA CIVIL","tx_classe_equipamento":"POLICIA CIVIL","cd_identificador_esfera_administrativa_equipamento":0,"nm_esfera_administrativa_equipamento":"SEM ESFERA","tx_esfera_administrativa_equipamento":"Sem descrição","cd_equipamento":null,"nm_equipamento":"23° DP - Perdizes","tx_endereco_equipamento":"RUA ITAPICURU, 80","nm_bairro_equipamento":null,"cd_cep_equipamento":null,"tx_horario_funcionamento":null,"tx_numero_telefone":null,"cd_equipamento_base_origem":null}},{"type":"Feature","id":"equipamento_policia_civil_v2.150138","geometry":{"type":"Point","coordinates":[346990.0739,7399233.5153]},"geometry_name":"ge_ponto","properties":{"cd_identificador":150138,"cd_identificador_tema_equipamento":7,"nm_tema_equipamento":"SEGURANCA","cd_identificador_rede_equipamento":0,"nm_rede_equipamento":"SEM REDE","tx_rede_equipamento":"Sem descrição","cd_identificador_tipo_equipamento":0,"nm_tipo_equipamento":"SEM TIPO","tx_tipo_equipamento":"SEM TIPO","cd_identificador_classe_equipamento":4,"nm_classe_equipamento":"POLICIA CIVIL","tx_classe_equipamento":"POLICIA CIVIL","cd_identificador_esfera_administrativa_equipamento":0,"nm_esfera_administrativa_equipamento":"SEM ESFERA","tx_esfera_administrativa_equipamento":"Sem descrição","cd_equipamento":null,"nm_equipamento":"24° DP - Ponte Rasa","tx_endereco_equipamento":"AV. SÃO MIGUEL, 3551","nm_bairro_equipamento":null,"cd_cep_equipamento":null,"tx_horario_funcionamento":null,"tx_numero_telefone":null,"cd_equipamento_base_origem":null}},{"type":"Feature","id":"equipamento_policia_civil_v2.150139","geometry":{"type":"Point","coordinates":[323302.8266,7364004.7589]},"geometry_name":"ge_ponto","properties":{"cd_identificador":150139,"cd_identificador_tema_equipamento":7,"nm_tema_equipamento":"SEGURANCA","cd_identificador_rede_equipamento":0,"nm_rede_equipamento":"SEM REDE","tx_rede_equipamento":"Sem descrição","cd_identificador_tipo_equipamento":0,"nm_tipo_equipamento":"SEM TIPO","tx_tipo_equipamento":"SEM TIPO","cd_identificador_classe_equipamento":4,"nm_classe_equipamento":"POLICIA CIVIL","tx_classe_equipamento":"POLICIA CIVIL","cd_identificador_esfera_administrativa_equipamento":0,"nm_esfera_administrativa_equipamento":"SEM ESFERA","tx_esfera_administrativa_equipamento":"Sem descrição","cd_equipamento":null,"nm_equipamento":"25° DP - Parelheiros","tx_endereco_equipamento":"RUA HUMBERTO RAVELLO, 9","nm_bairro_equipamento":null,"cd_cep_equipamento":null,"tx_horario_funcionamento":null,"tx_numero_telefone":null,"cd_equipamento_base_origem":null}},{"type":"Feature","id":"equipamento_policia_civil_v2.150140","geometry":{"type":"Point","coordinates":[336582.539,7386605.8377]},"geometry_name":"ge_ponto","properties":{"cd_identificador":150140,"cd_identificador_tema_equipamento":7,"nm_tema_equipamento":"SEGURANCA","cd_identificador_rede_equipamento":0,"nm_rede_equipamento":"SEM REDE","tx_rede_equipamento":"Sem descrição","cd_identificador_tipo_equipamento":0,"nm_tipo_equipamento":"SEM TIPO","tx_tipo_equipamento":"SEM TIPO","cd_identificador_classe_equipamento":4,"nm_classe_equipamento":"POLICIA CIVIL","tx_classe_equipamento":"POLICIA CIVIL","cd_identificador_esfera_administrativa_equipamento":0,"nm_esfera_administrativa_equipamento":"SEM ESFERA","tx_esfera_administrativa_equipamento":"Sem descrição","cd_equipamento":null,"nm_equipamento":"26° DP - Sacomã","tx_endereco_equipamento":"AV. PE. ARLINDO VIEIRA, 50","nm_bairro_equipamento":null,"cd_cep_equipamento":null,"tx_horario_funcionamento":null,"tx_numero_telefone":null,"cd_equipamento_base_origem":null}},{"type":"Feature","id":"equipamento_policia_civil_v2.150141","geometry":{"type":"Point","coordinates":[329113.5779,7387370.9854]},"geometry_name":"ge_ponto","properties":{"cd_identificador":150141,"cd_identificador_tema_equipamento":7,"nm_tema_equipamento":"SEGURANCA","cd_identificador_rede_equipamento":0,"nm_rede_equipamento":"SEM REDE","tx_rede_equipamento":"Sem descrição","cd_identificador_tipo_equipamento":0,"nm_tipo_equipamento":"SEM TIPO","tx_tipo_equipamento":"SEM TIPO","cd_identificador_classe_equipamento":4,"nm_classe_equipamento":"POLICIA CIVIL","tx_classe_equipamento":"POLICIA CIVIL","cd_identificador_esfera_administrativa_equipamento":0,"nm_esfera_administrativa_equipamento":"SEM ESFERA","tx_esfera_administrativa_equipamento":"Sem descrição","cd_equipamento":null,"nm_equipamento":"27° DP - Campo Belo","tx_endereco_equipamento":"RUA DEMÓSTENES, 407","nm_bairro_equipamento":null,"cd_cep_equipamento":null,"tx_horario_funcionamento":null,"tx_numero_telefone":null,"cd_equipamento_base_origem":null}},{"type":"Feature","id":"equipamento_policia_civil_v2.150142","geometry":{"type":"Point","coordinates":[326639.6836,7400691.8325]},"geometry_name":"ge_ponto","properties":{"cd_identificador":150142,"cd_identificador_tema_equipamento":7,"nm_tema_equipamento":"SEGURANCA","cd_identificador_rede_equipamento":0,"nm_rede_equipamento":"SEM REDE","tx_rede_equipamento":"Sem descrição","cd_identificador_tipo_equipamento":0,"nm_tipo_equipamento":"SEM TIPO","tx_tipo_equipamento":"SEM TIPO","cd_identificador_classe_equipamento":4,"nm_classe_equipamento":"POLICIA CIVIL","tx_classe_equipamento":"POLICIA CIVIL","cd_identificador_esfera_administrativa_equipamento":0,"nm_esfera_administrativa_equipamento":"SEM ESFERA","tx_esfera_administrativa_equipamento":"Sem descrição","cd_equipamento":null,"nm_equipamento":"28° DP - Freguesia do Ó","tx_endereco_equipamento":"AV. ITABERABA, 731","nm_bairro_equipamento":null,"cd_cep_equipamento":null,"tx_horario_funcionamento":null,"tx_numero_telefone":null,"cd_equipamento_base_origem":null}},{"type":"Feature","id":"equipamento_policia_civil_v2.150143","geometry":{"type":"Point","coordinates":[341039.0729,7392102.2022]},"geometry_name":"ge_ponto","properties":{"cd_identificador":150143,"cd_identificador_tema_equipamento":7,"nm_tema_equipamento":"SEGURANCA","cd_identificador_rede_equipamento":0,"nm_rede_equipamento":"SEM REDE","tx_rede_equipamento":"Sem descrição","cd_identificador_tipo_equipamento":0,"nm_tipo_equipamento":"SEM TIPO","tx_tipo_equipamento":"SEM TIPO","cd_identificador_classe_equipamento":4,"nm_classe_equipamento":"POLICIA CIVIL","tx_classe_equipamento":"POLICIA CIVIL","cd_identificador_esfera_administrativa_equipamento":0,"nm_esfera_administrativa_equipamento":"SEM ESFERA","tx_esfera_administrativa_equipamento":"Sem descrição","cd_equipamento":null,"nm_equipamento":"29° DP - V. Diva","tx_endereco_equipamento":"AV. SAPOPEMBA, 3259","nm_bairro_equipamento":null,"cd_cep_equipamento":null,"tx_horario_funcionamento":null,"tx_numero_telefone":null,"cd_equipamento_base_origem":null}},{"type":"Feature","id":"equipamento_policia_civil_v2.150144","geometry":{"type":"Point","coordinates":[339982.7865,7394723.9959]},"geometry_name":"ge_ponto","properties":{"cd_identificador":150144,"cd_identificador_tema_equipamento":7,"nm_tema_equipamento":"SEGURANCA","cd_identificador_rede_equipamento":0,"nm_rede_equipamento":"SEM REDE","tx_rede_equipamento":"Sem descrição","cd_identificador_tipo_equipamento":0,"nm_tipo_equipamento":"SEM TIPO","tx_tipo_equipamento":"SEM TIPO","cd_identificador_classe_equipamento":4,"nm_classe_equipamento":"POLICIA CIVIL","tx_classe_equipamento":"POLICIA CIVIL","cd_identificador_esfera_administrativa_equipamento":0,"nm_esfera_administrativa_equipamento":"SEM ESFERA","tx_esfera_administrativa_equipamento":"Sem descrição","cd_equipamento":null,"nm_equipamento":"30° DP - Tatuapé","tx_endereco_equipamento":"RUA ANTÔNIO CAMARDO, 69","nm_bairro_equipamento":null,"cd_cep_equipamento":null,"tx_horario_funcionamento":null,"tx_numero_telefone":null,"cd_equipamento_base_origem":null}},{"type":"Feature","id":"equipamento_policia_civil_v2.150145","geometry":{"type":"Point","coordinates":[343156.6649,7394878.0431]},"geometry_name":"ge_ponto","properties":{"cd_identificador":150145,"cd_identificador_tema_equipamento":7,"nm_tema_equipamento":"SEGURANCA","cd_identificador_rede_equipamento":0,"nm_rede_equipamento":"SEM REDE","tx_rede_equipamento":"Sem descrição","cd_identificador_tipo_equipamento":0,"nm_tipo_equipamento":"SEM TIPO","tx_tipo_equipamento":"SEM TIPO","cd_identificador_classe_equipamento":4,"nm_classe_equipamento":"POLICIA CIVIL","tx_classe_equipamento":"POLICIA CIVIL","cd_identificador_esfera_administrativa_equipamento":0,"nm_esfera_administrativa_equipamento":"SEM ESFERA","tx_esfera_administrativa_equipamento":"Sem descrição","cd_equipamento":null,"nm_equipamento":"31° DP - V. Carrão","tx_endereco_equipamento":"AV. CONS. CARRÃO, 2580","nm_bairro_equipamento":null,"cd_cep_equipamento":null,"tx_horario_funcionamento":null,"tx_numero_telefone":null,"cd_equipamento_base_origem":null}},{"type":"Feature","id":"equipamento_policia_civil_v2.150146","geometry":{"type":"Point","coordinates":[351795.2366,7396584.8709]},"geometry_name":"ge_ponto","properties":{"cd_identificador":150146,"cd_identificador_tema_equipamento":7,"nm_tema_equipamento":"SEGURANCA","cd_identificador_rede_equipamento":0,"nm_rede_equipamento":"SEM REDE","tx_rede_equipamento":"Sem descrição","cd_identificador_tipo_equipamento":0,"nm_tipo_equipamento":"SEM TIPO","tx_tipo_equipamento":"SEM TIPO","cd_identificador_classe_equipamento":4,"nm_classe_equipamento":"POLICIA CIVIL","tx_classe_equipamento":"POLICIA CIVIL","cd_identificador_esfera_administrativa_equipamento":0,"nm_esfera_administrativa_equipamento":"SEM ESFERA","tx_esfera_administrativa_equipamento":"Sem descrição","cd_equipamento":null,"nm_equipamento":"32° DP - Itaquera","tx_endereco_equipamento":"RUA SABBADO D'ANGELO, 64","nm_bairro_equipamento":null,"cd_cep_equipamento":null,"tx_horario_funcionamento":null,"tx_numero_telefone":null,"cd_equipamento_base_origem":null}},{"type":"Feature","id":"equipamento_policia_civil_v2.150147","geometry":{"type":"Point","coordinates":[321736.5113,7400342.5239]},"geometry_name":"ge_ponto","properties":{"cd_identificador":150147,"cd_identificador_tema_equipamento":7,"nm_tema_equipamento":"SEGURANCA","cd_identificador_rede_equipamento":0,"nm_rede_equipamento":"SEM REDE","tx_rede_equipamento":"Sem descrição","cd_identificador_tipo_equipamento":0,"nm_tipo_equipamento":"SEM TIPO","tx_tipo_equipamento":"SEM TIPO","cd_identificador_classe_equipamento":4,"nm_classe_equipamento":"POLICIA CIVIL","tx_classe_equipamento":"POLICIA CIVIL","cd_identificador_esfera_administrativa_equipamento":0,"nm_esfera_administrativa_equipamento":"SEM ESFERA","tx_esfera_administrativa_equipamento":"Sem descrição","cd_equipamento":null,"nm_equipamento":"33° DP - Pirituba","tx_endereco_equipamento":"RUA JOAQUIM OLIVEIRA FREITAS, 1170","nm_bairro_equipamento":null,"cd_cep_equipamento":null,"tx_horario_funcionamento":null,"tx_numero_telefone":null,"cd_equipamento_base_origem":null}},{"type":"Feature","id":"equipamento_policia_civil_v2.150148","geometry":{"type":"Point","coordinates":[323798.5372,7390307.9756]},"geometry_name":"ge_ponto","properties":{"cd_identificador":150148,"cd_identificador_tema_equipamento":7,"nm_tema_equipamento":"SEGURANCA","cd_identificador_rede_equipamento":0,"nm_rede_equipamento":"SEM REDE","tx_rede_equipamento":"Sem descrição","cd_identificador_tipo_equipamento":0,"nm_tipo_equipamento":"SEM TIPO","tx_tipo_equipamento":"SEM TIPO","cd_identificador_classe_equipamento":4,"nm_classe_equipamento":"POLICIA CIVIL","tx_classe_equipamento":"POLICIA CIVIL","cd_identificador_esfera_administrativa_equipamento":0,"nm_esfera_administrativa_equipamento":"SEM ESFERA","tx_esfera_administrativa_equipamento":"Sem descrição","cd_equipamento":null,"nm_equipamento":"34° DP - V. Sônia","tx_endereco_equipamento":"AV. PROF. FRANCISCO MORATO, 2971","nm_bairro_equipamento":null,"cd_cep_equipamento":null,"tx_horario_funcionamento":null,"tx_numero_telefone":null,"cd_equipamento_base_origem":null}},{"type":"Feature","id":"equipamento_policia_civil_v2.150149","geometry":{"type":"Point","coordinates":[332380.0726,7384731.399]},"geometry_name":"ge_ponto","properties":{"cd_identificador":150149,"cd_identificador_tema_equipamento":7,"nm_tema_equipamento":"SEGURANCA","cd_identificador_rede_equipamento":0,"nm_rede_equipamento":"SEM REDE","tx_rede_equipamento":"Sem descrição","cd_identificador_tipo_equipamento":0,"nm_tipo_equipamento":"SEM TIPO","tx_tipo_equipamento":"SEM TIPO","cd_identificador_classe_equipamento":4,"nm_classe_equipamento":"POLICIA CIVIL","tx_classe_equipamento":"POLICIA CIVIL","cd_identificador_esfera_administrativa_equipamento":0,"nm_esfera_administrativa_equipamento":"SEM ESFERA","tx_esfera_administrativa_equipamento":"Sem descrição","cd_equipamento":null,"nm_equipamento":"35° DP - Jabaquara","tx_endereco_equipamento":"AV. ENG. GEORGE CORBISIER, 322","nm_bairro_equipamento":null,"cd_cep_equipamento":null,"tx_horario_funcionamento":null,"tx_numero_telefone":null,"cd_equipamento_base_origem":null}},{"type":"Feature","id":"equipamento_policia_civil_v2.150150","geometry":{"type":"Point","coordinates":[331493.9455,7391413.2334]},"geometry_name":"ge_ponto","properties":{"cd_identificador":150150,"cd_identificador_tema_equipamento":7,"nm_tema_equipamento":"SEGURANCA","cd_identificador_rede_equipamento":0,"nm_rede_equipamento":"SEM REDE","tx_rede_equipamento":"Sem descrição","cd_identificador_tipo_equipamento":0,"nm_tipo_equipamento":"SEM TIPO","tx_tipo_equipamento":"SEM TIPO","cd_identificador_classe_equipamento":4,"nm_classe_equipamento":"POLICIA CIVIL","tx_classe_equipamento":"POLICIA CIVIL","cd_identificador_esfera_administrativa_equipamento":0,"nm_esfera_administrativa_equipamento":"SEM ESFERA","tx_esfera_administrativa_equipamento":"Sem descrição","cd_equipamento":null,"nm_equipamento":"36° DP - V. Mariana","tx_endereco_equipamento":"RUA TUTÓIA, 921","nm_bairro_equipamento":null,"cd_cep_equipamento":null,"tx_horario_funcionamento":null,"tx_numero_telefone":null,"cd_equipamento_base_origem":null}},{"type":"Feature","id":"equipamento_policia_civil_v2.150151","geometry":{"type":"Point","coordinates":[319384.4093,7385258.0197]},"geometry_name":"ge_ponto","properties":{"cd_identificador":150151,"cd_identificador_tema_equipamento":7,"nm_tema_equipamento":"SEGURANCA","cd_identificador_rede_equipamento":0,"nm_rede_equipamento":"SEM REDE","tx_rede_equipamento":"Sem descrição","cd_identificador_tipo_equipamento":0,"nm_tipo_equipamento":"SEM TIPO","tx_tipo_equipamento":"SEM TIPO","cd_identificador_classe_equipamento":4,"nm_classe_equipamento":"POLICIA CIVIL","tx_classe_equipamento":"POLICIA CIVIL","cd_identificador_esfera_administrativa_equipamento":0,"nm_esfera_administrativa_equipamento":"SEM ESFERA","tx_esfera_administrativa_equipamento":"Sem descrição","cd_equipamento":null,"nm_equipamento":"37° DP - Campo Limpo","tx_endereco_equipamento":"RUA JACARATINGA, 201","nm_bairro_equipamento":null,"cd_cep_equipamento":null,"tx_horario_funcionamento":null,"tx_numero_telefone":null,"cd_equipamento_base_origem":null}},{"type":"Feature","id":"equipamento_policia_civil_v2.150152","geometry":{"type":"Point","coordinates":[331653.4517,7403539.3337]},"geometry_name":"ge_ponto","properties":{"cd_identificador":150152,"cd_identificador_tema_equipamento":7,"nm_tema_equipamento":"SEGURANCA","cd_identificador_rede_equipamento":0,"nm_rede_equipamento":"SEM REDE","tx_rede_equipamento":"Sem descrição","cd_identificador_tipo_equipamento":0,"nm_tipo_equipamento":"SEM TIPO","tx_tipo_equipamento":"SEM TIPO","cd_identificador_classe_equipamento":4,"nm_classe_equipamento":"POLICIA CIVIL","tx_classe_equipamento":"POLICIA CIVIL","cd_identificador_esfera_administrativa_equipamento":0,"nm_esfera_administrativa_equipamento":"SEM ESFERA","tx_esfera_administrativa_equipamento":"Sem descrição","cd_equipamento":null,"nm_equipamento":"38° DP - V. Amália","tx_endereco_equipamento":"AV. PARADA PINTO, 2387","nm_bairro_equipamento":null,"cd_cep_equipamento":null,"tx_horario_funcionamento":null,"tx_numero_telefone":null,"cd_equipamento_base_origem":null}},{"type":"Feature","id":"equipamento_policia_civil_v2.150153","geometry":{"type":"Point","coordinates":[337639.9239,7402086.3334]},"geometry_name":"ge_ponto","properties":{"cd_identificador":150153,"cd_identificador_tema_equipamento":7,"nm_tema_equipamento":"SEGURANCA","cd_identificador_rede_equipamento":0,"nm_rede_equipamento":"SEM REDE","tx_rede_equipamento":"Sem descrição","cd_identificador_tipo_equipamento":0,"nm_tipo_equipamento":"SEM TIPO","tx_tipo_equipamento":"SEM TIPO","cd_identificador_classe_equipamento":4,"nm_classe_equipamento":"POLICIA CIVIL","tx_classe_equipamento":"POLICIA CIVIL","cd_identificador_esfera_administrativa_equipamento":0,"nm_esfera_administrativa_equipamento":"SEM ESFERA","tx_esfera_administrativa_equipamento":"Sem descrição","cd_equipamento":null,"nm_equipamento":"39° DP - V. Gustavo","tx_endereco_equipamento":"RUA DA ESPERANÇA, 797","nm_bairro_equipamento":null,"cd_cep_equipamento":null,"tx_horario_funcionamento":null,"tx_numero_telefone":null,"cd_equipamento_base_origem":null}},{"type":"Feature","id":"equipamento_policia_civil_v2.150154","geometry":{"type":"Point","coordinates":[328660.4058,7400758.6539]},"geometry_name":"ge_ponto","properties":{"cd_identificador":150154,"cd_identificador_tema_equipamento":7,"nm_tema_equipamento":"SEGURANCA","cd_identificador_rede_equipamento":0,"nm_rede_equipamento":"SEM REDE","tx_rede_equipamento":"Sem descrição","cd_identificador_tipo_equipamento":0,"nm_tipo_equipamento":"SEM TIPO","tx_tipo_equipamento":"SEM TIPO","cd_identificador_classe_equipamento":4,"nm_classe_equipamento":"POLICIA CIVIL","tx_classe_equipamento":"POLICIA CIVIL","cd_identificador_esfera_administrativa_equipamento":0,"nm_esfera_administrativa_equipamento":"SEM ESFERA","tx_esfera_administrativa_equipamento":"Sem descrição","cd_equipamento":null,"nm_equipamento":"40° DP - V. Santa Maria","tx_endereco_equipamento":"AV. DEP. EMÍLIO CARLOS, 1251","nm_bairro_equipamento":null,"cd_cep_equipamento":null,"tx_horario_funcionamento":null,"tx_numero_telefone":null,"cd_equipamento_base_origem":null}},{"type":"Feature","id":"equipamento_policia_civil_v2.150155","geometry":{"type":"Point","coordinates":[345144.054,7391523.7268]},"geometry_name":"ge_ponto","properties":{"cd_identificador":150155,"cd_identificador_tema_equipamento":7,"nm_tema_equipamento":"SEGURANCA","cd_identificador_rede_equipamento":0,"nm_rede_equipamento":"SEM REDE","tx_rede_equipamento":"Sem descrição","cd_identificador_tipo_equipamento":0,"nm_tipo_equipamento":"SEM TIPO","tx_tipo_equipamento":"SEM TIPO","cd_identificador_classe_equipamento":4,"nm_classe_equipamento":"POLICIA CIVIL","tx_classe_equipamento":"POLICIA CIVIL","cd_identificador_esfera_administrativa_equipamento":0,"nm_esfera_administrativa_equipamento":"SEM ESFERA","tx_esfera_administrativa_equipamento":"Sem descrição","cd_equipamento":null,"nm_equipamento":"41° DP - V. Rica","tx_endereco_equipamento":"AV. INCONFIDÊNCIA MINEIRA, 688","nm_bairro_equipamento":null,"cd_cep_equipamento":null,"tx_horario_funcionamento":null,"tx_numero_telefone":null,"cd_equipamento_base_origem":null}},{"type":"Feature","id":"equipamento_policia_civil_v2.150156","geometry":{"type":"Point","coordinates":[341503.0612,7390324.7499]},"geometry_name":"ge_ponto","properties":{"cd_identificador":150156,"cd_identificador_tema_equipamento":7,"nm_tema_equipamento":"SEGURANCA","cd_identificador_rede_equipamento":0,"nm_rede_equipamento":"SEM REDE","tx_rede_equipamento":"Sem descrição","cd_identificador_tipo_equipamento":0,"nm_tipo_equipamento":"SEM TIPO","tx_tipo_equipamento":"SEM TIPO","cd_identificador_classe_equipamento":4,"nm_classe_equipamento":"POLICIA CIVIL","tx_classe_equipamento":"POLICIA CIVIL","cd_identificador_esfera_administrativa_equipamento":0,"nm_esfera_administrativa_equipamento":"SEM ESFERA","tx_esfera_administrativa_equipamento":"Sem descrição","cd_equipamento":null,"nm_equipamento":"42° DP - Pq. São Lucas","tx_endereco_equipamento":"AV. ORATÓRIO, 1588","nm_bairro_equipamento":null,"cd_cep_equipamento":null,"tx_horario_funcionamento":null,"tx_numero_telefone":null,"cd_equipamento_base_origem":null}},{"type":"Feature","id":"equipamento_policia_civil_v2.150157","geometry":{"type":"Point","coordinates":[329751.3392,7382787.9648]},"geometry_name":"ge_ponto","properties":{"cd_identificador":150157,"cd_identificador_tema_equipamento":7,"nm_tema_equipamento":"SEGURANCA","cd_identificador_rede_equipamento":0,"nm_rede_equipamento":"SEM REDE","tx_rede_equipamento":"Sem descrição","cd_identificador_tipo_equipamento":0,"nm_tipo_equipamento":"SEM TIPO","tx_tipo_equipamento":"SEM TIPO","cd_identificador_classe_equipamento":4,"nm_classe_equipamento":"POLICIA CIVIL","tx_classe_equipamento":"POLICIA CIVIL","cd_identificador_esfera_administrativa_equipamento":0,"nm_esfera_administrativa_equipamento":"SEM ESFERA","tx_esfera_administrativa_equipamento":"Sem descrição","cd_equipamento":null,"nm_equipamento":"43° DP - Cidade Ademar","tx_endereco_equipamento":"RUA ANTÔNIO GIL, 1349","nm_bairro_equipamento":null,"cd_cep_equipamento":null,"tx_horario_funcionamento":null,"tx_numero_telefone":null,"cd_equipamento_base_origem":null}},{"type":"Feature","id":"equipamento_policia_civil_v2.150158","geometry":{"type":"Point","coordinates":[355181.1021,7395682.0828]},"geometry_name":"ge_ponto","properties":{"cd_identificador":150158,"cd_identificador_tema_equipamento":7,"nm_tema_equipamento":"SEGURANCA","cd_identificador_rede_equipamento":0,"nm_rede_equipamento":"SEM REDE","tx_rede_equipamento":"Sem descrição","cd_identificador_tipo_equipamento":0,"nm_tipo_equipamento":"SEM TIPO","tx_tipo_equipamento":"SEM TIPO","cd_identificador_classe_equipamento":4,"nm_classe_equipamento":"POLICIA CIVIL","tx_classe_equipamento":"POLICIA CIVIL","cd_identificador_esfera_administrativa_equipamento":0,"nm_esfera_administrativa_equipamento":"SEM ESFERA","tx_esfera_administrativa_equipamento":"Sem descrição","cd_equipamento":null,"nm_equipamento":"44° DP - Guaianases","tx_endereco_equipamento":"RUA SALVADOR GIANETTI, 386","nm_bairro_equipamento":null,"cd_cep_equipamento":null,"tx_horario_funcionamento":null,"tx_numero_telefone":null,"cd_equipamento_base_origem":null}},{"type":"Feature","id":"equipamento_policia_civil_v2.150159","geometry":{"type":"Point","coordinates":[327414.2704,7403531.6163]},"geometry_name":"ge_ponto","properties":{"cd_identificador":150159,"cd_identificador_tema_equipamento":7,"nm_tema_equipamento":"SEGURANCA","cd_identificador_rede_equipamento":0,"nm_rede_equipamento":"SEM REDE","tx_rede_equipamento":"Sem descrição","cd_identificador_tipo_equipamento":0,"nm_tipo_equipamento":"SEM TIPO","tx_tipo_equipamento":"SEM TIPO","cd_identificador_classe_equipamento":4,"nm_classe_equipamento":"POLICIA CIVIL","tx_classe_equipamento":"POLICIA CIVIL","cd_identificador_esfera_administrativa_equipamento":0,"nm_esfera_administrativa_equipamento":"SEM ESFERA","tx_esfera_administrativa_equipamento":"Sem descrição","cd_equipamento":null,"nm_equipamento":"45° DP - V. Brasilândia","tx_endereco_equipamento":"RUA JOAQUIM FERREIRA DA ROCHA, 403","nm_bairro_equipamento":null,"cd_cep_equipamento":null,"tx_horario_funcionamento":null,"tx_numero_telefone":null,"cd_equipamento_base_origem":null}},{"type":"Feature","id":"equipamento_policia_civil_v2.150160","geometry":{"type":"Point","coordinates":[322399.2295,7410676.0324]},"geometry_name":"ge_ponto","properties":{"cd_identificador":150160,"cd_identificador_tema_equipamento":7,"nm_tema_equipamento":"SEGURANCA","cd_identificador_rede_equipamento":0,"nm_rede_equipamento":"SEM REDE","tx_rede_equipamento":"Sem descrição","cd_identificador_tipo_equipamento":0,"nm_tipo_equipamento":"SEM TIPO","tx_tipo_equipamento":"SEM TIPO","cd_identificador_classe_equipamento":4,"nm_classe_equipamento":"POLICIA CIVIL","tx_classe_equipamento":"POLICIA CIVIL","cd_identificador_esfera_administrativa_equipamento":0,"nm_esfera_administrativa_equipamento":"SEM ESFERA","tx_esfera_administrativa_equipamento":"Sem descrição","cd_equipamento":null,"nm_equipamento":"46° DP - Perus","tx_endereco_equipamento":"RUA FIORELLI PECICACCO, 320","nm_bairro_equipamento":null,"cd_cep_equipamento":null,"tx_horario_funcionamento":null,"tx_numero_telefone":null,"cd_equipamento_base_origem":null}},{"type":"Feature","id":"equipamento_policia_civil_v2.150161","geometry":{"type":"Point","coordinates":[318165.2016,7381762.3622]},"geometry_name":"ge_ponto","properties":{"cd_identificador":150161,"cd_identificador_tema_equipamento":7,"nm_tema_equipamento":"SEGURANCA","cd_identificador_rede_equipamento":0,"nm_rede_equipamento":"SEM REDE","tx_rede_equipamento":"Sem descrição","cd_identificador_tipo_equipamento":0,"nm_tipo_equipamento":"SEM TIPO","tx_tipo_equipamento":"SEM TIPO","cd_identificador_classe_equipamento":4,"nm_classe_equipamento":"POLICIA CIVIL","tx_classe_equipamento":"POLICIA CIVIL","cd_identificador_esfera_administrativa_equipamento":0,"nm_esfera_administrativa_equipamento":"SEM ESFERA","tx_esfera_administrativa_equipamento":"Sem descrição","cd_equipamento":null,"nm_equipamento":"47° DP - Capão Redondo","tx_endereco_equipamento":"ESTR. DE ITAPECERICA, 5864","nm_bairro_equipamento":null,"cd_cep_equipamento":null,"tx_horario_funcionamento":null,"tx_numero_telefone":null,"cd_equipamento_base_origem":null}},{"type":"Feature","id":"equipamento_policia_civil_v2.150162","geometry":{"type":"Point","coordinates":[327127.514,7376611.7105]},"geometry_name":"ge_ponto","properties":{"cd_identificador":150162,"cd_identificador_tema_equipamento":7,"nm_tema_equipamento":"SEGURANCA","cd_identificador_rede_equipamento":0,"nm_rede_equipamento":"SEM REDE","tx_rede_equipamento":"Sem descrição","cd_identificador_tipo_equipamento":0,"nm_tipo_equipamento":"SEM TIPO","tx_tipo_equipamento":"SEM TIPO","cd_identificador_classe_equipamento":4,"nm_classe_equipamento":"POLICIA CIVIL","tx_classe_equipamento":"POLICIA CIVIL","cd_identificador_esfera_administrativa_equipamento":0,"nm_esfera_administrativa_equipamento":"SEM ESFERA","tx_esfera_administrativa_equipamento":"Sem descrição","cd_equipamento":null,"nm_equipamento":"48° DP - Cidade Dutra","tx_endereco_equipamento":"RUA ANÍBAL DOS ANJOS CARVALHO, 87","nm_bairro_equipamento":null,"cd_cep_equipamento":null,"tx_horario_funcionamento":null,"tx_numero_telefone":null,"cd_equipamento_base_origem":null}},{"type":"Feature","id":"equipamento_policia_civil_v2.150163","geometry":{"type":"Point","coordinates":[349945.6629,7388679.4966]},"geometry_name":"ge_ponto","properties":{"cd_identificador":150163,"cd_identificador_tema_equipamento":7,"nm_tema_equipamento":"SEGURANCA","cd_identificador_rede_equipamento":0,"nm_rede_equipamento":"SEM REDE","tx_rede_equipamento":"Sem descrição","cd_identificador_tipo_equipamento":0,"nm_tipo_equipamento":"SEM TIPO","tx_tipo_equipamento":"SEM TIPO","cd_identificador_classe_equipamento":4,"nm_classe_equipamento":"POLICIA CIVIL","tx_classe_equipamento":"POLICIA CIVIL","cd_identificador_esfera_administrativa_equipamento":0,"nm_esfera_administrativa_equipamento":"SEM ESFERA","tx_esfera_administrativa_equipamento":"Sem descrição","cd_equipamento":null,"nm_equipamento":"49° DP - São Mateus","tx_endereco_equipamento":"AV. RAGUEB CHOHFI, 870","nm_bairro_equipamento":null,"cd_cep_equipamento":null,"tx_horario_funcionamento":null,"tx_numero_telefone":null,"cd_equipamento_base_origem":null}},{"type":"Feature","id":"equipamento_policia_civil_v2.150164","geometry":{"type":"Point","coordinates":[357388.2825,7399925.4765]},"geometry_name":"ge_ponto","properties":{"cd_identificador":150164,"cd_identificador_tema_equipamento":7,"nm_tema_equipamento":"SEGURANCA","cd_identificador_rede_equipamento":0,"nm_rede_equipamento":"SEM REDE","tx_rede_equipamento":"Sem descrição","cd_identificador_tipo_equipamento":0,"nm_tipo_equipamento":"SEM TIPO","tx_tipo_equipamento":"SEM TIPO","cd_identificador_classe_equipamento":4,"nm_classe_equipamento":"POLICIA CIVIL","tx_classe_equipamento":"POLICIA CIVIL","cd_identificador_esfera_administrativa_equipamento":0,"nm_esfera_administrativa_equipamento":"SEM ESFERA","tx_esfera_administrativa_equipamento":"Sem descrição","cd_equipamento":null,"nm_equipamento":"50° DP - Itaim Paulista","tx_endereco_equipamento":"RUA TIBÚRCIO DE SOUZA, 860","nm_bairro_equipamento":null,"cd_cep_equipamento":null,"tx_horario_funcionamento":null,"tx_numero_telefone":null,"cd_equipamento_base_origem":null}},{"type":"Feature","id":"equipamento_policia_civil_v2.150165","geometry":{"type":"Point","coordinates":[324201.3256,7392120.6686]},"geometry_name":"ge_ponto","properties":{"cd_identificador":150165,"cd_identificador_tema_equipamento":7,"nm_tema_equipamento":"SEGURANCA","cd_identificador_rede_equipamento":0,"nm_rede_equipamento":"SEM REDE","tx_rede_equipamento":"Sem descrição","cd_identificador_tipo_equipamento":0,"nm_tipo_equipamento":"SEM TIPO","tx_tipo_equipamento":"SEM TIPO","cd_identificador_classe_equipamento":4,"nm_classe_equipamento":"POLICIA CIVIL","tx_classe_equipamento":"POLICIA CIVIL","cd_identificador_esfera_administrativa_equipamento":0,"nm_esfera_administrativa_equipamento":"SEM ESFERA","tx_esfera_administrativa_equipamento":"Sem descrição","cd_equipamento":null,"nm_equipamento":"51° DP - Rio Pequeno/Butantã","tx_endereco_equipamento":"RUA BARROSO NETO, 46","nm_bairro_equipamento":null,"cd_cep_equipamento":null,"tx_horario_funcionamento":null,"tx_numero_telefone":null,"cd_equipamento_base_origem":null}},{"type":"Feature","id":"equipamento_policia_civil_v2.150166","geometry":{"type":"Point","coordinates":[340410.7215,7396224.9407]},"geometry_name":"ge_ponto","properties":{"cd_identificador":150166,"cd_identificador_tema_equipamento":7,"nm_tema_equipamento":"SEGURANCA","cd_identificador_rede_equipamento":0,"nm_rede_equipamento":"SEM REDE","tx_rede_equipamento":"Sem descrição","cd_identificador_tipo_equipamento":0,"nm_tipo_equipamento":"SEM TIPO","tx_tipo_equipamento":"SEM TIPO","cd_identificador_classe_equipamento":4,"nm_classe_equipamento":"POLICIA CIVIL","tx_classe_equipamento":"POLICIA CIVIL","cd_identificador_esfera_administrativa_equipamento":0,"nm_esfera_administrativa_equipamento":"SEM ESFERA","tx_esfera_administrativa_equipamento":"Sem descrição","cd_equipamento":null,"nm_equipamento":"52° DP - Pq. São Jorge","tx_endereco_equipamento":"RUA DR. CORINTO BALDOÍNO COSTA, 400","nm_bairro_equipamento":null,"cd_cep_equipamento":null,"tx_horario_funcionamento":null,"tx_numero_telefone":null,"cd_equipamento_base_origem":null}},{"type":"Feature","id":"equipamento_policia_civil_v2.150167","geometry":{"type":"Point","coordinates":[350289.8287,7393011.5334]},"geometry_name":"ge_ponto","properties":{"cd_identificador":150167,"cd_identificador_tema_equipamento":7,"nm_tema_equipamento":"SEGURANCA","cd_identificador_rede_equipamento":0,"nm_rede_equipamento":"SEM REDE","tx_rede_equipamento":"Sem descrição","cd_identificador_tipo_equipamento":0,"nm_tipo_equipamento":"SEM TIPO","tx_tipo_equipamento":"SEM TIPO","cd_identificador_classe_equipamento":4,"nm_classe_equipamento":"POLICIA CIVIL","tx_classe_equipamento":"POLICIA CIVIL","cd_identificador_esfera_administrativa_equipamento":0,"nm_esfera_administrativa_equipamento":"SEM ESFERA","tx_esfera_administrativa_equipamento":"Sem descrição","cd_equipamento":null,"nm_equipamento":"53° DP - Pq. do Carmo","tx_endereco_equipamento":"RUA OSVALDO PUCCI, 180","nm_bairro_equipamento":null,"cd_cep_equipamento":null,"tx_horario_funcionamento":null,"tx_numero_telefone":null,"cd_equipamento_base_origem":null}},{"type":"Feature","id":"equipamento_policia_civil_v2.150168","geometry":{"type":"Point","coordinates":[357040.3295,7388779.462]},"geometry_name":"ge_ponto","properties":{"cd_identificador":150168,"cd_identificador_tema_equipamento":7,"nm_tema_equipamento":"SEGURANCA","cd_identificador_rede_equipamento":0,"nm_rede_equipamento":"SEM REDE","tx_rede_equipamento":"Sem descrição","cd_identificador_tipo_equipamento":0,"nm_tipo_equipamento":"SEM TIPO","tx_tipo_equipamento":"SEM TIPO","cd_identificador_classe_equipamento":4,"nm_classe_equipamento":"POLICIA CIVIL","tx_classe_equipamento":"POLICIA CIVIL","cd_identificador_esfera_administrativa_equipamento":0,"nm_esfera_administrativa_equipamento":"SEM ESFERA","tx_esfera_administrativa_equipamento":"Sem descrição","cd_equipamento":null,"nm_equipamento":"54° DP - Cidade Tiradentes","tx_endereco_equipamento":"RUA FRANCISCO JOSÉ VIANA, 175","nm_bairro_equipamento":null,"cd_cep_equipamento":null,"tx_horario_funcionamento":null,"tx_numero_telefone":null,"cd_equipamento_base_origem":null}},{"type":"Feature","id":"equipamento_policia_civil_v2.150169","geometry":{"type":"Point","coordinates":[350027.572,7386674.1484]},"geometry_name":"ge_ponto","properties":{"cd_identificador":150169,"cd_identificador_tema_equipamento":7,"nm_tema_equipamento":"SEGURANCA","cd_identificador_rede_equipamento":0,"nm_rede_equipamento":"SEM REDE","tx_rede_equipamento":"Sem descrição","cd_identificador_tipo_equipamento":0,"nm_tipo_equipamento":"SEM TIPO","tx_tipo_equipamento":"SEM TIPO","cd_identificador_classe_equipamento":4,"nm_classe_equipamento":"POLICIA CIVIL","tx_classe_equipamento":"POLICIA CIVIL","cd_identificador_esfera_administrativa_equipamento":0,"nm_esfera_administrativa_equipamento":"SEM ESFERA","tx_esfera_administrativa_equipamento":"Sem descrição","cd_equipamento":null,"nm_equipamento":"55° DP - Pq. São Rafael","tx_endereco_equipamento":"RUA ALDEIA DE SANTO INÁCIO, 696","nm_bairro_equipamento":null,"cd_cep_equipamento":null,"tx_horario_funcionamento":null,"tx_numero_telefone":null,"cd_equipamento_base_origem":null}},{"type":"Feature","id":"equipamento_policia_civil_v2.150170","geometry":{"type":"Point","coordinates":[340091.6826,7389874.5182]},"geometry_name":"ge_ponto","properties":{"cd_identificador":150170,"cd_identificador_tema_equipamento":7,"nm_tema_equipamento":"SEGURANCA","cd_identificador_rede_equipamento":0,"nm_rede_equipamento":"SEM REDE","tx_rede_equipamento":"Sem descrição","cd_identificador_tipo_equipamento":0,"nm_tipo_equipamento":"SEM TIPO","tx_tipo_equipamento":"SEM TIPO","cd_identificador_classe_equipamento":4,"nm_classe_equipamento":"POLICIA CIVIL","tx_classe_equipamento":"POLICIA CIVIL","cd_identificador_esfera_administrativa_equipamento":0,"nm_esfera_administrativa_equipamento":"SEM ESFERA","tx_esfera_administrativa_equipamento":"Sem descrição","cd_equipamento":null,"nm_equipamento":"56° DP - V. Alpina","tx_endereco_equipamento":"RUA DRA. ESMERALDA MENDES POLICINE, 264","nm_bairro_equipamento":null,"cd_cep_equipamento":null,"tx_horario_funcionamento":null,"tx_numero_telefone":null,"cd_equipamento_base_origem":null}},{"type":"Feature","id":"equipamento_policia_civil_v2.150171","geometry":{"type":"Point","coordinates":[338284.0635,7392611.6896]},"geometry_name":"ge_ponto","properties":{"cd_identificador":150171,"cd_identificador_tema_equipamento":7,"nm_tema_equipamento":"SEGURANCA","cd_identificador_rede_equipamento":0,"nm_rede_equipamento":"SEM REDE","tx_rede_equipamento":"Sem descrição","cd_identificador_tipo_equipamento":0,"nm_tipo_equipamento":"SEM TIPO","tx_tipo_equipamento":"SEM TIPO","cd_identificador_classe_equipamento":4,"nm_classe_equipamento":"POLICIA CIVIL","tx_classe_equipamento":"POLICIA CIVIL","cd_identificador_esfera_administrativa_equipamento":0,"nm_esfera_administrativa_equipamento":"SEM ESFERA","tx_esfera_administrativa_equipamento":"Sem descrição","cd_equipamento":null,"nm_equipamento":"57° DP - Pq. da Moóca","tx_endereco_equipamento":"RUA DO ORATÓRIO, 2220","nm_bairro_equipamento":null,"cd_cep_equipamento":null,"tx_horario_funcionamento":null,"tx_numero_telefone":null,"cd_equipamento_base_origem":null}},{"type":"Feature","id":"equipamento_policia_civil_v2.150172","geometry":{"type":"Point","coordinates":[342293.5734,7393360.1359]},"geometry_name":"ge_ponto","properties":{"cd_identificador":150172,"cd_identificador_tema_equipamento":7,"nm_tema_equipamento":"SEGURANCA","cd_identificador_rede_equipamento":0,"nm_rede_equipamento":"SEM REDE","tx_rede_equipamento":"Sem descrição","cd_identificador_tipo_equipamento":0,"nm_tipo_equipamento":"SEM TIPO","tx_tipo_equipamento":"SEM TIPO","cd_identificador_classe_equipamento":4,"nm_classe_equipamento":"POLICIA CIVIL","tx_classe_equipamento":"POLICIA CIVIL","cd_identificador_esfera_administrativa_equipamento":0,"nm_esfera_administrativa_equipamento":"SEM ESFERA","tx_esfera_administrativa_equipamento":"Sem descrição","cd_equipamento":null,"nm_equipamento":"58° DP - V. Formosa","tx_endereco_equipamento":"RUA ANTÚRIOS, 362","nm_bairro_equipamento":null,"cd_cep_equipamento":null,"tx_horario_funcionamento":null,"tx_numero_telefone":null,"cd_equipamento_base_origem":null}},{"type":"Feature","id":"equipamento_policia_civil_v2.150173","geometry":{"type":"Point","coordinates":[356001.9502,7401795.7681]},"geometry_name":"ge_ponto","properties":{"cd_identificador":150173,"cd_identificador_tema_equipamento":7,"nm_tema_equipamento":"SEGURANCA","cd_identificador_rede_equipamento":0,"nm_rede_equipamento":"SEM REDE","tx_rede_equipamento":"Sem descrição","cd_identificador_tipo_equipamento":0,"nm_tipo_equipamento":"SEM TIPO","tx_tipo_equipamento":"SEM TIPO","cd_identificador_classe_equipamento":4,"nm_classe_equipamento":"POLICIA CIVIL","tx_classe_equipamento":"POLICIA CIVIL","cd_identificador_esfera_administrativa_equipamento":0,"nm_esfera_administrativa_equipamento":"SEM ESFERA","tx_esfera_administrativa_equipamento":"Sem descrição","cd_equipamento":null,"nm_equipamento":"59° DP - Jd. Noêmia","tx_endereco_equipamento":"RUA VISTOSA DA MADRE DE DEUS, 120","nm_bairro_equipamento":null,"cd_cep_equipamento":null,"tx_horario_funcionamento":null,"tx_numero_telefone":null,"cd_equipamento_base_origem":null}},{"type":"Feature","id":"equipamento_policia_civil_v2.150174","geometry":{"type":"Point","coordinates":[348660.1997,7401518.4104]},"geometry_name":"ge_ponto","properties":{"cd_identificador":150174,"cd_identificador_tema_equipamento":7,"nm_tema_equipamento":"SEGURANCA","cd_identificador_rede_equipamento":0,"nm_rede_equipamento":"SEM REDE","tx_rede_equipamento":"Sem descrição","cd_identificador_tipo_equipamento":0,"nm_tipo_equipamento":"SEM TIPO","tx_tipo_equipamento":"SEM TIPO","cd_identificador_classe_equipamento":4,"nm_classe_equipamento":"POLICIA CIVIL","tx_classe_equipamento":"POLICIA CIVIL","cd_identificador_esfera_administrativa_equipamento":0,"nm_esfera_administrativa_equipamento":"SEM ESFERA","tx_esfera_administrativa_equipamento":"Sem descrição","cd_equipamento":null,"nm_equipamento":"62° DP - Ermelino Matarazzo","tx_endereco_equipamento":"RUA RUY PIROZZELLI, 250","nm_bairro_equipamento":null,"cd_cep_equipamento":null,"tx_horario_funcionamento":null,"tx_numero_telefone":null,"cd_equipamento_base_origem":null}},{"type":"Feature","id":"equipamento_policia_civil_v2.150175","geometry":{"type":"Point","coordinates":[352329.5205,7399357.1369]},"geometry_name":"ge_ponto","properties":{"cd_identificador":150175,"cd_identificador_tema_equipamento":7,"nm_tema_equipamento":"SEGURANCA","cd_identificador_rede_equipamento":0,"nm_rede_equipamento":"SEM REDE","tx_rede_equipamento":"Sem descrição","cd_identificador_tipo_equipamento":0,"nm_tipo_equipamento":"SEM TIPO","tx_tipo_equipamento":"SEM TIPO","cd_identificador_classe_equipamento":4,"nm_classe_equipamento":"POLICIA CIVIL","tx_classe_equipamento":"POLICIA CIVIL","cd_identificador_esfera_administrativa_equipamento":0,"nm_esfera_administrativa_equipamento":"SEM ESFERA","tx_esfera_administrativa_equipamento":"Sem descrição","cd_equipamento":null,"nm_equipamento":"63° DP - V. Jacuí","tx_endereco_equipamento":"RUA DRÍADES, 50","nm_bairro_equipamento":null,"cd_cep_equipamento":null,"tx_horario_funcionamento":null,"tx_numero_telefone":null,"cd_equipamento_base_origem":null}},{"type":"Feature","id":"equipamento_policia_civil_v2.150176","geometry":{"type":"Point","coordinates":[349370.8508,7397686.1809]},"geometry_name":"ge_ponto","properties":{"cd_identificador":150176,"cd_identificador_tema_equipamento":7,"nm_tema_equipamento":"SEGURANCA","cd_identificador_rede_equipamento":0,"nm_rede_equipamento":"SEM REDE","tx_rede_equipamento":"Sem descrição","cd_identificador_tipo_equipamento":0,"nm_tipo_equipamento":"SEM TIPO","tx_tipo_equipamento":"SEM TIPO","cd_identificador_classe_equipamento":4,"nm_classe_equipamento":"POLICIA CIVIL","tx_classe_equipamento":"POLICIA CIVIL","cd_identificador_esfera_administrativa_equipamento":0,"nm_esfera_administrativa_equipamento":"SEM ESFERA","tx_esfera_administrativa_equipamento":"Sem descrição","cd_equipamento":null,"nm_equipamento":"64° DP - Cidade A E Carvalho","tx_endereco_equipamento":"RUA SONHO GAÚCHO, 638","nm_bairro_equipamento":null,"cd_cep_equipamento":null,"tx_horario_funcionamento":null,"tx_numero_telefone":null,"cd_equipamento_base_origem":null}},{"type":"Feature","id":"equipamento_policia_civil_v2.150177","geometry":{"type":"Point","coordinates":[348782.9592,7395502.8233]},"geometry_name":"ge_ponto","properties":{"cd_identificador":150177,"cd_identificador_tema_equipamento":7,"nm_tema_equipamento":"SEGURANCA","cd_identificador_rede_equipamento":0,"nm_rede_equipamento":"SEM REDE","tx_rede_equipamento":"Sem descrição","cd_identificador_tipo_equipamento":0,"nm_tipo_equipamento":"SEM TIPO","tx_tipo_equipamento":"SEM TIPO","cd_identificador_classe_equipamento":4,"nm_classe_equipamento":"POLICIA CIVIL","tx_classe_equipamento":"POLICIA CIVIL","cd_identificador_esfera_administrativa_equipamento":0,"nm_esfera_administrativa_equipamento":"SEM ESFERA","tx_esfera_administrativa_equipamento":"Sem descrição","cd_equipamento":null,"nm_equipamento":"65° DP - Artur Alvim","tx_endereco_equipamento":"AV. PE. ESTANISLAU DE CAMPOS, 750","nm_bairro_equipamento":null,"cd_cep_equipamento":null,"tx_horario_funcionamento":null,"tx_numero_telefone":null,"cd_equipamento_base_origem":null}},{"type":"Feature","id":"equipamento_policia_civil_v2.150178","geometry":{"type":"Point","coordinates":[347674.8963,7394283.7467]},"geometry_name":"ge_ponto","properties":{"cd_identificador":150178,"cd_identificador_tema_equipamento":7,"nm_tema_equipamento":"SEGURANCA","cd_identificador_rede_equipamento":0,"nm_rede_equipamento":"SEM REDE","tx_rede_equipamento":"Sem descrição","cd_identificador_tipo_equipamento":0,"nm_tipo_equipamento":"SEM TIPO","tx_tipo_equipamento":"SEM TIPO","cd_identificador_classe_equipamento":4,"nm_classe_equipamento":"POLICIA CIVIL","tx_classe_equipamento":"POLICIA CIVIL","cd_identificador_esfera_administrativa_equipamento":0,"nm_esfera_administrativa_equipamento":"SEM ESFERA","tx_esfera_administrativa_equipamento":"Sem descrição","cd_equipamento":null,"nm_equipamento":"66° DP - Vale do Aricanduva","tx_endereco_equipamento":"AV. OSVALDO VALLE CORDEIRO, 190","nm_bairro_equipamento":null,"cd_cep_equipamento":null,"tx_horario_funcionamento":null,"tx_numero_telefone":null,"cd_equipamento_base_origem":null}},{"type":"Feature","id":"equipamento_policia_civil_v2.150179","geometry":{"type":"Point","coordinates":[355898.5289,7398183.1489]},"geometry_name":"ge_ponto","properties":{"cd_identificador":150179,"cd_identificador_tema_equipamento":7,"nm_tema_equipamento":"SEGURANCA","cd_identificador_rede_equipamento":0,"nm_rede_equipamento":"SEM REDE","tx_rede_equipamento":"Sem descrição","cd_identificador_tipo_equipamento":0,"nm_tipo_equipamento":"SEM TIPO","tx_tipo_equipamento":"SEM TIPO","cd_identificador_classe_equipamento":4,"nm_classe_equipamento":"POLICIA CIVIL","tx_classe_equipamento":"POLICIA CIVIL","cd_identificador_esfera_administrativa_equipamento":0,"nm_esfera_administrativa_equipamento":"SEM ESFERA","tx_esfera_administrativa_equipamento":"Sem descrição","cd_equipamento":null,"nm_equipamento":"67° DP - Jd. Robru","tx_endereco_equipamento":"RUA SEVERINO JOSÉ FERNANDES, 1900","nm_bairro_equipamento":null,"cd_cep_equipamento":null,"tx_horario_funcionamento":null,"tx_numero_telefone":null,"cd_equipamento_base_origem":null}},{"type":"Feature","id":"equipamento_policia_civil_v2.150180","geometry":{"type":"Point","coordinates":[357332.5892,7396298.8484]},"geometry_name":"ge_ponto","properties":{"cd_identificador":150180,"cd_identificador_tema_equipamento":7,"nm_tema_equipamento":"SEGURANCA","cd_identificador_rede_equipamento":0,"nm_rede_equipamento":"SEM REDE","tx_rede_equipamento":"Sem descrição","cd_identificador_tipo_equipamento":0,"nm_tipo_equipamento":"SEM TIPO","tx_tipo_equipamento":"SEM TIPO","cd_identificador_classe_equipamento":4,"nm_classe_equipamento":"POLICIA CIVIL","tx_classe_equipamento":"POLICIA CIVIL","cd_identificador_esfera_administrativa_equipamento":0,"nm_esfera_administrativa_equipamento":"SEM ESFERA","tx_esfera_administrativa_equipamento":"Sem descrição","cd_equipamento":null,"nm_equipamento":"68° DP - Lajeado","tx_endereco_equipamento":"RUA JOÃO DA SILVA AGUIAR, 850","nm_bairro_equipamento":null,"cd_cep_equipamento":null,"tx_horario_funcionamento":null,"tx_numero_telefone":null,"cd_equipamento_base_origem":null}},{"type":"Feature","id":"equipamento_policia_civil_v2.150181","geometry":{"type":"Point","coordinates":[346878.7392,7388339.7342]},"geometry_name":"ge_ponto","properties":{"cd_identificador":150181,"cd_identificador_tema_equipamento":7,"nm_tema_equipamento":"SEGURANCA","cd_identificador_rede_equipamento":0,"nm_rede_equipamento":"SEM REDE","tx_rede_equipamento":"Sem descrição","cd_identificador_tipo_equipamento":0,"nm_tipo_equipamento":"SEM TIPO","tx_tipo_equipamento":"SEM TIPO","cd_identificador_classe_equipamento":4,"nm_classe_equipamento":"POLICIA CIVIL","tx_classe_equipamento":"POLICIA CIVIL","cd_identificador_esfera_administrativa_equipamento":0,"nm_esfera_administrativa_equipamento":"SEM ESFERA","tx_esfera_administrativa_equipamento":"Sem descrição","cd_equipamento":null,"nm_equipamento":"69° DP - Teotônio Vilela","tx_endereco_equipamento":"RUA ARQ. VILA NOVA ARTIGAS, 720","nm_bairro_equipamento":null,"cd_cep_equipamento":null,"tx_horario_funcionamento":null,"tx_numero_telefone":null,"cd_equipamento_base_origem":null}},{"type":"Feature","id":"equipamento_policia_civil_v2.150182","geometry":{"type":"Point","coordinates":[343572.1946,7389350.8905]},"geometry_name":"ge_ponto","properties":{"cd_identificador":150182,"cd_identificador_tema_equipamento":7,"nm_tema_equipamento":"SEGURANCA","cd_identificador_rede_equipamento":0,"nm_rede_equipamento":"SEM REDE","tx_rede_equipamento":"Sem descrição","cd_identificador_tipo_equipamento":0,"nm_tipo_equipamento":"SEM TIPO","tx_tipo_equipamento":"SEM TIPO","cd_identificador_classe_equipamento":4,"nm_classe_equipamento":"POLICIA CIVIL","tx_classe_equipamento":"POLICIA CIVIL","cd_identificador_esfera_administrativa_equipamento":0,"nm_esfera_administrativa_equipamento":"SEM ESFERA","tx_esfera_administrativa_equipamento":"Sem descrição","cd_equipamento":null,"nm_equipamento":"70° DP - Sapopemba","tx_endereco_equipamento":"RUA OTÁVIO ALVES DUNDAS, 390","nm_bairro_equipamento":null,"cd_cep_equipamento":null,"tx_horario_funcionamento":null,"tx_numero_telefone":null,"cd_equipamento_base_origem":null}},{"type":"Feature","id":"equipamento_policia_civil_v2.150183","geometry":{"type":"Point","coordinates":[328533.2747,7404166.5937]},"geometry_name":"ge_ponto","properties":{"cd_identificador":150183,"cd_identificador_tema_equipamento":7,"nm_tema_equipamento":"SEGURANCA","cd_identificador_rede_equipamento":0,"nm_rede_equipamento":"SEM REDE","tx_rede_equipamento":"Sem descrição","cd_identificador_tipo_equipamento":0,"nm_tipo_equipamento":"SEM TIPO","tx_tipo_equipamento":"SEM TIPO","cd_identificador_classe_equipamento":4,"nm_classe_equipamento":"POLICIA CIVIL","tx_classe_equipamento":"POLICIA CIVIL","cd_identificador_esfera_administrativa_equipamento":0,"nm_esfera_administrativa_equipamento":"SEM ESFERA","tx_esfera_administrativa_equipamento":"Sem descrição","cd_equipamento":null,"nm_equipamento":"72° DP - V. Penteado","tx_endereco_equipamento":"RUA RUA SILVIO BUENO PERUCHE, 500","nm_bairro_equipamento":null,"cd_cep_equipamento":null,"tx_horario_funcionamento":null,"tx_numero_telefone":null,"cd_equipamento_base_origem":null}},{"type":"Feature","id":"equipamento_policia_civil_v2.150184","geometry":{"type":"Point","coordinates":[338072.6197,7404813.798]},"geometry_name":"ge_ponto","properties":{"cd_identificador":150184,"cd_identificador_tema_equipamento":7,"nm_tema_equipamento":"SEGURANCA","cd_identificador_rede_equipamento":0,"nm_rede_equipamento":"SEM REDE","tx_rede_equipamento":"Sem descrição","cd_identificador_tipo_equipamento":0,"nm_tipo_equipamento":"SEM TIPO","tx_tipo_equipamento":"SEM TIPO","cd_identificador_classe_equipamento":4,"nm_classe_equipamento":"POLICIA CIVIL","tx_classe_equipamento":"POLICIA CIVIL","cd_identificador_esfera_administrativa_equipamento":0,"nm_esfera_administrativa_equipamento":"SEM ESFERA","tx_esfera_administrativa_equipamento":"Sem descrição","cd_equipamento":null,"nm_equipamento":"73° DP - Jaçanã","tx_endereco_equipamento":"AV. PAULO LINCOLN DO VALE PONTIM, 744","nm_bairro_equipamento":null,"cd_cep_equipamento":null,"tx_horario_funcionamento":null,"tx_numero_telefone":null,"cd_equipamento_base_origem":null}},{"type":"Feature","id":"equipamento_policia_civil_v2.150185","geometry":{"type":"Point","coordinates":[324614.2398,7406091.5295]},"geometry_name":"ge_ponto","properties":{"cd_identificador":150185,"cd_identificador_tema_equipamento":7,"nm_tema_equipamento":"SEGURANCA","cd_identificador_rede_equipamento":0,"nm_rede_equipamento":"SEM REDE","tx_rede_equipamento":"Sem descrição","cd_identificador_tipo_equipamento":0,"nm_tipo_equipamento":"SEM TIPO","tx_tipo_equipamento":"SEM TIPO","cd_identificador_classe_equipamento":4,"nm_classe_equipamento":"POLICIA CIVIL","tx_classe_equipamento":"POLICIA CIVIL","cd_identificador_esfera_administrativa_equipamento":0,"nm_esfera_administrativa_equipamento":"SEM ESFERA","tx_esfera_administrativa_equipamento":"Sem descrição","cd_equipamento":null,"nm_equipamento":"74° DP - Jaraguá","tx_endereco_equipamento":"AV. ELÍSIO TEIXEIRA LEITE, 7461","nm_bairro_equipamento":null,"cd_cep_equipamento":null,"tx_horario_funcionamento":null,"tx_numero_telefone":null,"cd_equipamento_base_origem":null}},{"type":"Feature","id":"equipamento_policia_civil_v2.150186","geometry":{"type":"Point","coordinates":[316738.0793,7389206.6855]},"geometry_name":"ge_ponto","properties":{"cd_identificador":150186,"cd_identificador_tema_equipamento":7,"nm_tema_equipamento":"SEGURANCA","cd_identificador_rede_equipamento":0,"nm_rede_equipamento":"SEM REDE","tx_rede_equipamento":"Sem descrição","cd_identificador_tipo_equipamento":0,"nm_tipo_equipamento":"SEM TIPO","tx_tipo_equipamento":"SEM TIPO","cd_identificador_classe_equipamento":4,"nm_classe_equipamento":"POLICIA CIVIL","tx_classe_equipamento":"POLICIA CIVIL","cd_identificador_esfera_administrativa_equipamento":0,"nm_esfera_administrativa_equipamento":"SEM ESFERA","tx_esfera_administrativa_equipamento":"Sem descrição","cd_equipamento":null,"nm_equipamento":"75° DP - Jd. Arpoador","tx_endereco_equipamento":"RUA MÁRIO ANCONA, 530","nm_bairro_equipamento":null,"cd_cep_equipamento":null,"tx_horario_funcionamento":null,"tx_numero_telefone":null,"cd_equipamento_base_origem":null}},{"type":"Feature","id":"equipamento_policia_civil_v2.150187","geometry":{"type":"Point","coordinates":[331673.4304,7396101.8438]},"geometry_name":"ge_ponto","properties":{"cd_identificador":150187,"cd_identificador_tema_equipamento":7,"nm_tema_equipamento":"SEGURANCA","cd_identificador_rede_equipamento":0,"nm_rede_equipamento":"SEM REDE","tx_rede_equipamento":"Sem descrição","cd_identificador_tipo_equipamento":0,"nm_tipo_equipamento":"SEM TIPO","tx_tipo_equipamento":"SEM TIPO","cd_identificador_classe_equipamento":4,"nm_classe_equipamento":"POLICIA CIVIL","tx_classe_equipamento":"POLICIA CIVIL","cd_identificador_esfera_administrativa_equipamento":0,"nm_esfera_administrativa_equipamento":"SEM ESFERA","tx_esfera_administrativa_equipamento":"Sem descrição","cd_equipamento":null,"nm_equipamento":"77° DP - Santa Cecília","tx_endereco_equipamento":"AL. GLETE, 827","nm_bairro_equipamento":null,"cd_cep_equipamento":null,"tx_horario_funcionamento":null,"tx_numero_telefone":null,"cd_equipamento_base_origem":null}},{"type":"Feature","id":"equipamento_policia_civil_v2.150188","geometry":{"type":"Point","coordinates":[329633.9254,7392821.5027]},"geometry_name":"ge_ponto","properties":{"cd_identificador":150188,"cd_identificador_tema_equipamento":7,"nm_tema_equipamento":"SEGURANCA","cd_identificador_rede_equipamento":0,"nm_rede_equipamento":"SEM REDE","tx_rede_equipamento":"Sem descrição","cd_identificador_tipo_equipamento":0,"nm_tipo_equipamento":"SEM TIPO","tx_tipo_equipamento":"SEM TIPO","cd_identificador_classe_equipamento":4,"nm_classe_equipamento":"POLICIA CIVIL","tx_classe_equipamento":"POLICIA CIVIL","cd_identificador_esfera_administrativa_equipamento":0,"nm_esfera_administrativa_equipamento":"SEM ESFERA","tx_esfera_administrativa_equipamento":"Sem descrição","cd_equipamento":null,"nm_equipamento":"78° DP - Jardins","tx_endereco_equipamento":"RUA ESTADOS UNIDOS, 1608","nm_bairro_equipamento":null,"cd_cep_equipamento":null,"tx_horario_funcionamento":null,"tx_numero_telefone":null,"cd_equipamento_base_origem":null}},{"type":"Feature","id":"equipamento_policia_civil_v2.150189","geometry":{"type":"Point","coordinates":[330771.205,7380972.8168]},"geometry_name":"ge_ponto","properties":{"cd_identificador":150189,"cd_identificador_tema_equipamento":7,"nm_tema_equipamento":"SEGURANCA","cd_identificador_rede_equipamento":0,"nm_rede_equipamento":"SEM REDE","tx_rede_equipamento":"Sem descrição","cd_identificador_tipo_equipamento":0,"nm_tipo_equipamento":"SEM TIPO","tx_tipo_equipamento":"SEM TIPO","cd_identificador_classe_equipamento":4,"nm_classe_equipamento":"POLICIA CIVIL","tx_classe_equipamento":"POLICIA CIVIL","cd_identificador_esfera_administrativa_equipamento":0,"nm_esfera_administrativa_equipamento":"SEM ESFERA","tx_esfera_administrativa_equipamento":"Sem descrição","cd_equipamento":null,"nm_equipamento":"80° DP - V. Joaniza","tx_endereco_equipamento":"RUA LEONEL DA GAMA BELES, S/N","nm_bairro_equipamento":null,"cd_cep_equipamento":null,"tx_horario_funcionamento":null,"tx_numero_telefone":null,"cd_equipamento_base_origem":null}},{"type":"Feature","id":"equipamento_policia_civil_v2.150190","geometry":{"type":"Point","coordinates":[338237.005,7396335.9151]},"geometry_name":"ge_ponto","properties":{"cd_identificador":150190,"cd_identificador_tema_equipamento":7,"nm_tema_equipamento":"SEGURANCA","cd_identificador_rede_equipamento":0,"nm_rede_equipamento":"SEM REDE","tx_rede_equipamento":"Sem descrição","cd_identificador_tipo_equipamento":0,"nm_tipo_equipamento":"SEM TIPO","tx_tipo_equipamento":"SEM TIPO","cd_identificador_classe_equipamento":4,"nm_classe_equipamento":"POLICIA CIVIL","tx_classe_equipamento":"POLICIA CIVIL","cd_identificador_esfera_administrativa_equipamento":0,"nm_esfera_administrativa_equipamento":"SEM ESFERA","tx_esfera_administrativa_equipamento":"Sem descrição","cd_equipamento":null,"nm_equipamento":"81° DP - Belém","tx_endereco_equipamento":"AV. CELSO GARCIA, 2875","nm_bairro_equipamento":null,"cd_cep_equipamento":null,"tx_horario_funcionamento":null,"tx_numero_telefone":null,"cd_equipamento_base_origem":null}},{"type":"Feature","id":"equipamento_policia_civil_v2.150191","geometry":{"type":"Point","coordinates":[335405.7084,7382863.5862]},"geometry_name":"ge_ponto","properties":{"cd_identificador":150191,"cd_identificador_tema_equipamento":7,"nm_tema_equipamento":"SEGURANCA","cd_identificador_rede_equipamento":0,"nm_rede_equipamento":"SEM REDE","tx_rede_equipamento":"Sem descrição","cd_identificador_tipo_equipamento":0,"nm_tipo_equipamento":"SEM TIPO","tx_tipo_equipamento":"SEM TIPO","cd_identificador_classe_equipamento":4,"nm_classe_equipamento":"POLICIA CIVIL","tx_classe_equipamento":"POLICIA CIVIL","cd_identificador_esfera_administrativa_equipamento":0,"nm_esfera_administrativa_equipamento":"SEM ESFERA","tx_esfera_administrativa_equipamento":"Sem descrição","cd_equipamento":null,"nm_equipamento":"83° DP - Pq. Bristol","tx_endereco_equipamento":"RUA ÂNGELO BERTINI, 82","nm_bairro_equipamento":null,"cd_cep_equipamento":null,"tx_horario_funcionamento":null,"tx_numero_telefone":null,"cd_equipamento_base_origem":null}},{"type":"Feature","id":"equipamento_policia_civil_v2.150192","geometry":{"type":"Point","coordinates":[327072.2231,7370136.8904]},"geometry_name":"ge_ponto","properties":{"cd_identificador":150192,"cd_identificador_tema_equipamento":7,"nm_tema_equipamento":"SEGURANCA","cd_identificador_rede_equipamento":0,"nm_rede_equipamento":"SEM REDE","tx_rede_equipamento":"Sem descrição","cd_identificador_tipo_equipamento":0,"nm_tipo_equipamento":"SEM TIPO","tx_tipo_equipamento":"SEM TIPO","cd_identificador_classe_equipamento":4,"nm_classe_equipamento":"POLICIA CIVIL","tx_classe_equipamento":"POLICIA CIVIL","cd_identificador_esfera_administrativa_equipamento":0,"nm_esfera_administrativa_equipamento":"SEM ESFERA","tx_esfera_administrativa_equipamento":"Sem descrição","cd_equipamento":null,"nm_equipamento":"85° DP - Jd. Mirna","tx_endereco_equipamento":"RUA DR. JUVENAL HUDSON FERREIRA, 141","nm_bairro_equipamento":null,"cd_cep_equipamento":null,"tx_horario_funcionamento":null,"tx_numero_telefone":null,"cd_equipamento_base_origem":null}},{"type":"Feature","id":"equipamento_policia_civil_v2.150193","geometry":{"type":"Point","coordinates":[323994.7378,7402088.2415]},"geometry_name":"ge_ponto","properties":{"cd_identificador":150193,"cd_identificador_tema_equipamento":7,"nm_tema_equipamento":"SEGURANCA","cd_identificador_rede_equipamento":0,"nm_rede_equipamento":"SEM REDE","tx_rede_equipamento":"Sem descrição","cd_identificador_tipo_equipamento":0,"nm_tipo_equipamento":"SEM TIPO","tx_tipo_equipamento":"SEM TIPO","cd_identificador_classe_equipamento":4,"nm_classe_equipamento":"POLICIA CIVIL","tx_classe_equipamento":"POLICIA CIVIL","cd_identificador_esfera_administrativa_equipamento":0,"nm_esfera_administrativa_equipamento":"SEM ESFERA","tx_esfera_administrativa_equipamento":"Sem descrição","cd_equipamento":null,"nm_equipamento":"87° DP - V. Pereira Barreto","tx_endereco_equipamento":"AV. MENOTTI LAUDÍSIO, 286","nm_bairro_equipamento":null,"cd_cep_equipamento":null,"tx_horario_funcionamento":null,"tx_numero_telefone":null,"cd_equipamento_base_origem":null}},{"type":"Feature","id":"equipamento_policia_civil_v2.150194","geometry":{"type":"Point","coordinates":[322860.9985,7388062.212]},"geometry_name":"ge_ponto","properties":{"cd_identificador":150194,"cd_identificador_tema_equipamento":7,"nm_tema_equipamento":"SEGURANCA","cd_identificador_rede_equipamento":0,"nm_rede_equipamento":"SEM REDE","tx_rede_equipamento":"Sem descrição","cd_identificador_tipo_equipamento":0,"nm_tipo_equipamento":"SEM TIPO","tx_tipo_equipamento":"SEM TIPO","cd_identificador_classe_equipamento":4,"nm_classe_equipamento":"POLICIA CIVIL","tx_classe_equipamento":"POLICIA CIVIL","cd_identificador_esfera_administrativa_equipamento":0,"nm_esfera_administrativa_equipamento":"SEM ESFERA","tx_esfera_administrativa_equipamento":"Sem descrição","cd_equipamento":null,"nm_equipamento":"89° DP - Portal do Morumbi","tx_endereco_equipamento":"RUA DOMINGOS SIMÕES, 21","nm_bairro_equipamento":null,"cd_cep_equipamento":null,"tx_horario_funcionamento":null,"tx_numero_telefone":null,"cd_equipamento_base_origem":null}},{"type":"Feature","id":"equipamento_policia_civil_v2.150195","geometry":{"type":"Point","coordinates":[339719.9165,7400142.7645]},"geometry_name":"ge_ponto","properties":{"cd_identificador":150195,"cd_identificador_tema_equipamento":7,"nm_tema_equipamento":"SEGURANCA","cd_identificador_rede_equipamento":0,"nm_rede_equipamento":"SEM REDE","tx_rede_equipamento":"Sem descrição","cd_identificador_tipo_equipamento":0,"nm_tipo_equipamento":"SEM TIPO","tx_tipo_equipamento":"SEM TIPO","cd_identificador_classe_equipamento":4,"nm_classe_equipamento":"POLICIA CIVIL","tx_classe_equipamento":"POLICIA CIVIL","cd_identificador_esfera_administrativa_equipamento":0,"nm_esfera_administrativa_equipamento":"SEM ESFERA","tx_esfera_administrativa_equipamento":"Sem descrição","cd_equipamento":null,"nm_equipamento":"90° DP - Pq. Novo Mundo","tx_endereco_equipamento":"AL. 1° SARG. OSMAR CORTEZ CLARO, 52","nm_bairro_equipamento":null,"cd_cep_equipamento":null,"tx_horario_funcionamento":null,"tx_numero_telefone":null,"cd_equipamento_base_origem":null}},{"type":"Feature","id":"equipamento_policia_civil_v2.150196","geometry":{"type":"Point","coordinates":[323305.7059,7395777.0451]},"geometry_name":"ge_ponto","properties":{"cd_identificador":150196,"cd_identificador_tema_equipamento":7,"nm_tema_equipamento":"SEGURANCA","cd_identificador_rede_equipamento":0,"nm_rede_equipamento":"SEM REDE","tx_rede_equipamento":"Sem descrição","cd_identificador_tipo_equipamento":0,"nm_tipo_equipamento":"SEM TIPO","tx_tipo_equipamento":"SEM TIPO","cd_identificador_classe_equipamento":4,"nm_classe_equipamento":"POLICIA CIVIL","tx_classe_equipamento":"POLICIA CIVIL","cd_identificador_esfera_administrativa_equipamento":0,"nm_esfera_administrativa_equipamento":"SEM ESFERA","tx_esfera_administrativa_equipamento":"Sem descrição","cd_equipamento":null,"nm_equipamento":"91° DP - Ceagesp","tx_endereco_equipamento":"AV. GASTÃO VIDIGAL, 307","nm_bairro_equipamento":null,"cd_cep_equipamento":null,"tx_horario_funcionamento":null,"tx_numero_telefone":null,"cd_equipamento_base_origem":null}},{"type":"Feature","id":"equipamento_policia_civil_v2.150197","geometry":{"type":"Point","coordinates":[320976.4297,7382001.9138]},"geometry_name":"ge_ponto","properties":{"cd_identificador":150197,"cd_identificador_tema_equipamento":7,"nm_tema_equipamento":"SEGURANCA","cd_identificador_rede_equipamento":0,"nm_rede_equipamento":"SEM REDE","tx_rede_equipamento":"Sem descrição","cd_identificador_tipo_equipamento":0,"nm_tipo_equipamento":"SEM TIPO","tx_tipo_equipamento":"SEM TIPO","cd_identificador_classe_equipamento":4,"nm_classe_equipamento":"POLICIA CIVIL","tx_classe_equipamento":"POLICIA CIVIL","cd_identificador_esfera_administrativa_equipamento":0,"nm_esfera_administrativa_equipamento":"SEM ESFERA","tx_esfera_administrativa_equipamento":"Sem descrição","cd_equipamento":null,"nm_equipamento":"92° DP - Pq. Santo Antônio","tx_endereco_equipamento":"RUA MARIA BENEDITA RODRIGUES, 200","nm_bairro_equipamento":null,"cd_cep_equipamento":null,"tx_horario_funcionamento":null,"tx_numero_telefone":null,"cd_equipamento_base_origem":null}},{"type":"Feature","id":"equipamento_policia_civil_v2.150198","geometry":{"type":"Point","coordinates":[321733.7407,7393535.4296]},"geometry_name":"ge_ponto","properties":{"cd_identificador":150198,"cd_identificador_tema_equipamento":7,"nm_tema_equipamento":"SEGURANCA","cd_identificador_rede_equipamento":0,"nm_rede_equipamento":"SEM REDE","tx_rede_equipamento":"Sem descrição","cd_identificador_tipo_equipamento":0,"nm_tipo_equipamento":"SEM TIPO","tx_tipo_equipamento":"SEM TIPO","cd_identificador_classe_equipamento":4,"nm_classe_equipamento":"POLICIA CIVIL","tx_classe_equipamento":"POLICIA CIVIL","cd_identificador_esfera_administrativa_equipamento":0,"nm_esfera_administrativa_equipamento":"SEM ESFERA","tx_esfera_administrativa_equipamento":"Sem descrição","cd_equipamento":null,"nm_equipamento":"93° DP - V. Lageado","tx_endereco_equipamento":"AV. CORIFEU DE AZEVEDO MARQUES, 4300","nm_bairro_equipamento":null,"cd_cep_equipamento":null,"tx_horario_funcionamento":null,"tx_numero_telefone":null,"cd_equipamento_base_origem":null}},{"type":"Feature","id":"equipamento_policia_civil_v2.150199","geometry":{"type":"Point","coordinates":[337267.7938,7388733.8048]},"geometry_name":"ge_ponto","properties":{"cd_identificador":150199,"cd_identificador_tema_equipamento":7,"nm_tema_equipamento":"SEGURANCA","cd_identificador_rede_equipamento":0,"nm_rede_equipamento":"SEM REDE","tx_rede_equipamento":"Sem descrição","cd_identificador_tipo_equipamento":0,"nm_tipo_equipamento":"SEM TIPO","tx_tipo_equipamento":"SEM TIPO","cd_identificador_classe_equipamento":4,"nm_classe_equipamento":"POLICIA CIVIL","tx_classe_equipamento":"POLICIA CIVIL","cd_identificador_esfera_administrativa_equipamento":0,"nm_esfera_administrativa_equipamento":"SEM ESFERA","tx_esfera_administrativa_equipamento":"Sem descrição","cd_equipamento":null,"nm_equipamento":"95° DP - Heliópolis","tx_endereco_equipamento":"RUA COM. TAYLOR, 1180","nm_bairro_equipamento":null,"cd_cep_equipamento":null,"tx_horario_funcionamento":null,"tx_numero_telefone":null,"cd_equipamento_base_origem":null}},{"type":"Feature","id":"equipamento_policia_civil_v2.150200","geometry":{"type":"Point","coordinates":[327272.3355,7388553.615]},"geometry_name":"ge_ponto","properties":{"cd_identificador":150200,"cd_identificador_tema_equipamento":7,"nm_tema_equipamento":"SEGURANCA","cd_identificador_rede_equipamento":0,"nm_rede_equipamento":"SEM REDE","tx_rede_equipamento":"Sem descrição","cd_identificador_tipo_equipamento":0,"nm_tipo_equipamento":"SEM TIPO","tx_tipo_equipamento":"SEM TIPO","cd_identificador_classe_equipamento":4,"nm_classe_equipamento":"POLICIA CIVIL","tx_classe_equipamento":"POLICIA CIVIL","cd_identificador_esfera_administrativa_equipamento":0,"nm_esfera_administrativa_equipamento":"SEM ESFERA","tx_esfera_administrativa_equipamento":"Sem descrição","cd_equipamento":null,"nm_equipamento":"96° DP - Cidade Monções","tx_endereco_equipamento":"AV. ENG. LUÍS CARLOS BERRINI, 900","nm_bairro_equipamento":null,"cd_cep_equipamento":null,"tx_horario_funcionamento":null,"tx_numero_telefone":null,"cd_equipamento_base_origem":null}},{"type":"Feature","id":"equipamento_policia_civil_v2.150201","geometry":{"type":"Point","coordinates":[333416.3042,7383186.5355]},"geometry_name":"ge_ponto","properties":{"cd_identificador":150201,"cd_identificador_tema_equipamento":7,"nm_tema_equipamento":"SEGURANCA","cd_identificador_rede_equipamento":0,"nm_rede_equipamento":"SEM REDE","tx_rede_equipamento":"Sem descrição","cd_identificador_tipo_equipamento":0,"nm_tipo_equipamento":"SEM TIPO","tx_tipo_equipamento":"SEM TIPO","cd_identificador_classe_equipamento":4,"nm_classe_equipamento":"POLICIA CIVIL","tx_classe_equipamento":"POLICIA CIVIL","cd_identificador_esfera_administrativa_equipamento":0,"nm_esfera_administrativa_equipamento":"SEM ESFERA","tx_esfera_administrativa_equipamento":"Sem descrição","cd_equipamento":null,"nm_equipamento":"97° DP - Americanópolis","tx_endereco_equipamento":"ROD. DOS IMIGRANTES, KM. 11","nm_bairro_equipamento":null,"cd_cep_equipamento":null,"tx_horario_funcionamento":null,"tx_numero_telefone":null,"cd_equipamento_base_origem":null}},{"type":"Feature","id":"equipamento_policia_civil_v2.150202","geometry":{"type":"Point","coordinates":[333067.5946,7379654.6978]},"geometry_name":"ge_ponto","properties":{"cd_identificador":150202,"cd_identificador_tema_equipamento":7,"nm_tema_equipamento":"SEGURANCA","cd_identificador_rede_equipamento":0,"nm_rede_equipamento":"SEM REDE","tx_rede_equipamento":"Sem descrição","cd_identificador_tipo_equipamento":0,"nm_tipo_equipamento":"SEM TIPO","tx_tipo_equipamento":"SEM TIPO","cd_identificador_classe_equipamento":4,"nm_classe_equipamento":"POLICIA CIVIL","tx_classe_equipamento":"POLICIA CIVIL","cd_identificador_esfera_administrativa_equipamento":0,"nm_esfera_administrativa_equipamento":"SEM ESFERA","tx_esfera_administrativa_equipamento":"Sem descrição","cd_equipamento":null,"nm_equipamento":"98° DP - Jd. Miriam","tx_endereco_equipamento":"AV. ÂNGELO CRISTIANINI, 467","nm_bairro_equipamento":null,"cd_cep_equipamento":null,"tx_horario_funcionamento":null,"tx_numero_telefone":null,"cd_equipamento_base_origem":null}},{"type":"Feature","id":"equipamento_policia_civil_v2.150203","geometry":{"type":"Point","coordinates":[327950.0947,7382177.3178]},"geometry_name":"ge_ponto","properties":{"cd_identificador":150203,"cd_identificador_tema_equipamento":7,"nm_tema_equipamento":"SEGURANCA","cd_identificador_rede_equipamento":0,"nm_rede_equipamento":"SEM REDE","tx_rede_equipamento":"Sem descrição","cd_identificador_tipo_equipamento":0,"nm_tipo_equipamento":"SEM TIPO","tx_tipo_equipamento":"SEM TIPO","cd_identificador_classe_equipamento":4,"nm_classe_equipamento":"POLICIA CIVIL","tx_classe_equipamento":"POLICIA CIVIL","cd_identificador_esfera_administrativa_equipamento":0,"nm_esfera_administrativa_equipamento":"SEM ESFERA","tx_esfera_administrativa_equipamento":"Sem descrição","cd_equipamento":null,"nm_equipamento":"99° DP - Campo Grande","tx_endereco_equipamento":"RUA SARG. MANOEL BARBOSA DA SILVA, 115","nm_bairro_equipamento":null,"cd_cep_equipamento":null,"tx_horario_funcionamento":null,"tx_numero_telefone":null,"cd_equipamento_base_origem":null}},{"type":"Feature","id":"equipamento_policia_civil_v2.150204","geometry":{"type":"Point","coordinates":[320549.3695,7378655.4591]},"geometry_name":"ge_ponto","properties":{"cd_identificador":150204,"cd_identificador_tema_equipamento":7,"nm_tema_equipamento":"SEGURANCA","cd_identificador_rede_equipamento":0,"nm_rede_equipamento":"SEM REDE","tx_rede_equipamento":"Sem descrição","cd_identificador_tipo_equipamento":0,"nm_tipo_equipamento":"SEM TIPO","tx_tipo_equipamento":"SEM TIPO","cd_identificador_classe_equipamento":4,"nm_classe_equipamento":"POLICIA CIVIL","tx_classe_equipamento":"POLICIA CIVIL","cd_identificador_esfera_administrativa_equipamento":0,"nm_esfera_administrativa_equipamento":"SEM ESFERA","tx_esfera_administrativa_equipamento":"Sem descrição","cd_equipamento":null,"nm_equipamento":"100° DP - Jd. Herculano","tx_endereco_equipamento":"RUA JOSÉ CARLOS DOS SANTOS MARQUES, 301","nm_bairro_equipamento":null,"cd_cep_equipamento":null,"tx_horario_funcionamento":null,"tx_numero_telefone":null,"cd_equipamento_base_origem":null}},{"type":"Feature","id":"equipamento_policia_civil_v2.150205","geometry":{"type":"Point","coordinates":[325757.0364,7374637.7235]},"geometry_name":"ge_ponto","properties":{"cd_identificador":150205,"cd_identificador_tema_equipamento":7,"nm_tema_equipamento":"SEGURANCA","cd_identificador_rede_equipamento":0,"nm_rede_equipamento":"SEM REDE","tx_rede_equipamento":"Sem descrição","cd_identificador_tipo_equipamento":0,"nm_tipo_equipamento":"SEM TIPO","tx_tipo_equipamento":"SEM TIPO","cd_identificador_classe_equipamento":4,"nm_classe_equipamento":"POLICIA CIVIL","tx_classe_equipamento":"POLICIA CIVIL","cd_identificador_esfera_administrativa_equipamento":0,"nm_esfera_administrativa_equipamento":"SEM ESFERA","tx_esfera_administrativa_equipamento":"Sem descrição","cd_equipamento":null,"nm_equipamento":"101° DP - Jd. Imbuias","tx_endereco_equipamento":"RUA CAROLINA MICHAELIS, 370","nm_bairro_equipamento":null,"cd_cep_equipamento":null,"tx_horario_funcionamento":null,"tx_numero_telefone":null,"cd_equipamento_base_origem":null}},{"type":"Feature","id":"equipamento_policia_civil_v2.150206","geometry":{"type":"Point","coordinates":[325407.4774,7380567.3581]},"geometry_name":"ge_ponto","properties":{"cd_identificador":150206,"cd_identificador_tema_equipamento":7,"nm_tema_equipamento":"SEGURANCA","cd_identificador_rede_equipamento":0,"nm_rede_equipamento":"SEM REDE","tx_rede_equipamento":"Sem descrição","cd_identificador_tipo_equipamento":0,"nm_tipo_equipamento":"SEM TIPO","tx_tipo_equipamento":"SEM TIPO","cd_identificador_classe_equipamento":4,"nm_classe_equipamento":"POLICIA CIVIL","tx_classe_equipamento":"POLICIA CIVIL","cd_identificador_esfera_administrativa_equipamento":0,"nm_esfera_administrativa_equipamento":"SEM ESFERA","tx_esfera_administrativa_equipamento":"Sem descrição","cd_equipamento":null,"nm_equipamento":"102° DP - Socorro","tx_endereco_equipamento":"AV. ATLANTICA, 1171","nm_bairro_equipamento":null,"cd_cep_equipamento":null,"tx_horario_funcionamento":null,"tx_numero_telefone":null,"cd_equipamento_base_origem":null}},{"type":"Feature","id":"equipamento_policia_civil_v2.150207","geometry":{"type":"Point","coordinates":[353327.6599,7394637.4128]},"geometry_name":"ge_ponto","properties":{"cd_identificador":150207,"cd_identificador_tema_equipamento":7,"nm_tema_equipamento":"SEGURANCA","cd_identificador_rede_equipamento":0,"nm_rede_equipamento":"SEM REDE","tx_rede_equipamento":"Sem descrição","cd_identificador_tipo_equipamento":0,"nm_tipo_equipamento":"SEM TIPO","tx_tipo_equipamento":"SEM TIPO","cd_identificador_classe_equipamento":4,"nm_classe_equipamento":"POLICIA CIVIL","tx_classe_equipamento":"POLICIA CIVIL","cd_identificador_esfera_administrativa_equipamento":0,"nm_esfera_administrativa_equipamento":"SEM ESFERA","tx_esfera_administrativa_equipamento":"Sem descrição","cd_equipamento":null,"nm_equipamento":"103° DP - Itaquera/Cohab II","tx_endereco_equipamento":"AV. NAGIB FARAH MALUF, 209","nm_bairro_equipamento":null,"cd_cep_equipamento":null,"tx_horario_funcionamento":null,"tx_numero_telefone":null,"cd_equipamento_base_origem":null}}],"totalFeatures":93,"numberMatched":93,"numberReturned":93,"timeStamp":"2026-05-16T19:32:09.409Z","crs":{"type":"name","properties":{"name":"urn:ogc:def:crs:EPSG::31983"}}}