{"type":"FeatureCollection","features":[{"type":"Feature","id":"equipamento_poupatempo_v2.183001","geometry":{"type":"Point","coordinates":[333544.79,7394589.6951]},"geometry_name":"ge_ponto","properties":{"cd_identificador":183001,"cd_identificador_tema_equipamento":8,"nm_tema_equipamento":"SERVICO","cd_identificador_rede_equipamento":0,"nm_rede_equipamento":"SEM REDE","tx_rede_equipamento":"Sem descrição","cd_identificador_tipo_equipamento":0,"nm_tipo_equipamento":"SEM TIPO","tx_tipo_equipamento":"SEM TIPO","cd_identificador_classe_equipamento":6,"nm_classe_equipamento":"POUPATEMPO","tx_classe_equipamento":"POSTOS DE ATENDIMENTO POUPATEMPO","cd_identificador_esfera_administrativa_equipamento":0,"nm_esfera_administrativa_equipamento":"SEM ESFERA","tx_esfera_administrativa_equipamento":"Sem descrição","cd_equipamento":null,"nm_equipamento":"POUPATEMPO SE","tx_endereco_equipamento":"PRAÇA DO CARMO, S/N","nm_bairro_equipamento":"SÉ","cd_cep_equipamento":null,"tx_horario_funcionamento":"SEG A SEX (7H AS 19H) / SÁB (7H AS 13H)","tx_numero_telefone":null,"cd_equipamento_base_origem":null}},{"type":"Feature","id":"equipamento_poupatempo_v2.183002","geometry":{"type":"Point","coordinates":[333000.5702,7380116.0175]},"geometry_name":"ge_ponto","properties":{"cd_identificador":183002,"cd_identificador_tema_equipamento":8,"nm_tema_equipamento":"SERVICO","cd_identificador_rede_equipamento":0,"nm_rede_equipamento":"SEM REDE","tx_rede_equipamento":"Sem descrição","cd_identificador_tipo_equipamento":0,"nm_tipo_equipamento":"SEM TIPO","tx_tipo_equipamento":"SEM TIPO","cd_identificador_classe_equipamento":6,"nm_classe_equipamento":"POUPATEMPO","tx_classe_equipamento":"POSTOS DE ATENDIMENTO POUPATEMPO","cd_identificador_esfera_administrativa_equipamento":0,"nm_esfera_administrativa_equipamento":"SEM ESFERA","tx_esfera_administrativa_equipamento":"Sem descrição","cd_equipamento":null,"nm_equipamento":"POUPATEMPO CIDADE ADEMAR","tx_endereco_equipamento":"AV. CUPECÊ, 5497","nm_bairro_equipamento":"JARDIM MIRIAM","cd_cep_equipamento":null,"tx_horario_funcionamento":"SEG A SEX (7H AS 19H) / SÁB (7H AS 13H)","tx_numero_telefone":null,"cd_equipamento_base_origem":null}},{"type":"Feature","id":"equipamento_poupatempo_v2.183003","geometry":{"type":"Point","coordinates":[325594.3491,7383237.2074]},"geometry_name":"ge_ponto","properties":{"cd_identificador":183003,"cd_identificador_tema_equipamento":8,"nm_tema_equipamento":"SERVICO","cd_identificador_rede_equipamento":0,"nm_rede_equipamento":"SEM REDE","tx_rede_equipamento":"Sem descrição","cd_identificador_tipo_equipamento":0,"nm_tipo_equipamento":"SEM TIPO","tx_tipo_equipamento":"SEM TIPO","cd_identificador_classe_equipamento":6,"nm_classe_equipamento":"POUPATEMPO","tx_classe_equipamento":"POSTOS DE ATENDIMENTO POUPATEMPO","cd_identificador_esfera_administrativa_equipamento":0,"nm_esfera_administrativa_equipamento":"SEM ESFERA","tx_esfera_administrativa_equipamento":"Sem descrição","cd_equipamento":null,"nm_equipamento":"POUPATEMPO SANTO AMARO","tx_endereco_equipamento":"RUA AMADOR BUENO, 176","nm_bairro_equipamento":"SANTO AMARO","cd_cep_equipamento":null,"tx_horario_funcionamento":"SEG A SEX (7H AS 19H) / SÁB (7H AS 13H)","tx_numero_telefone":null,"cd_equipamento_base_origem":null}},{"type":"Feature","id":"equipamento_poupatempo_v2.183004","geometry":{"type":"Point","coordinates":[326992.7093,7397623.4125]},"geometry_name":"ge_ponto","properties":{"cd_identificador":183004,"cd_identificador_tema_equipamento":8,"nm_tema_equipamento":"SERVICO","cd_identificador_rede_equipamento":0,"nm_rede_equipamento":"SEM REDE","tx_rede_equipamento":"Sem descrição","cd_identificador_tipo_equipamento":0,"nm_tipo_equipamento":"SEM TIPO","tx_tipo_equipamento":"SEM TIPO","cd_identificador_classe_equipamento":6,"nm_classe_equipamento":"POUPATEMPO","tx_classe_equipamento":"POSTOS DE ATENDIMENTO POUPATEMPO","cd_identificador_esfera_administrativa_equipamento":0,"nm_esfera_administrativa_equipamento":"SEM ESFERA","tx_esfera_administrativa_equipamento":"Sem descrição","cd_equipamento":null,"nm_equipamento":"POUPATEMPO LAPA","tx_endereco_equipamento":"RUA DO CURTUME, S/N","nm_bairro_equipamento":"LAPA","cd_cep_equipamento":null,"tx_horario_funcionamento":"SEG A SEX (7H AS 19H) / SÁB (7H AS 13H)","tx_numero_telefone":null,"cd_equipamento_base_origem":null}},{"type":"Feature","id":"equipamento_poupatempo_v2.183005","geometry":{"type":"Point","coordinates":[349789.9142,7395690.9364]},"geometry_name":"ge_ponto","properties":{"cd_identificador":183005,"cd_identificador_tema_equipamento":8,"nm_tema_equipamento":"SERVICO","cd_identificador_rede_equipamento":0,"nm_rede_equipamento":"SEM REDE","tx_rede_equipamento":"Sem descrição","cd_identificador_tipo_equipamento":0,"nm_tipo_equipamento":"SEM TIPO","tx_tipo_equipamento":"SEM TIPO","cd_identificador_classe_equipamento":6,"nm_classe_equipamento":"POUPATEMPO","tx_classe_equipamento":"POSTOS DE ATENDIMENTO POUPATEMPO","cd_identificador_esfera_administrativa_equipamento":0,"nm_esfera_administrativa_equipamento":"SEM ESFERA","tx_esfera_administrativa_equipamento":"Sem descrição","cd_equipamento":null,"nm_equipamento":"POUPATEMPO ITAQUERA","tx_endereco_equipamento":"AV. DO CONTORNO, 60","nm_bairro_equipamento":"ITAQUERA","cd_cep_equipamento":null,"tx_horario_funcionamento":"SEG A SEX (7H AS 19H) / SÁB (7H AS 13H)","tx_numero_telefone":null,"cd_equipamento_base_origem":null}}],"totalFeatures":5,"numberMatched":5,"numberReturned":5,"timeStamp":"2026-05-17T01:42:40.627Z","crs":{"type":"name","properties":{"name":"urn:ogc:def:crs:EPSG::31983"}}}