{"type":"FeatureCollection","features":[{"type":"Feature","id":"equipamento_receita_federal_v2.182001","geometry":{"type":"Point","coordinates":[333190.8333,7395947.6191]},"geometry_name":"ge_ponto","properties":{"cd_identificador":182001,"cd_identificador_tema_equipamento":8,"nm_tema_equipamento":"SERVICO","cd_identificador_rede_equipamento":0,"nm_rede_equipamento":"SEM REDE","tx_rede_equipamento":"Sem descrição","cd_identificador_tipo_equipamento":0,"nm_tipo_equipamento":"SEM TIPO","tx_tipo_equipamento":"SEM TIPO","cd_identificador_classe_equipamento":7,"nm_classe_equipamento":"RECEITA FEDERAL","tx_classe_equipamento":"POSTOS DE ATENDIMENTO DA POLICIA FEDERAL","cd_identificador_esfera_administrativa_equipamento":0,"nm_esfera_administrativa_equipamento":"SEM ESFERA","tx_esfera_administrativa_equipamento":"Sem descrição","cd_equipamento":null,"nm_equipamento":"CAC LUZ","tx_endereco_equipamento":"AV PRESTES MAIA, 733, 2° ANDAR, SALA 201","nm_bairro_equipamento":"LUZ","cd_cep_equipamento":"01031-905","tx_horario_funcionamento":"DAS 07:00 ÀS 19:00","tx_numero_telefone":"","cd_equipamento_base_origem":null}},{"type":"Feature","id":"equipamento_receita_federal_v2.182002","geometry":{"type":"Point","coordinates":[332718.1826,7395036.113]},"geometry_name":"ge_ponto","properties":{"cd_identificador":182002,"cd_identificador_tema_equipamento":8,"nm_tema_equipamento":"SERVICO","cd_identificador_rede_equipamento":0,"nm_rede_equipamento":"SEM REDE","tx_rede_equipamento":"Sem descrição","cd_identificador_tipo_equipamento":0,"nm_tipo_equipamento":"SEM TIPO","tx_tipo_equipamento":"SEM TIPO","cd_identificador_classe_equipamento":7,"nm_classe_equipamento":"RECEITA FEDERAL","tx_classe_equipamento":"POSTOS DE ATENDIMENTO DA POLICIA FEDERAL","cd_identificador_esfera_administrativa_equipamento":0,"nm_esfera_administrativa_equipamento":"SEM ESFERA","tx_esfera_administrativa_equipamento":"Sem descrição","cd_equipamento":null,"nm_equipamento":"CAC PRAÇA RAMOS DE AZEVEDO","tx_endereco_equipamento":"R CORONEL XAVIER DE TOLEDO, 23, 2° ANDAR","nm_bairro_equipamento":"CENTRO","cd_cep_equipamento":"01048-100","tx_horario_funcionamento":"DAS 08:00 ÀS 20:00","tx_numero_telefone":"31515772","cd_equipamento_base_origem":null}},{"type":"Feature","id":"equipamento_receita_federal_v2.182003","geometry":{"type":"Point","coordinates":[333190.1983,7395924.7209]},"geometry_name":"ge_ponto","properties":{"cd_identificador":182003,"cd_identificador_tema_equipamento":8,"nm_tema_equipamento":"SERVICO","cd_identificador_rede_equipamento":0,"nm_rede_equipamento":"SEM REDE","tx_rede_equipamento":"Sem descrição","cd_identificador_tipo_equipamento":0,"nm_tipo_equipamento":"SEM TIPO","tx_tipo_equipamento":"SEM TIPO","cd_identificador_classe_equipamento":7,"nm_classe_equipamento":"RECEITA FEDERAL","tx_classe_equipamento":"POSTOS DE ATENDIMENTO DA POLICIA FEDERAL","cd_identificador_esfera_administrativa_equipamento":0,"nm_esfera_administrativa_equipamento":"SEM ESFERA","tx_esfera_administrativa_equipamento":"Sem descrição","cd_equipamento":null,"nm_equipamento":"CAC MALHA PF","tx_endereco_equipamento":"AV PRESTES MAIA, 733, 2° ANDAR","nm_bairro_equipamento":"LUZ","cd_cep_equipamento":"01031-005","tx_horario_funcionamento":"DAS 07:00 ÀS 19:00","tx_numero_telefone":"","cd_equipamento_base_origem":null}},{"type":"Feature","id":"equipamento_receita_federal_v2.182004","geometry":{"type":"Point","coordinates":[332068.143,7394623.3189]},"geometry_name":"ge_ponto","properties":{"cd_identificador":182004,"cd_identificador_tema_equipamento":8,"nm_tema_equipamento":"SERVICO","cd_identificador_rede_equipamento":0,"nm_rede_equipamento":"SEM REDE","tx_rede_equipamento":"Sem descrição","cd_identificador_tipo_equipamento":0,"nm_tipo_equipamento":"SEM TIPO","tx_tipo_equipamento":"SEM TIPO","cd_identificador_classe_equipamento":7,"nm_classe_equipamento":"RECEITA FEDERAL","tx_classe_equipamento":"POSTOS DE ATENDIMENTO DA POLICIA FEDERAL","cd_identificador_esfera_administrativa_equipamento":0,"nm_esfera_administrativa_equipamento":"SEM ESFERA","tx_esfera_administrativa_equipamento":"Sem descrição","cd_equipamento":null,"nm_equipamento":"CAC DEINF","tx_endereco_equipamento":"R AVANHANDAVA, 55, 1° ANDAR","nm_bairro_equipamento":"BELA VISTA","cd_cep_equipamento":"01306-900","tx_horario_funcionamento":"DAS 08:00 ÀS 12:00","tx_numero_telefone":"","cd_equipamento_base_origem":null}},{"type":"Feature","id":"equipamento_receita_federal_v2.182005","geometry":{"type":"Point","coordinates":[325826.4712,7383848.8247]},"geometry_name":"ge_ponto","properties":{"cd_identificador":182005,"cd_identificador_tema_equipamento":8,"nm_tema_equipamento":"SERVICO","cd_identificador_rede_equipamento":0,"nm_rede_equipamento":"SEM REDE","tx_rede_equipamento":"Sem descrição","cd_identificador_tipo_equipamento":0,"nm_tipo_equipamento":"SEM TIPO","tx_tipo_equipamento":"SEM TIPO","cd_identificador_classe_equipamento":7,"nm_classe_equipamento":"RECEITA FEDERAL","tx_classe_equipamento":"POSTOS DE ATENDIMENTO DA POLICIA FEDERAL","cd_identificador_esfera_administrativa_equipamento":0,"nm_esfera_administrativa_equipamento":"SEM ESFERA","tx_esfera_administrativa_equipamento":"Sem descrição","cd_equipamento":null,"nm_equipamento":"CAC SANTO AMARO","tx_endereco_equipamento":"R PADRE JOSÉ DE ANCHIETA, 76","nm_bairro_equipamento":"SANTO AMARO","cd_cep_equipamento":"04742-000","tx_horario_funcionamento":"DAS 07:00 ÀS 19:00","tx_numero_telefone":"","cd_equipamento_base_origem":null}},{"type":"Feature","id":"equipamento_receita_federal_v2.182006","geometry":{"type":"Point","coordinates":[323439.3167,7396638.3578]},"geometry_name":"ge_ponto","properties":{"cd_identificador":182006,"cd_identificador_tema_equipamento":8,"nm_tema_equipamento":"SERVICO","cd_identificador_rede_equipamento":0,"nm_rede_equipamento":"SEM REDE","tx_rede_equipamento":"Sem descrição","cd_identificador_tipo_equipamento":0,"nm_tipo_equipamento":"SEM TIPO","tx_tipo_equipamento":"SEM TIPO","cd_identificador_classe_equipamento":7,"nm_classe_equipamento":"RECEITA FEDERAL","tx_classe_equipamento":"POSTOS DE ATENDIMENTO DA POLICIA FEDERAL","cd_identificador_esfera_administrativa_equipamento":0,"nm_esfera_administrativa_equipamento":"SEM ESFERA","tx_esfera_administrativa_equipamento":"Sem descrição","cd_equipamento":null,"nm_equipamento":"CAC LAPA","tx_endereco_equipamento":"R SCHILLING, 512","nm_bairro_equipamento":"VILA LEOPOLDINA","cd_cep_equipamento":"05302-000","tx_horario_funcionamento":"DAS 07:00 ÀS 19:00","tx_numero_telefone":"","cd_equipamento_base_origem":null}},{"type":"Feature","id":"equipamento_receita_federal_v2.182007","geometry":{"type":"Point","coordinates":[349852.5224,7395913.2783]},"geometry_name":"ge_ponto","properties":{"cd_identificador":182007,"cd_identificador_tema_equipamento":8,"nm_tema_equipamento":"SERVICO","cd_identificador_rede_equipamento":0,"nm_rede_equipamento":"SEM REDE","tx_rede_equipamento":"Sem descrição","cd_identificador_tipo_equipamento":0,"nm_tipo_equipamento":"SEM TIPO","tx_tipo_equipamento":"SEM TIPO","cd_identificador_classe_equipamento":7,"nm_classe_equipamento":"RECEITA FEDERAL","tx_classe_equipamento":"POSTOS DE ATENDIMENTO DA POLICIA FEDERAL","cd_identificador_esfera_administrativa_equipamento":0,"nm_esfera_administrativa_equipamento":"SEM ESFERA","tx_esfera_administrativa_equipamento":"Sem descrição","cd_equipamento":null,"nm_equipamento":"CAC ITAQUERA","tx_endereco_equipamento":"AV DO CONTORNO, 60, Ala Azul B","nm_bairro_equipamento":"ITAQUERA","cd_cep_equipamento":"08220-380","tx_horario_funcionamento":"DAS 07:00 ÀS 19:00","tx_numero_telefone":"","cd_equipamento_base_origem":null}},{"type":"Feature","id":"equipamento_receita_federal_v2.182008","geometry":{"type":"Point","coordinates":[330642.8297,7393828.5113]},"geometry_name":"ge_ponto","properties":{"cd_identificador":182008,"cd_identificador_tema_equipamento":8,"nm_tema_equipamento":"SERVICO","cd_identificador_rede_equipamento":0,"nm_rede_equipamento":"SEM REDE","tx_rede_equipamento":"Sem descrição","cd_identificador_tipo_equipamento":0,"nm_tipo_equipamento":"SEM TIPO","tx_tipo_equipamento":"SEM TIPO","cd_identificador_classe_equipamento":7,"nm_classe_equipamento":"RECEITA FEDERAL","tx_classe_equipamento":"POSTOS DE ATENDIMENTO DA POLICIA FEDERAL","cd_identificador_esfera_administrativa_equipamento":0,"nm_esfera_administrativa_equipamento":"SEM ESFERA","tx_esfera_administrativa_equipamento":"Sem descrição","cd_equipamento":null,"nm_equipamento":"CAC PAULISTA","tx_endereco_equipamento":"R AUGUSTA, 1582","nm_bairro_equipamento":"CONSOLAÇÃO","cd_cep_equipamento":"01304-000","tx_horario_funcionamento":"DAS 07:00 ÀS 19:00","tx_numero_telefone":"","cd_equipamento_base_origem":null}},{"type":"Feature","id":"equipamento_receita_federal_v2.182009","geometry":{"type":"Point","coordinates":[338941.564,7396340.1086]},"geometry_name":"ge_ponto","properties":{"cd_identificador":182009,"cd_identificador_tema_equipamento":8,"nm_tema_equipamento":"SERVICO","cd_identificador_rede_equipamento":0,"nm_rede_equipamento":"SEM REDE","tx_rede_equipamento":"Sem descrição","cd_identificador_tipo_equipamento":0,"nm_tipo_equipamento":"SEM TIPO","tx_tipo_equipamento":"SEM TIPO","cd_identificador_classe_equipamento":7,"nm_classe_equipamento":"RECEITA FEDERAL","tx_classe_equipamento":"POSTOS DE ATENDIMENTO DA POLICIA FEDERAL","cd_identificador_esfera_administrativa_equipamento":0,"nm_esfera_administrativa_equipamento":"SEM ESFERA","tx_esfera_administrativa_equipamento":"Sem descrição","cd_equipamento":null,"nm_equipamento":"CAC TATUAPÉ","tx_endereco_equipamento":"AV CELSO GARCIA, 3580, 1° ANDAR","nm_bairro_equipamento":"TATUAPÉ","cd_cep_equipamento":"03064-000","tx_horario_funcionamento":"DAS 08:00 ÀS 19:00","tx_numero_telefone":"","cd_equipamento_base_origem":null}},{"type":"Feature","id":"equipamento_receita_federal_v2.182010","geometry":{"type":"Point","coordinates":[338949.4726,7396338.0692]},"geometry_name":"ge_ponto","properties":{"cd_identificador":182010,"cd_identificador_tema_equipamento":8,"nm_tema_equipamento":"SERVICO","cd_identificador_rede_equipamento":0,"nm_rede_equipamento":"SEM REDE","tx_rede_equipamento":"Sem descrição","cd_identificador_tipo_equipamento":0,"nm_tipo_equipamento":"SEM TIPO","tx_tipo_equipamento":"SEM TIPO","cd_identificador_classe_equipamento":7,"nm_classe_equipamento":"RECEITA FEDERAL","tx_classe_equipamento":"POSTOS DE ATENDIMENTO DA POLICIA FEDERAL","cd_identificador_esfera_administrativa_equipamento":0,"nm_esfera_administrativa_equipamento":"SEM ESFERA","tx_esfera_administrativa_equipamento":"Sem descrição","cd_equipamento":null,"nm_equipamento":"CAC CNPJ - Plantão","tx_endereco_equipamento":"AV CELSO GARCIA, 3580","nm_bairro_equipamento":"TATUAPÉ","cd_cep_equipamento":"03064-000","tx_horario_funcionamento":"DAS 08:00 ÀS 13:00","tx_numero_telefone":"","cd_equipamento_base_origem":null}}],"totalFeatures":10,"numberMatched":10,"numberReturned":10,"timeStamp":"2026-05-17T01:42:39.408Z","crs":{"type":"name","properties":{"name":"urn:ogc:def:crs:EPSG::31983"}}}