{"type":"FeatureCollection","features":[{"type":"Feature","id":"equipamento_sabesp_v2.175001","geometry":{"type":"Point","coordinates":[333534.3936,7394600.1249]},"geometry_name":"ge_ponto","properties":{"cd_identificador":175001,"cd_identificador_tema_equipamento":8,"nm_tema_equipamento":"SERVICO","cd_identificador_rede_equipamento":0,"nm_rede_equipamento":"SEM REDE","tx_rede_equipamento":"Sem descrição","cd_identificador_tipo_equipamento":0,"nm_tipo_equipamento":"SEM TIPO","tx_tipo_equipamento":"SEM TIPO","cd_identificador_classe_equipamento":1,"nm_classe_equipamento":"SABESP","tx_classe_equipamento":"POSTOS DE ATENDIMENTO DA SABESP","cd_identificador_esfera_administrativa_equipamento":0,"nm_esfera_administrativa_equipamento":"SEM ESFERA","tx_esfera_administrativa_equipamento":"Sem descrição","cd_equipamento":null,"nm_equipamento":"SABESP - POUPATEMPO SÉ","tx_endereco_equipamento":"R DO CARMO","nm_bairro_equipamento":"CENTRO","cd_cep_equipamento":null,"tx_horario_funcionamento":null,"tx_numero_telefone":null,"cd_equipamento_base_origem":null}},{"type":"Feature","id":"equipamento_sabesp_v2.175002","geometry":{"type":"Point","coordinates":[338246.0249,7399164.9219]},"geometry_name":"ge_ponto","properties":{"cd_identificador":175002,"cd_identificador_tema_equipamento":8,"nm_tema_equipamento":"SERVICO","cd_identificador_rede_equipamento":0,"nm_rede_equipamento":"SEM REDE","tx_rede_equipamento":"Sem descrição","cd_identificador_tipo_equipamento":0,"nm_tipo_equipamento":"SEM TIPO","tx_tipo_equipamento":"SEM TIPO","cd_identificador_classe_equipamento":1,"nm_classe_equipamento":"SABESP","tx_classe_equipamento":"POSTOS DE ATENDIMENTO DA SABESP","cd_identificador_esfera_administrativa_equipamento":0,"nm_esfera_administrativa_equipamento":"SEM ESFERA","tx_esfera_administrativa_equipamento":"Sem descrição","cd_equipamento":null,"nm_equipamento":"SABESP - VILA MARIA","tx_endereco_equipamento":"R PRAINHA, 77","nm_bairro_equipamento":"JARDIM JAPÃO","cd_cep_equipamento":null,"tx_horario_funcionamento":null,"tx_numero_telefone":null,"cd_equipamento_base_origem":null}},{"type":"Feature","id":"equipamento_sabesp_v2.175003","geometry":{"type":"Point","coordinates":[333814.4787,7401255.3382]},"geometry_name":"ge_ponto","properties":{"cd_identificador":175003,"cd_identificador_tema_equipamento":8,"nm_tema_equipamento":"SERVICO","cd_identificador_rede_equipamento":0,"nm_rede_equipamento":"SEM REDE","tx_rede_equipamento":"Sem descrição","cd_identificador_tipo_equipamento":0,"nm_tipo_equipamento":"SEM TIPO","tx_tipo_equipamento":"SEM TIPO","cd_identificador_classe_equipamento":1,"nm_classe_equipamento":"SABESP","tx_classe_equipamento":"POSTOS DE ATENDIMENTO DA SABESP","cd_identificador_esfera_administrativa_equipamento":0,"nm_esfera_administrativa_equipamento":"SEM ESFERA","tx_esfera_administrativa_equipamento":"Sem descrição","cd_equipamento":null,"nm_equipamento":"SABESP - SANTANA","tx_endereco_equipamento":"R ANTÔNIO PEREIRA DE SOUSA, 110","nm_bairro_equipamento":"SANTANA","cd_cep_equipamento":null,"tx_horario_funcionamento":null,"tx_numero_telefone":null,"cd_equipamento_base_origem":null}},{"type":"Feature","id":"equipamento_sabesp_v2.175004","geometry":{"type":"Point","coordinates":[329631.9399,7402913.1628]},"geometry_name":"ge_ponto","properties":{"cd_identificador":175004,"cd_identificador_tema_equipamento":8,"nm_tema_equipamento":"SERVICO","cd_identificador_rede_equipamento":0,"nm_rede_equipamento":"SEM REDE","tx_rede_equipamento":"Sem descrição","cd_identificador_tipo_equipamento":0,"nm_tipo_equipamento":"SEM TIPO","tx_tipo_equipamento":"SEM TIPO","cd_identificador_classe_equipamento":1,"nm_classe_equipamento":"SABESP","tx_classe_equipamento":"POSTOS DE ATENDIMENTO DA SABESP","cd_identificador_esfera_administrativa_equipamento":0,"nm_esfera_administrativa_equipamento":"SEM ESFERA","tx_esfera_administrativa_equipamento":"Sem descrição","cd_equipamento":null,"nm_equipamento":"SABESP - VILA NOVA CACHOEIRINHA/ FREGUESIA DO Ó","tx_endereco_equipamento":"AV DEP EMILIO CARLOS, 3900","nm_bairro_equipamento":"V. BARBOSA","cd_cep_equipamento":null,"tx_horario_funcionamento":null,"tx_numero_telefone":null,"cd_equipamento_base_origem":null}},{"type":"Feature","id":"equipamento_sabesp_v2.175005","geometry":{"type":"Point","coordinates":[338013.5747,7392742.9456]},"geometry_name":"ge_ponto","properties":{"cd_identificador":175005,"cd_identificador_tema_equipamento":8,"nm_tema_equipamento":"SERVICO","cd_identificador_rede_equipamento":0,"nm_rede_equipamento":"SEM REDE","tx_rede_equipamento":"Sem descrição","cd_identificador_tipo_equipamento":0,"nm_tipo_equipamento":"SEM TIPO","tx_tipo_equipamento":"SEM TIPO","cd_identificador_classe_equipamento":1,"nm_classe_equipamento":"SABESP","tx_classe_equipamento":"POSTOS DE ATENDIMENTO DA SABESP","cd_identificador_esfera_administrativa_equipamento":0,"nm_esfera_administrativa_equipamento":"SEM ESFERA","tx_esfera_administrativa_equipamento":"Sem descrição","cd_equipamento":null,"nm_equipamento":"SABESP - MOOCA","tx_endereco_equipamento":"R SEBASTIÃO PRETO, 192","nm_bairro_equipamento":"ALTO DA MOOCA","cd_cep_equipamento":null,"tx_horario_funcionamento":null,"tx_numero_telefone":null,"cd_equipamento_base_origem":null}},{"type":"Feature","id":"equipamento_sabesp_v2.175006","geometry":{"type":"Point","coordinates":[350823.4721,7386881.9483]},"geometry_name":"ge_ponto","properties":{"cd_identificador":175006,"cd_identificador_tema_equipamento":8,"nm_tema_equipamento":"SERVICO","cd_identificador_rede_equipamento":0,"nm_rede_equipamento":"SEM REDE","tx_rede_equipamento":"Sem descrição","cd_identificador_tipo_equipamento":0,"nm_tipo_equipamento":"SEM TIPO","tx_tipo_equipamento":"SEM TIPO","cd_identificador_classe_equipamento":1,"nm_classe_equipamento":"SABESP","tx_classe_equipamento":"POSTOS DE ATENDIMENTO DA SABESP","cd_identificador_esfera_administrativa_equipamento":0,"nm_esfera_administrativa_equipamento":"SEM ESFERA","tx_esfera_administrativa_equipamento":"Sem descrição","cd_equipamento":null,"nm_equipamento":"SABESP - SÃO MATEUS/ARICANDUVA","tx_endereco_equipamento":"AV SAPOPEMBA, 16200","nm_bairro_equipamento":"SÃO MATEUS","cd_cep_equipamento":null,"tx_horario_funcionamento":null,"tx_numero_telefone":null,"cd_equipamento_base_origem":null}},{"type":"Feature","id":"equipamento_sabesp_v2.175007","geometry":{"type":"Point","coordinates":[343524.0682,7397862.2004]},"geometry_name":"ge_ponto","properties":{"cd_identificador":175007,"cd_identificador_tema_equipamento":8,"nm_tema_equipamento":"SERVICO","cd_identificador_rede_equipamento":0,"nm_rede_equipamento":"SEM REDE","tx_rede_equipamento":"Sem descrição","cd_identificador_tipo_equipamento":0,"nm_tipo_equipamento":"SEM TIPO","tx_tipo_equipamento":"SEM TIPO","cd_identificador_classe_equipamento":1,"nm_classe_equipamento":"SABESP","tx_classe_equipamento":"POSTOS DE ATENDIMENTO DA SABESP","cd_identificador_esfera_administrativa_equipamento":0,"nm_esfera_administrativa_equipamento":"SEM ESFERA","tx_esfera_administrativa_equipamento":"Sem descrição","cd_equipamento":null,"nm_equipamento":"SABESP - AG. SAB. PENHA","tx_endereco_equipamento":"R CHAMANÁ, 90","nm_bairro_equipamento":"VILA SANTANA","cd_cep_equipamento":null,"tx_horario_funcionamento":null,"tx_numero_telefone":null,"cd_equipamento_base_origem":null}},{"type":"Feature","id":"equipamento_sabesp_v2.175008","geometry":{"type":"Point","coordinates":[330292.9118,7387490.461]},"geometry_name":"ge_ponto","properties":{"cd_identificador":175008,"cd_identificador_tema_equipamento":8,"nm_tema_equipamento":"SERVICO","cd_identificador_rede_equipamento":0,"nm_rede_equipamento":"SEM REDE","tx_rede_equipamento":"Sem descrição","cd_identificador_tipo_equipamento":0,"nm_tipo_equipamento":"SEM TIPO","tx_tipo_equipamento":"SEM TIPO","cd_identificador_classe_equipamento":1,"nm_classe_equipamento":"SABESP","tx_classe_equipamento":"POSTOS DE ATENDIMENTO DA SABESP","cd_identificador_esfera_administrativa_equipamento":0,"nm_esfera_administrativa_equipamento":"SEM ESFERA","tx_esfera_administrativa_equipamento":"Sem descrição","cd_equipamento":null,"nm_equipamento":"SABESP - MOEMA","tx_endereco_equipamento":"AL DOS AICÁS, 1454","nm_bairro_equipamento":"INDIANÓPOLIS","cd_cep_equipamento":null,"tx_horario_funcionamento":null,"tx_numero_telefone":null,"cd_equipamento_base_origem":null}},{"type":"Feature","id":"equipamento_sabesp_v2.175009","geometry":{"type":"Point","coordinates":[335485.2584,7389343.7386]},"geometry_name":"ge_ponto","properties":{"cd_identificador":175009,"cd_identificador_tema_equipamento":8,"nm_tema_equipamento":"SERVICO","cd_identificador_rede_equipamento":0,"nm_rede_equipamento":"SEM REDE","tx_rede_equipamento":"Sem descrição","cd_identificador_tipo_equipamento":0,"nm_tipo_equipamento":"SEM TIPO","tx_tipo_equipamento":"SEM TIPO","cd_identificador_classe_equipamento":1,"nm_classe_equipamento":"SABESP","tx_classe_equipamento":"POSTOS DE ATENDIMENTO DA SABESP","cd_identificador_esfera_administrativa_equipamento":0,"nm_esfera_administrativa_equipamento":"SEM ESFERA","tx_esfera_administrativa_equipamento":"Sem descrição","cd_equipamento":null,"nm_equipamento":"SABESP - IPIRANGA","tx_endereco_equipamento":"R ANTÔNIO MARCONDES, 81","nm_bairro_equipamento":"IPIRANGA","cd_cep_equipamento":null,"tx_horario_funcionamento":null,"tx_numero_telefone":null,"cd_equipamento_base_origem":null}},{"type":"Feature","id":"equipamento_sabesp_v2.175010","geometry":{"type":"Point","coordinates":[333014.277,7380098.0849]},"geometry_name":"ge_ponto","properties":{"cd_identificador":175010,"cd_identificador_tema_equipamento":8,"nm_tema_equipamento":"SERVICO","cd_identificador_rede_equipamento":0,"nm_rede_equipamento":"SEM REDE","tx_rede_equipamento":"Sem descrição","cd_identificador_tipo_equipamento":0,"nm_tipo_equipamento":"SEM TIPO","tx_tipo_equipamento":"SEM TIPO","cd_identificador_classe_equipamento":1,"nm_classe_equipamento":"SABESP","tx_classe_equipamento":"POSTOS DE ATENDIMENTO DA SABESP","cd_identificador_esfera_administrativa_equipamento":0,"nm_esfera_administrativa_equipamento":"SEM ESFERA","tx_esfera_administrativa_equipamento":"Sem descrição","cd_equipamento":null,"nm_equipamento":"SABESP - POUPATEMPO CIDADE ADEMAR","tx_endereco_equipamento":"AV CUPECÊ, 5497","nm_bairro_equipamento":"JARDIM JABAQUARA","cd_cep_equipamento":null,"tx_horario_funcionamento":null,"tx_numero_telefone":null,"cd_equipamento_base_origem":null}},{"type":"Feature","id":"equipamento_sabesp_v2.175011","geometry":{"type":"Point","coordinates":[325544.0676,7383218.7078]},"geometry_name":"ge_ponto","properties":{"cd_identificador":175011,"cd_identificador_tema_equipamento":8,"nm_tema_equipamento":"SERVICO","cd_identificador_rede_equipamento":0,"nm_rede_equipamento":"SEM REDE","tx_rede_equipamento":"Sem descrição","cd_identificador_tipo_equipamento":0,"nm_tipo_equipamento":"SEM TIPO","tx_tipo_equipamento":"SEM TIPO","cd_identificador_classe_equipamento":1,"nm_classe_equipamento":"SABESP","tx_classe_equipamento":"POSTOS DE ATENDIMENTO DA SABESP","cd_identificador_esfera_administrativa_equipamento":0,"nm_esfera_administrativa_equipamento":"SEM ESFERA","tx_esfera_administrativa_equipamento":"Sem descrição","cd_equipamento":null,"nm_equipamento":"SABESP - POUPA TEMPO SANTO AMARO","tx_endereco_equipamento":"R AMADOR BUENO, 229","nm_bairro_equipamento":"SANTO AMARO","cd_cep_equipamento":null,"tx_horario_funcionamento":null,"tx_numero_telefone":null,"cd_equipamento_base_origem":null}},{"type":"Feature","id":"equipamento_sabesp_v2.175012","geometry":{"type":"Point","coordinates":[326536.7424,7377662.8901]},"geometry_name":"ge_ponto","properties":{"cd_identificador":175012,"cd_identificador_tema_equipamento":8,"nm_tema_equipamento":"SERVICO","cd_identificador_rede_equipamento":0,"nm_rede_equipamento":"SEM REDE","tx_rede_equipamento":"Sem descrição","cd_identificador_tipo_equipamento":0,"nm_tipo_equipamento":"SEM TIPO","tx_tipo_equipamento":"SEM TIPO","cd_identificador_classe_equipamento":1,"nm_classe_equipamento":"SABESP","tx_classe_equipamento":"POSTOS DE ATENDIMENTO DA SABESP","cd_identificador_esfera_administrativa_equipamento":0,"nm_esfera_administrativa_equipamento":"SEM ESFERA","tx_esfera_administrativa_equipamento":"Sem descrição","cd_equipamento":null,"nm_equipamento":"SABESP - INTERLAGOS","tx_endereco_equipamento":"AV SEN TEOTÔNIO VILELA, 130","nm_bairro_equipamento":"VILA SÃO JOSÉ","cd_cep_equipamento":null,"tx_horario_funcionamento":null,"tx_numero_telefone":null,"cd_equipamento_base_origem":null}},{"type":"Feature","id":"equipamento_sabesp_v2.175013","geometry":{"type":"Point","coordinates":[319694.7155,7379743.9659]},"geometry_name":"ge_ponto","properties":{"cd_identificador":175013,"cd_identificador_tema_equipamento":8,"nm_tema_equipamento":"SERVICO","cd_identificador_rede_equipamento":0,"nm_rede_equipamento":"SEM REDE","tx_rede_equipamento":"Sem descrição","cd_identificador_tipo_equipamento":0,"nm_tipo_equipamento":"SEM TIPO","tx_tipo_equipamento":"SEM TIPO","cd_identificador_classe_equipamento":1,"nm_classe_equipamento":"SABESP","tx_classe_equipamento":"POSTOS DE ATENDIMENTO DA SABESP","cd_identificador_esfera_administrativa_equipamento":0,"nm_esfera_administrativa_equipamento":"SEM ESFERA","tx_esfera_administrativa_equipamento":"Sem descrição","cd_equipamento":null,"nm_equipamento":"SABESP - M'BOI MIRIM","tx_endereco_equipamento":"ES M'BOI MIRIM, 4059","nm_bairro_equipamento":"PIRAPORINHA","cd_cep_equipamento":null,"tx_horario_funcionamento":null,"tx_numero_telefone":null,"cd_equipamento_base_origem":null}},{"type":"Feature","id":"equipamento_sabesp_v2.175014","geometry":{"type":"Point","coordinates":[322493.2104,7401214.2532]},"geometry_name":"ge_ponto","properties":{"cd_identificador":175014,"cd_identificador_tema_equipamento":8,"nm_tema_equipamento":"SERVICO","cd_identificador_rede_equipamento":0,"nm_rede_equipamento":"SEM REDE","tx_rede_equipamento":"Sem descrição","cd_identificador_tipo_equipamento":0,"nm_tipo_equipamento":"SEM TIPO","tx_tipo_equipamento":"SEM TIPO","cd_identificador_classe_equipamento":1,"nm_classe_equipamento":"SABESP","tx_classe_equipamento":"POSTOS DE ATENDIMENTO DA SABESP","cd_identificador_esfera_administrativa_equipamento":0,"nm_esfera_administrativa_equipamento":"SEM ESFERA","tx_esfera_administrativa_equipamento":"Sem descrição","cd_equipamento":null,"nm_equipamento":"SABESP - PIRITUBA","tx_endereco_equipamento":"AV DO ANASTÁCIO, 2445","nm_bairro_equipamento":"PARQUE MARIA DOMITILA","cd_cep_equipamento":null,"tx_horario_funcionamento":null,"tx_numero_telefone":null,"cd_equipamento_base_origem":null}},{"type":"Feature","id":"equipamento_sabesp_v2.175015","geometry":{"type":"Point","coordinates":[325306.3972,7392156.2881]},"geometry_name":"ge_ponto","properties":{"cd_identificador":175015,"cd_identificador_tema_equipamento":8,"nm_tema_equipamento":"SERVICO","cd_identificador_rede_equipamento":0,"nm_rede_equipamento":"SEM REDE","tx_rede_equipamento":"Sem descrição","cd_identificador_tipo_equipamento":0,"nm_tipo_equipamento":"SEM TIPO","tx_tipo_equipamento":"SEM TIPO","cd_identificador_classe_equipamento":1,"nm_classe_equipamento":"SABESP","tx_classe_equipamento":"POSTOS DE ATENDIMENTO DA SABESP","cd_identificador_esfera_administrativa_equipamento":0,"nm_esfera_administrativa_equipamento":"SEM ESFERA","tx_esfera_administrativa_equipamento":"Sem descrição","cd_equipamento":null,"nm_equipamento":"SABESP - BUTANTÃ","tx_endereco_equipamento":"R MANUEL JACINTO, 49","nm_bairro_equipamento":"JARDIM CHRISTE","cd_cep_equipamento":null,"tx_horario_funcionamento":null,"tx_numero_telefone":null,"cd_equipamento_base_origem":null}},{"type":"Feature","id":"equipamento_sabesp_v2.175016","geometry":{"type":"Point","coordinates":[352395.4207,7400535.7915]},"geometry_name":"ge_ponto","properties":{"cd_identificador":175016,"cd_identificador_tema_equipamento":8,"nm_tema_equipamento":"SERVICO","cd_identificador_rede_equipamento":0,"nm_rede_equipamento":"SEM REDE","tx_rede_equipamento":"Sem descrição","cd_identificador_tipo_equipamento":0,"nm_tipo_equipamento":"SEM TIPO","tx_tipo_equipamento":"SEM TIPO","cd_identificador_classe_equipamento":1,"nm_classe_equipamento":"SABESP","tx_classe_equipamento":"POSTOS DE ATENDIMENTO DA SABESP","cd_identificador_esfera_administrativa_equipamento":0,"nm_esfera_administrativa_equipamento":"SEM ESFERA","tx_esfera_administrativa_equipamento":"Sem descrição","cd_equipamento":null,"nm_equipamento":"SABESP - AG. SAB.SÃO MIGUEL","tx_endereco_equipamento":"R DIEGO CALADO, 149","nm_bairro_equipamento":"SÃO MIGUEL","cd_cep_equipamento":null,"tx_horario_funcionamento":null,"tx_numero_telefone":null,"cd_equipamento_base_origem":null}},{"type":"Feature","id":"equipamento_sabesp_v2.175017","geometry":{"type":"Point","coordinates":[357468.6388,7399759.1864]},"geometry_name":"ge_ponto","properties":{"cd_identificador":175017,"cd_identificador_tema_equipamento":8,"nm_tema_equipamento":"SERVICO","cd_identificador_rede_equipamento":0,"nm_rede_equipamento":"SEM REDE","tx_rede_equipamento":"Sem descrição","cd_identificador_tipo_equipamento":0,"nm_tipo_equipamento":"SEM TIPO","tx_tipo_equipamento":"SEM TIPO","cd_identificador_classe_equipamento":1,"nm_classe_equipamento":"SABESP","tx_classe_equipamento":"POSTOS DE ATENDIMENTO DA SABESP","cd_identificador_esfera_administrativa_equipamento":0,"nm_esfera_administrativa_equipamento":"SEM ESFERA","tx_esfera_administrativa_equipamento":"Sem descrição","cd_equipamento":null,"nm_equipamento":"SABESP - AG. SAB. ITAIM","tx_endereco_equipamento":"R TIBURCIO DE SOUZA, 1085","nm_bairro_equipamento":"JARDIM TUÁ","cd_cep_equipamento":null,"tx_horario_funcionamento":null,"tx_numero_telefone":null,"cd_equipamento_base_origem":null}},{"type":"Feature","id":"equipamento_sabesp_v2.175018","geometry":{"type":"Point","coordinates":[349919.5689,7395964.3651]},"geometry_name":"ge_ponto","properties":{"cd_identificador":175018,"cd_identificador_tema_equipamento":8,"nm_tema_equipamento":"SERVICO","cd_identificador_rede_equipamento":0,"nm_rede_equipamento":"SEM REDE","tx_rede_equipamento":"Sem descrição","cd_identificador_tipo_equipamento":0,"nm_tipo_equipamento":"SEM TIPO","tx_tipo_equipamento":"SEM TIPO","cd_identificador_classe_equipamento":1,"nm_classe_equipamento":"SABESP","tx_classe_equipamento":"POSTOS DE ATENDIMENTO DA SABESP","cd_identificador_esfera_administrativa_equipamento":0,"nm_esfera_administrativa_equipamento":"SEM ESFERA","tx_esfera_administrativa_equipamento":"Sem descrição","cd_equipamento":null,"nm_equipamento":"SABESP - POUPATEMPO ITAQUERA","tx_endereco_equipamento":"AV DO CONTORNO, 60","nm_bairro_equipamento":"CIDADE AE CARVALHO","cd_cep_equipamento":null,"tx_horario_funcionamento":null,"tx_numero_telefone":null,"cd_equipamento_base_origem":null}},{"type":"Feature","id":"equipamento_sabesp_v2.175019","geometry":{"type":"Point","coordinates":[320827.9933,7383737.0721]},"geometry_name":"ge_ponto","properties":{"cd_identificador":175019,"cd_identificador_tema_equipamento":8,"nm_tema_equipamento":"SERVICO","cd_identificador_rede_equipamento":0,"nm_rede_equipamento":"SEM REDE","tx_rede_equipamento":"Sem descrição","cd_identificador_tipo_equipamento":0,"nm_tipo_equipamento":"SEM TIPO","tx_tipo_equipamento":"SEM TIPO","cd_identificador_classe_equipamento":1,"nm_classe_equipamento":"SABESP","tx_classe_equipamento":"POSTOS DE ATENDIMENTO DA SABESP","cd_identificador_esfera_administrativa_equipamento":0,"nm_esfera_administrativa_equipamento":"SEM ESFERA","tx_esfera_administrativa_equipamento":"Sem descrição","cd_equipamento":null,"nm_equipamento":"SABESP - PIRAJUSSARA","tx_endereco_equipamento":"R NOSSA SRA DO BOM CONSELHO, 65","nm_bairro_equipamento":"VILA PREL","cd_cep_equipamento":null,"tx_horario_funcionamento":null,"tx_numero_telefone":null,"cd_equipamento_base_origem":null}}],"totalFeatures":19,"numberMatched":19,"numberReturned":19,"timeStamp":"2026-05-17T01:42:33.298Z","crs":{"type":"name","properties":{"name":"urn:ogc:def:crs:EPSG::31983"}}}