{"type":"FeatureCollection","features":[{"type":"Feature","id":"equipamento_saude_urgencia_emergencia_v2.120007","geometry":{"type":"Point","coordinates":[319131.694,7380616.296]},"geometry_name":"ge_ponto","properties":{"cd_identificador":120007,"cd_identificador_tema_equipamento":6,"nm_tema_equipamento":"SAUDE","cd_identificador_rede_equipamento":0,"nm_rede_equipamento":"SEM REDE","tx_rede_equipamento":"Sem descrição","cd_identificador_tipo_equipamento":4,"nm_tipo_equipamento":"Assistência Médica Ambulatorial","tx_tipo_equipamento":"Atua na área de atenção básica, integrada e articulada à rede de serviços, atendendo a demanda espontânea de agravos menores.","cd_identificador_classe_equipamento":6,"nm_classe_equipamento":"URGÊNCIA/EMERGÊNCIA","tx_classe_equipamento":"ATENDE PACIENTE QUE REQUER CUIDADO IMEDIATO E PODE RESULTAR EM INTERNAÇÃO OU NÃO.","cd_identificador_esfera_administrativa_equipamento":1,"nm_esfera_administrativa_equipamento":"Municipal","tx_esfera_administrativa_equipamento":"Administração municipal","cd_equipamento":"78","nm_equipamento":"AMA 24H CAPÃO REDONDO","tx_endereco_equipamento":"AV. COMENDADOR SANTANA, 774","nm_bairro_equipamento":"JD BOA ESPERANÇA","cd_cep_equipamento":"05866-000","tx_horario_funcionamento":null,"tx_numero_telefone":"5872-9917 / 5872-9919","cd_equipamento_base_origem":null}},{"type":"Feature","id":"equipamento_saude_urgencia_emergencia_v2.120008","geometry":{"type":"Point","coordinates":[345081.544,7400275.725]},"geometry_name":"ge_ponto","properties":{"cd_identificador":120008,"cd_identificador_tema_equipamento":6,"nm_tema_equipamento":"SAUDE","cd_identificador_rede_equipamento":0,"nm_rede_equipamento":"SEM REDE","tx_rede_equipamento":"Sem descrição","cd_identificador_tipo_equipamento":4,"nm_tipo_equipamento":"Assistência Médica Ambulatorial","tx_tipo_equipamento":"Atua na área de atenção básica, integrada e articulada à rede de serviços, atendendo a demanda espontânea de agravos menores.","cd_identificador_classe_equipamento":6,"nm_classe_equipamento":"URGÊNCIA/EMERGÊNCIA","tx_classe_equipamento":"ATENDE PACIENTE QUE REQUER CUIDADO IMEDIATO E PODE RESULTAR EM INTERNAÇÃO OU NÃO.","cd_identificador_esfera_administrativa_equipamento":1,"nm_esfera_administrativa_equipamento":"Municipal","tx_esfera_administrativa_equipamento":"Administração municipal","cd_equipamento":"646","nm_equipamento":"AMA 24H ENGENHEIRO GOULART - DR. JOSÉ PIRES","tx_endereco_equipamento":"R. AUGUSTO CORREIA LEITE, 538","nm_bairro_equipamento":"ENG. GOULART","cd_cep_equipamento":"03726-100","tx_horario_funcionamento":null,"tx_numero_telefone":"2038-1626 / 2622-0366","cd_equipamento_base_origem":null}},{"type":"Feature","id":"equipamento_saude_urgencia_emergencia_v2.120009","geometry":{"type":"Point","coordinates":[348956.27,7396893.037]},"geometry_name":"ge_ponto","properties":{"cd_identificador":120009,"cd_identificador_tema_equipamento":6,"nm_tema_equipamento":"SAUDE","cd_identificador_rede_equipamento":0,"nm_rede_equipamento":"SEM REDE","tx_rede_equipamento":"Sem descrição","cd_identificador_tipo_equipamento":4,"nm_tipo_equipamento":"Assistência Médica Ambulatorial","tx_tipo_equipamento":"Atua na área de atenção básica, integrada e articulada à rede de serviços, atendendo a demanda espontânea de agravos menores.","cd_identificador_classe_equipamento":6,"nm_classe_equipamento":"URGÊNCIA/EMERGÊNCIA","tx_classe_equipamento":"ATENDE PACIENTE QUE REQUER CUIDADO IMEDIATO E PODE RESULTAR EM INTERNAÇÃO OU NÃO.","cd_identificador_esfera_administrativa_equipamento":1,"nm_esfera_administrativa_equipamento":"Municipal","tx_esfera_administrativa_equipamento":"Administração municipal","cd_equipamento":"637","nm_equipamento":"AMA 24H JARDIM NORDESTE - DR. CARLOS NEDER","tx_endereco_equipamento":"R. NICOLO TARTAGLIA, 45","nm_bairro_equipamento":"JD COIMBRA","cd_cep_equipamento":"03693-050","tx_horario_funcionamento":null,"tx_numero_telefone":"2280-6211","cd_equipamento_base_origem":null}},{"type":"Feature","id":"equipamento_saude_urgencia_emergencia_v2.120010","geometry":{"type":"Point","coordinates":[319835.315,7385454.133]},"geometry_name":"ge_ponto","properties":{"cd_identificador":120010,"cd_identificador_tema_equipamento":6,"nm_tema_equipamento":"SAUDE","cd_identificador_rede_equipamento":0,"nm_rede_equipamento":"SEM REDE","tx_rede_equipamento":"Sem descrição","cd_identificador_tipo_equipamento":4,"nm_tipo_equipamento":"Assistência Médica Ambulatorial","tx_tipo_equipamento":"Atua na área de atenção básica, integrada e articulada à rede de serviços, atendendo a demanda espontânea de agravos menores.","cd_identificador_classe_equipamento":6,"nm_classe_equipamento":"URGÊNCIA/EMERGÊNCIA","tx_classe_equipamento":"ATENDE PACIENTE QUE REQUER CUIDADO IMEDIATO E PODE RESULTAR EM INTERNAÇÃO OU NÃO.","cd_identificador_esfera_administrativa_equipamento":1,"nm_esfera_administrativa_equipamento":"Municipal","tx_esfera_administrativa_equipamento":"Administração municipal","cd_equipamento":"72","nm_equipamento":"AMA 24H JARDIM PIRAJUSSARA","tx_endereco_equipamento":"AV. AMADEU DA SILVA SAMELO, 423","nm_bairro_equipamento":"JD MARTINICA","cd_cep_equipamento":"05760-140","tx_horario_funcionamento":null,"tx_numero_telefone":"5844-7937","cd_equipamento_base_origem":null}},{"type":"Feature","id":"equipamento_saude_urgencia_emergencia_v2.120011","geometry":{"type":"Point","coordinates":[353082.646,7395912.082]},"geometry_name":"ge_ponto","properties":{"cd_identificador":120011,"cd_identificador_tema_equipamento":6,"nm_tema_equipamento":"SAUDE","cd_identificador_rede_equipamento":0,"nm_rede_equipamento":"SEM REDE","tx_rede_equipamento":"Sem descrição","cd_identificador_tipo_equipamento":4,"nm_tipo_equipamento":"Assistência Médica Ambulatorial","tx_tipo_equipamento":"Atua na área de atenção básica, integrada e articulada à rede de serviços, atendendo a demanda espontânea de agravos menores.","cd_identificador_classe_equipamento":6,"nm_classe_equipamento":"URGÊNCIA/EMERGÊNCIA","tx_classe_equipamento":"ATENDE PACIENTE QUE REQUER CUIDADO IMEDIATO E PODE RESULTAR EM INTERNAÇÃO OU NÃO.","cd_identificador_esfera_administrativa_equipamento":1,"nm_esfera_administrativa_equipamento":"Municipal","tx_esfera_administrativa_equipamento":"Administração municipal","cd_equipamento":"445","nm_equipamento":"AMA 24H JOSE BONIFACIO - ITAQUERA","tx_endereco_equipamento":"R. SILVIO BARBINI, 40","nm_bairro_equipamento":"ITAQUERA","cd_cep_equipamento":"08250-650","tx_horario_funcionamento":null,"tx_numero_telefone":"2944-6086","cd_equipamento_base_origem":null}},{"type":"Feature","id":"equipamento_saude_urgencia_emergencia_v2.120012","geometry":{"type":"Point","coordinates":[324543.346,7387112.581]},"geometry_name":"ge_ponto","properties":{"cd_identificador":120012,"cd_identificador_tema_equipamento":6,"nm_tema_equipamento":"SAUDE","cd_identificador_rede_equipamento":0,"nm_rede_equipamento":"SEM REDE","tx_rede_equipamento":"Sem descrição","cd_identificador_tipo_equipamento":4,"nm_tipo_equipamento":"Assistência Médica Ambulatorial","tx_tipo_equipamento":"Atua na área de atenção básica, integrada e articulada à rede de serviços, atendendo a demanda espontânea de agravos menores.","cd_identificador_classe_equipamento":6,"nm_classe_equipamento":"URGÊNCIA/EMERGÊNCIA","tx_classe_equipamento":"ATENDE PACIENTE QUE REQUER CUIDADO IMEDIATO E PODE RESULTAR EM INTERNAÇÃO OU NÃO.","cd_identificador_esfera_administrativa_equipamento":1,"nm_esfera_administrativa_equipamento":"Municipal","tx_esfera_administrativa_equipamento":"Administração municipal","cd_equipamento":"102","nm_equipamento":"AMA 24H PARAISOPOLIS","tx_endereco_equipamento":"R. SILVEIRA SAMPAIO, 660","nm_bairro_equipamento":"JD MORUMBI","cd_cep_equipamento":"05656-010","tx_horario_funcionamento":null,"tx_numero_telefone":"3742-5394","cd_equipamento_base_origem":null}},{"type":"Feature","id":"equipamento_saude_urgencia_emergencia_v2.120013","geometry":{"type":"Point","coordinates":[321644.219,7380188.437]},"geometry_name":"ge_ponto","properties":{"cd_identificador":120013,"cd_identificador_tema_equipamento":6,"nm_tema_equipamento":"SAUDE","cd_identificador_rede_equipamento":0,"nm_rede_equipamento":"SEM REDE","tx_rede_equipamento":"Sem descrição","cd_identificador_tipo_equipamento":4,"nm_tipo_equipamento":"Assistência Médica Ambulatorial","tx_tipo_equipamento":"Atua na área de atenção básica, integrada e articulada à rede de serviços, atendendo a demanda espontânea de agravos menores.","cd_identificador_classe_equipamento":6,"nm_classe_equipamento":"URGÊNCIA/EMERGÊNCIA","tx_classe_equipamento":"ATENDE PACIENTE QUE REQUER CUIDADO IMEDIATO E PODE RESULTAR EM INTERNAÇÃO OU NÃO.","cd_identificador_esfera_administrativa_equipamento":1,"nm_esfera_administrativa_equipamento":"Municipal","tx_esfera_administrativa_equipamento":"Administração municipal","cd_equipamento":"569","nm_equipamento":"AMA 24H PARQUE FIGUEIRA GRANDE","tx_endereco_equipamento":"R. DANIEL KLEIN, 211","nm_bairro_equipamento":"PQ FIGUEIRA GRANDE","cd_cep_equipamento":"04915-170","tx_horario_funcionamento":null,"tx_numero_telefone":"5515-7070","cd_equipamento_base_origem":null}},{"type":"Feature","id":"equipamento_saude_urgencia_emergencia_v2.120014","geometry":{"type":"Point","coordinates":[318424.334,7377961.572]},"geometry_name":"ge_ponto","properties":{"cd_identificador":120014,"cd_identificador_tema_equipamento":6,"nm_tema_equipamento":"SAUDE","cd_identificador_rede_equipamento":0,"nm_rede_equipamento":"SEM REDE","tx_rede_equipamento":"Sem descrição","cd_identificador_tipo_equipamento":4,"nm_tipo_equipamento":"Assistência Médica Ambulatorial","tx_tipo_equipamento":"Atua na área de atenção básica, integrada e articulada à rede de serviços, atendendo a demanda espontânea de agravos menores.","cd_identificador_classe_equipamento":6,"nm_classe_equipamento":"URGÊNCIA/EMERGÊNCIA","tx_classe_equipamento":"ATENDE PACIENTE QUE REQUER CUIDADO IMEDIATO E PODE RESULTAR EM INTERNAÇÃO OU NÃO.","cd_identificador_esfera_administrativa_equipamento":1,"nm_esfera_administrativa_equipamento":"Municipal","tx_esfera_administrativa_equipamento":"Administração municipal","cd_equipamento":"536","nm_equipamento":"AMA 24H PARQUE NOVO SANTO AMARO","tx_endereco_equipamento":"R. PORTA DO PRADO, 18","nm_bairro_equipamento":"PARQUE NOVO SANTO AMARO","cd_cep_equipamento":"05874-130","tx_horario_funcionamento":null,"tx_numero_telefone":"5898-5656","cd_equipamento_base_origem":null}},{"type":"Feature","id":"equipamento_saude_urgencia_emergencia_v2.120015","geometry":{"type":"Point","coordinates":[347687.993,7387973.527]},"geometry_name":"ge_ponto","properties":{"cd_identificador":120015,"cd_identificador_tema_equipamento":6,"nm_tema_equipamento":"SAUDE","cd_identificador_rede_equipamento":0,"nm_rede_equipamento":"SEM REDE","tx_rede_equipamento":"Sem descrição","cd_identificador_tipo_equipamento":4,"nm_tipo_equipamento":"Assistência Médica Ambulatorial","tx_tipo_equipamento":"Atua na área de atenção básica, integrada e articulada à rede de serviços, atendendo a demanda espontânea de agravos menores.","cd_identificador_classe_equipamento":6,"nm_classe_equipamento":"URGÊNCIA/EMERGÊNCIA","tx_classe_equipamento":"ATENDE PACIENTE QUE REQUER CUIDADO IMEDIATO E PODE RESULTAR EM INTERNAÇÃO OU NÃO.","cd_identificador_esfera_administrativa_equipamento":1,"nm_esfera_administrativa_equipamento":"Municipal","tx_esfera_administrativa_equipamento":"Administração municipal","cd_equipamento":"905","nm_equipamento":"AMA 24H SAPOPEMBA","tx_endereco_equipamento":"R. JOÃO LOPES DE LIMA, 1151","nm_bairro_equipamento":"JD SAPOPEMBA","cd_cep_equipamento":"03976-020","tx_horario_funcionamento":null,"tx_numero_telefone":"2018-5674","cd_equipamento_base_origem":null}},{"type":"Feature","id":"equipamento_saude_urgencia_emergencia_v2.120016","geometry":{"type":"Point","coordinates":[333819.512,7394511.966]},"geometry_name":"ge_ponto","properties":{"cd_identificador":120016,"cd_identificador_tema_equipamento":6,"nm_tema_equipamento":"SAUDE","cd_identificador_rede_equipamento":0,"nm_rede_equipamento":"SEM REDE","tx_rede_equipamento":"Sem descrição","cd_identificador_tipo_equipamento":4,"nm_tipo_equipamento":"Assistência Médica Ambulatorial","tx_tipo_equipamento":"Atua na área de atenção básica, integrada e articulada à rede de serviços, atendendo a demanda espontânea de agravos menores.","cd_identificador_classe_equipamento":6,"nm_classe_equipamento":"URGÊNCIA/EMERGÊNCIA","tx_classe_equipamento":"ATENDE PACIENTE QUE REQUER CUIDADO IMEDIATO E PODE RESULTAR EM INTERNAÇÃO OU NÃO.","cd_identificador_esfera_administrativa_equipamento":1,"nm_esfera_administrativa_equipamento":"Municipal","tx_esfera_administrativa_equipamento":"Administração municipal","cd_equipamento":"985","nm_equipamento":"AMA 24H SÉ","tx_endereco_equipamento":"R. FREDERICO ALVARENGA, 259","nm_bairro_equipamento":"SE","cd_cep_equipamento":"01020-030","tx_horario_funcionamento":null,"tx_numero_telefone":"4210-5398","cd_equipamento_base_origem":null}},{"type":"Feature","id":"equipamento_saude_urgencia_emergencia_v2.120017","geometry":{"type":"Point","coordinates":[326375.905,7397397.015]},"geometry_name":"ge_ponto","properties":{"cd_identificador":120017,"cd_identificador_tema_equipamento":6,"nm_tema_equipamento":"SAUDE","cd_identificador_rede_equipamento":0,"nm_rede_equipamento":"SEM REDE","tx_rede_equipamento":"Sem descrição","cd_identificador_tipo_equipamento":4,"nm_tipo_equipamento":"Assistência Médica Ambulatorial","tx_tipo_equipamento":"Atua na área de atenção básica, integrada e articulada à rede de serviços, atendendo a demanda espontânea de agravos menores.","cd_identificador_classe_equipamento":6,"nm_classe_equipamento":"URGÊNCIA/EMERGÊNCIA","tx_classe_equipamento":"ATENDE PACIENTE QUE REQUER CUIDADO IMEDIATO E PODE RESULTAR EM INTERNAÇÃO OU NÃO.","cd_identificador_esfera_administrativa_equipamento":1,"nm_esfera_administrativa_equipamento":"Municipal","tx_esfera_administrativa_equipamento":"Administração municipal","cd_equipamento":"508","nm_equipamento":"AMA 24H SOROCABANA","tx_endereco_equipamento":"R. CATÃO, 380","nm_bairro_equipamento":"VILA ROMANA","cd_cep_equipamento":"05042-000","tx_horario_funcionamento":null,"tx_numero_telefone":"3879-3090","cd_equipamento_base_origem":null}},{"type":"Feature","id":"equipamento_saude_urgencia_emergencia_v2.120481","geometry":{"type":"Point","coordinates":[357371.422,7388959.876]},"geometry_name":"ge_ponto","properties":{"cd_identificador":120481,"cd_identificador_tema_equipamento":6,"nm_tema_equipamento":"SAUDE","cd_identificador_rede_equipamento":0,"nm_rede_equipamento":"SEM REDE","tx_rede_equipamento":"Sem descrição","cd_identificador_tipo_equipamento":38,"nm_tipo_equipamento":"Pronto Atendimento","tx_tipo_equipamento":"Atendimento de urgência dentro do horário de funcionamento do estabelecimento de saúde.","cd_identificador_classe_equipamento":6,"nm_classe_equipamento":"URGÊNCIA/EMERGÊNCIA","tx_classe_equipamento":"ATENDE PACIENTE QUE REQUER CUIDADO IMEDIATO E PODE RESULTAR EM INTERNAÇÃO OU NÃO.","cd_identificador_esfera_administrativa_equipamento":1,"nm_esfera_administrativa_equipamento":"Municipal","tx_esfera_administrativa_equipamento":"Administração municipal","cd_equipamento":"232","nm_equipamento":"PA MUNICIPAL DRA GLÓRIA RODRIGUES DOS SANTOS BONFIM","tx_endereco_equipamento":"AV. DOS METALURGICOS, 2820","nm_bairro_equipamento":"CIDADE TIRADENTES","cd_cep_equipamento":"08471-004","tx_horario_funcionamento":null,"tx_numero_telefone":"2558-3252","cd_equipamento_base_origem":null}},{"type":"Feature","id":"equipamento_saude_urgencia_emergencia_v2.120482","geometry":{"type":"Point","coordinates":[317435.616,7382973.751]},"geometry_name":"ge_ponto","properties":{"cd_identificador":120482,"cd_identificador_tema_equipamento":6,"nm_tema_equipamento":"SAUDE","cd_identificador_rede_equipamento":0,"nm_rede_equipamento":"SEM REDE","tx_rede_equipamento":"Sem descrição","cd_identificador_tipo_equipamento":38,"nm_tipo_equipamento":"Pronto Atendimento","tx_tipo_equipamento":"Atendimento de urgência dentro do horário de funcionamento do estabelecimento de saúde.","cd_identificador_classe_equipamento":6,"nm_classe_equipamento":"URGÊNCIA/EMERGÊNCIA","tx_classe_equipamento":"ATENDE PACIENTE QUE REQUER CUIDADO IMEDIATO E PODE RESULTAR EM INTERNAÇÃO OU NÃO.","cd_identificador_esfera_administrativa_equipamento":1,"nm_esfera_administrativa_equipamento":"Municipal","tx_esfera_administrativa_equipamento":"Administração municipal","cd_equipamento":"87","nm_equipamento":"PA MUNICIPAL JARDIM MACEDÔNIA","tx_endereco_equipamento":"R. LOUIS BOULOGNE, 133","nm_bairro_equipamento":"JD MACEDONIA","cd_cep_equipamento":"05894-350","tx_horario_funcionamento":null,"tx_numero_telefone":"5821-1147","cd_equipamento_base_origem":null}},{"type":"Feature","id":"equipamento_saude_urgencia_emergencia_v2.120483","geometry":{"type":"Point","coordinates":[349055.564,7388099.813]},"geometry_name":"ge_ponto","properties":{"cd_identificador":120483,"cd_identificador_tema_equipamento":6,"nm_tema_equipamento":"SAUDE","cd_identificador_rede_equipamento":0,"nm_rede_equipamento":"SEM REDE","tx_rede_equipamento":"Sem descrição","cd_identificador_tipo_equipamento":38,"nm_tipo_equipamento":"Pronto Atendimento","tx_tipo_equipamento":"Atendimento de urgência dentro do horário de funcionamento do estabelecimento de saúde.","cd_identificador_classe_equipamento":6,"nm_classe_equipamento":"URGÊNCIA/EMERGÊNCIA","tx_classe_equipamento":"ATENDE PACIENTE QUE REQUER CUIDADO IMEDIATO E PODE RESULTAR EM INTERNAÇÃO OU NÃO.","cd_identificador_esfera_administrativa_equipamento":1,"nm_esfera_administrativa_equipamento":"Municipal","tx_esfera_administrativa_equipamento":"Administração municipal","cd_equipamento":"841","nm_equipamento":"PA MUNICIPAL SÃO MATEUS II","tx_endereco_equipamento":"R. MAESTRO JOÃO BALAN, 88","nm_bairro_equipamento":"CIDADE SÃO MATEUS","cd_cep_equipamento":"03963-030","tx_horario_funcionamento":null,"tx_numero_telefone":"2013-1346","cd_equipamento_base_origem":null}},{"type":"Feature","id":"equipamento_saude_urgencia_emergencia_v2.120492","geometry":{"type":"Point","coordinates":[335516.289,7385417.901]},"geometry_name":"ge_ponto","properties":{"cd_identificador":120492,"cd_identificador_tema_equipamento":6,"nm_tema_equipamento":"SAUDE","cd_identificador_rede_equipamento":0,"nm_rede_equipamento":"SEM REDE","tx_rede_equipamento":"Sem descrição","cd_identificador_tipo_equipamento":41,"nm_tipo_equipamento":"Pronto Socorro Geral","tx_tipo_equipamento":"Estabelecimento destinado a assistência a pacientes com ou sem risco de vida, cujo agravos necessitam de atendimento imediato, podendo ter internação ou não.","cd_identificador_classe_equipamento":6,"nm_classe_equipamento":"URGÊNCIA/EMERGÊNCIA","tx_classe_equipamento":"ATENDE PACIENTE QUE REQUER CUIDADO IMEDIATO E PODE RESULTAR EM INTERNAÇÃO OU NÃO.","cd_identificador_esfera_administrativa_equipamento":1,"nm_esfera_administrativa_equipamento":"Municipal","tx_esfera_administrativa_equipamento":"Administração municipal","cd_equipamento":"335","nm_equipamento":"PS MUNICIPAL AUGUSTO GOMES DE MATTOS","tx_endereco_equipamento":"R. GIOVANNI DI BALDUCCIO, 250","nm_bairro_equipamento":"VILA MORAES","cd_cep_equipamento":"04170-000","tx_horario_funcionamento":null,"tx_numero_telefone":"3245-8300","cd_equipamento_base_origem":null}},{"type":"Feature","id":"equipamento_saude_urgencia_emergencia_v2.120493","geometry":{"type":"Point","coordinates":[324403.02,7369968.045]},"geometry_name":"ge_ponto","properties":{"cd_identificador":120493,"cd_identificador_tema_equipamento":6,"nm_tema_equipamento":"SAUDE","cd_identificador_rede_equipamento":0,"nm_rede_equipamento":"SEM REDE","tx_rede_equipamento":"Sem descrição","cd_identificador_tipo_equipamento":41,"nm_tipo_equipamento":"Pronto Socorro Geral","tx_tipo_equipamento":"Estabelecimento destinado a assistência a pacientes com ou sem risco de vida, cujo agravos necessitam de atendimento imediato, podendo ter internação ou não.","cd_identificador_classe_equipamento":6,"nm_classe_equipamento":"URGÊNCIA/EMERGÊNCIA","tx_classe_equipamento":"ATENDE PACIENTE QUE REQUER CUIDADO IMEDIATO E PODE RESULTAR EM INTERNAÇÃO OU NÃO.","cd_identificador_esfera_administrativa_equipamento":1,"nm_esfera_administrativa_equipamento":"Municipal","tx_esfera_administrativa_equipamento":"Administração municipal","cd_equipamento":"634","nm_equipamento":"PS MUNICIPAL BALNEARIO SÃO JOSE","tx_endereco_equipamento":"R. GASPAR LEME, 200","nm_bairro_equipamento":"BALNEÁRIO SÃO JOSE","cd_cep_equipamento":"04864-050","tx_horario_funcionamento":null,"tx_numero_telefone":"5979-7073","cd_equipamento_base_origem":null}},{"type":"Feature","id":"equipamento_saude_urgencia_emergencia_v2.120494","geometry":{"type":"Point","coordinates":[331250.21,7396725.432]},"geometry_name":"ge_ponto","properties":{"cd_identificador":120494,"cd_identificador_tema_equipamento":6,"nm_tema_equipamento":"SAUDE","cd_identificador_rede_equipamento":0,"nm_rede_equipamento":"SEM REDE","tx_rede_equipamento":"Sem descrição","cd_identificador_tipo_equipamento":41,"nm_tipo_equipamento":"Pronto Socorro Geral","tx_tipo_equipamento":"Estabelecimento destinado a assistência a pacientes com ou sem risco de vida, cujo agravos necessitam de atendimento imediato, podendo ter internação ou não.","cd_identificador_classe_equipamento":6,"nm_classe_equipamento":"URGÊNCIA/EMERGÊNCIA","tx_classe_equipamento":"ATENDE PACIENTE QUE REQUER CUIDADO IMEDIATO E PODE RESULTAR EM INTERNAÇÃO OU NÃO.","cd_identificador_esfera_administrativa_equipamento":1,"nm_esfera_administrativa_equipamento":"Municipal","tx_esfera_administrativa_equipamento":"Administração municipal","cd_equipamento":"973","nm_equipamento":"PS MUNICIPAL BARRA FUNDA - DR ÁLVARO DINO DE ALMEIDA","tx_endereco_equipamento":"R. VITORINO CARMILO, 717","nm_bairro_equipamento":"BARRA FUNDA","cd_cep_equipamento":"01153-000","tx_horario_funcionamento":null,"tx_numero_telefone":"5210-5425","cd_equipamento_base_origem":null}},{"type":"Feature","id":"equipamento_saude_urgencia_emergencia_v2.120495","geometry":{"type":"Point","coordinates":[322582.655,7390738.941]},"geometry_name":"ge_ponto","properties":{"cd_identificador":120495,"cd_identificador_tema_equipamento":6,"nm_tema_equipamento":"SAUDE","cd_identificador_rede_equipamento":0,"nm_rede_equipamento":"SEM REDE","tx_rede_equipamento":"Sem descrição","cd_identificador_tipo_equipamento":41,"nm_tipo_equipamento":"Pronto Socorro Geral","tx_tipo_equipamento":"Estabelecimento destinado a assistência a pacientes com ou sem risco de vida, cujo agravos necessitam de atendimento imediato, podendo ter internação ou não.","cd_identificador_classe_equipamento":6,"nm_classe_equipamento":"URGÊNCIA/EMERGÊNCIA","tx_classe_equipamento":"ATENDE PACIENTE QUE REQUER CUIDADO IMEDIATO E PODE RESULTAR EM INTERNAÇÃO OU NÃO.","cd_identificador_esfera_administrativa_equipamento":1,"nm_esfera_administrativa_equipamento":"Municipal","tx_esfera_administrativa_equipamento":"Administração municipal","cd_equipamento":"29","nm_equipamento":"PS MUNICIPAL DR CAETANO VIRGÍLIO NETTO","tx_endereco_equipamento":"R. AUGUSTO FARINHA, 1125","nm_bairro_equipamento":"JD PINHEIROS","cd_cep_equipamento":"05594-001","tx_horario_funcionamento":null,"tx_numero_telefone":"3731-6018","cd_equipamento_base_origem":null}},{"type":"Feature","id":"equipamento_saude_urgencia_emergencia_v2.120496","geometry":{"type":"Point","coordinates":[324219.244,7395911.404]},"geometry_name":"ge_ponto","properties":{"cd_identificador":120496,"cd_identificador_tema_equipamento":6,"nm_tema_equipamento":"SAUDE","cd_identificador_rede_equipamento":0,"nm_rede_equipamento":"SEM REDE","tx_rede_equipamento":"Sem descrição","cd_identificador_tipo_equipamento":41,"nm_tipo_equipamento":"Pronto Socorro Geral","tx_tipo_equipamento":"Estabelecimento destinado a assistência a pacientes com ou sem risco de vida, cujo agravos necessitam de atendimento imediato, podendo ter internação ou não.","cd_identificador_classe_equipamento":6,"nm_classe_equipamento":"URGÊNCIA/EMERGÊNCIA","tx_classe_equipamento":"ATENDE PACIENTE QUE REQUER CUIDADO IMEDIATO E PODE RESULTAR EM INTERNAÇÃO OU NÃO.","cd_identificador_esfera_administrativa_equipamento":1,"nm_esfera_administrativa_equipamento":"Municipal","tx_esfera_administrativa_equipamento":"Administração municipal","cd_equipamento":"691","nm_equipamento":"PS MUNICIPAL LAPA - PROF. JOÃO CATARIN MEZOMO","tx_endereco_equipamento":"AV. QUEIROZ FILHO, 313","nm_bairro_equipamento":"PQ DA LAPA","cd_cep_equipamento":"05319-000","tx_horario_funcionamento":null,"tx_numero_telefone":"4878-1701","cd_equipamento_base_origem":null}},{"type":"Feature","id":"equipamento_saude_urgencia_emergencia_v2.120497","geometry":{"type":"Point","coordinates":[333934.04,7398855.632]},"geometry_name":"ge_ponto","properties":{"cd_identificador":120497,"cd_identificador_tema_equipamento":6,"nm_tema_equipamento":"SAUDE","cd_identificador_rede_equipamento":0,"nm_rede_equipamento":"SEM REDE","tx_rede_equipamento":"Sem descrição","cd_identificador_tipo_equipamento":41,"nm_tipo_equipamento":"Pronto Socorro Geral","tx_tipo_equipamento":"Estabelecimento destinado a assistência a pacientes com ou sem risco de vida, cujo agravos necessitam de atendimento imediato, podendo ter internação ou não.","cd_identificador_classe_equipamento":6,"nm_classe_equipamento":"URGÊNCIA/EMERGÊNCIA","tx_classe_equipamento":"ATENDE PACIENTE QUE REQUER CUIDADO IMEDIATO E PODE RESULTAR EM INTERNAÇÃO OU NÃO.","cd_identificador_esfera_administrativa_equipamento":1,"nm_esfera_administrativa_equipamento":"Municipal","tx_esfera_administrativa_equipamento":"Administração municipal","cd_equipamento":"776","nm_equipamento":"PS MUNICIPAL SANTANA - LAURO RIBAS BRAGA","tx_endereco_equipamento":"R. VOLUNTÁRIOS DA PATRIA, 943","nm_bairro_equipamento":"SANTANA","cd_cep_equipamento":"02011-100","tx_horario_funcionamento":null,"tx_numero_telefone":"2223-2919","cd_equipamento_base_origem":null}},{"type":"Feature","id":"equipamento_saude_urgencia_emergencia_v2.120997","geometry":{"type":"Point","coordinates":[327556.233,7401213.624]},"geometry_name":"ge_ponto","properties":{"cd_identificador":120997,"cd_identificador_tema_equipamento":6,"nm_tema_equipamento":"SAUDE","cd_identificador_rede_equipamento":0,"nm_rede_equipamento":"SEM REDE","tx_rede_equipamento":"Sem descrição","cd_identificador_tipo_equipamento":38,"nm_tipo_equipamento":"Pronto Atendimento","tx_tipo_equipamento":"Atendimento de urgência dentro do horário de funcionamento do estabelecimento de saúde.","cd_identificador_classe_equipamento":6,"nm_classe_equipamento":"URGÊNCIA/EMERGÊNCIA","tx_classe_equipamento":"ATENDE PACIENTE QUE REQUER CUIDADO IMEDIATO E PODE RESULTAR EM INTERNAÇÃO OU NÃO.","cd_identificador_esfera_administrativa_equipamento":1,"nm_esfera_administrativa_equipamento":"Municipal","tx_esfera_administrativa_equipamento":"Administração municipal","cd_equipamento":"302","nm_equipamento":"UPA 21 DE JUNHO","tx_endereco_equipamento":"AV. JOÃO PAULO I, 421","nm_bairro_equipamento":"FREGUESIA DO O","cd_cep_equipamento":"02738-000","tx_horario_funcionamento":null,"tx_numero_telefone":"3975-1349","cd_equipamento_base_origem":null}},{"type":"Feature","id":"equipamento_saude_urgencia_emergencia_v2.120998","geometry":{"type":"Point","coordinates":[350578.422,7395458.935]},"geometry_name":"ge_ponto","properties":{"cd_identificador":120998,"cd_identificador_tema_equipamento":6,"nm_tema_equipamento":"SAUDE","cd_identificador_rede_equipamento":0,"nm_rede_equipamento":"SEM REDE","tx_rede_equipamento":"Sem descrição","cd_identificador_tipo_equipamento":38,"nm_tipo_equipamento":"Pronto Atendimento","tx_tipo_equipamento":"Atendimento de urgência dentro do horário de funcionamento do estabelecimento de saúde.","cd_identificador_classe_equipamento":6,"nm_classe_equipamento":"URGÊNCIA/EMERGÊNCIA","tx_classe_equipamento":"ATENDE PACIENTE QUE REQUER CUIDADO IMEDIATO E PODE RESULTAR EM INTERNAÇÃO OU NÃO.","cd_identificador_esfera_administrativa_equipamento":1,"nm_esfera_administrativa_equipamento":"Municipal","tx_esfera_administrativa_equipamento":"Administração municipal","cd_equipamento":"417","nm_equipamento":"UPA 26 DE AGOSTO","tx_endereco_equipamento":"AV. MIGUEL IGNACIO CURI, 44","nm_bairro_equipamento":"ITAQUERA","cd_cep_equipamento":"08295-005","tx_horario_funcionamento":null,"tx_numero_telefone":"4780-5081 / 2070-6456","cd_equipamento_base_origem":null}},{"type":"Feature","id":"equipamento_saude_urgencia_emergencia_v2.120999","geometry":{"type":"Point","coordinates":[321569.824,7383544.357]},"geometry_name":"ge_ponto","properties":{"cd_identificador":120999,"cd_identificador_tema_equipamento":6,"nm_tema_equipamento":"SAUDE","cd_identificador_rede_equipamento":0,"nm_rede_equipamento":"SEM REDE","tx_rede_equipamento":"Sem descrição","cd_identificador_tipo_equipamento":38,"nm_tipo_equipamento":"Pronto Atendimento","tx_tipo_equipamento":"Atendimento de urgência dentro do horário de funcionamento do estabelecimento de saúde.","cd_identificador_classe_equipamento":6,"nm_classe_equipamento":"URGÊNCIA/EMERGÊNCIA","tx_classe_equipamento":"ATENDE PACIENTE QUE REQUER CUIDADO IMEDIATO E PODE RESULTAR EM INTERNAÇÃO OU NÃO.","cd_identificador_esfera_administrativa_equipamento":1,"nm_esfera_administrativa_equipamento":"Municipal","tx_esfera_administrativa_equipamento":"Administração municipal","cd_equipamento":"545","nm_equipamento":"UPA CAMPO LIMPO - DR FERNANDO MAURO PROENÇA DE GOUVEA","tx_endereco_equipamento":"R. TEREZA MOUCO DE OLIVEIRA, 121","nm_bairro_equipamento":"CAMPO LIMPO","cd_cep_equipamento":"05835-005","tx_horario_funcionamento":null,"tx_numero_telefone":"5814-3776 / 5584-6674","cd_equipamento_base_origem":null}},{"type":"Feature","id":"equipamento_saude_urgencia_emergencia_v2.121000","geometry":{"type":"Point","coordinates":[343437.144,7394750.487]},"geometry_name":"ge_ponto","properties":{"cd_identificador":121000,"cd_identificador_tema_equipamento":6,"nm_tema_equipamento":"SAUDE","cd_identificador_rede_equipamento":0,"nm_rede_equipamento":"SEM REDE","tx_rede_equipamento":"Sem descrição","cd_identificador_tipo_equipamento":38,"nm_tipo_equipamento":"Pronto Atendimento","tx_tipo_equipamento":"Atendimento de urgência dentro do horário de funcionamento do estabelecimento de saúde.","cd_identificador_classe_equipamento":6,"nm_classe_equipamento":"URGÊNCIA/EMERGÊNCIA","tx_classe_equipamento":"ATENDE PACIENTE QUE REQUER CUIDADO IMEDIATO E PODE RESULTAR EM INTERNAÇÃO OU NÃO.","cd_identificador_esfera_administrativa_equipamento":1,"nm_esfera_administrativa_equipamento":"Municipal","tx_esfera_administrativa_equipamento":"Administração municipal","cd_equipamento":"9","nm_equipamento":"UPA CARRÃO - MASATAKA OTA","tx_endereco_equipamento":"AV. CONSELHEIRO CARRÃO, 2893","nm_bairro_equipamento":"VILA CARRAO","cd_cep_equipamento":"03403-002","tx_horario_funcionamento":null,"tx_numero_telefone":"3469-8877","cd_equipamento_base_origem":null}},{"type":"Feature","id":"equipamento_saude_urgencia_emergencia_v2.121001","geometry":{"type":"Point","coordinates":[356789.95,7392487.608]},"geometry_name":"ge_ponto","properties":{"cd_identificador":121001,"cd_identificador_tema_equipamento":6,"nm_tema_equipamento":"SAUDE","cd_identificador_rede_equipamento":0,"nm_rede_equipamento":"SEM REDE","tx_rede_equipamento":"Sem descrição","cd_identificador_tipo_equipamento":38,"nm_tipo_equipamento":"Pronto Atendimento","tx_tipo_equipamento":"Atendimento de urgência dentro do horário de funcionamento do estabelecimento de saúde.","cd_identificador_classe_equipamento":6,"nm_classe_equipamento":"URGÊNCIA/EMERGÊNCIA","tx_classe_equipamento":"ATENDE PACIENTE QUE REQUER CUIDADO IMEDIATO E PODE RESULTAR EM INTERNAÇÃO OU NÃO.","cd_identificador_esfera_administrativa_equipamento":1,"nm_esfera_administrativa_equipamento":"Municipal","tx_esfera_administrativa_equipamento":"Administração municipal","cd_equipamento":"240","nm_equipamento":"UPA CIDADE TIRADENTES","tx_endereco_equipamento":"R. IGARAPE DA DIANA, 1","nm_bairro_equipamento":"CONJ. HAB. INACIO MONTEIRO","cd_cep_equipamento":"08472-170","tx_horario_funcionamento":null,"tx_numero_telefone":"5555-7348","cd_equipamento_base_origem":null}},{"type":"Feature","id":"equipamento_saude_urgencia_emergencia_v2.121002","geometry":{"type":"Point","coordinates":[322805.913,7406483.761]},"geometry_name":"ge_ponto","properties":{"cd_identificador":121002,"cd_identificador_tema_equipamento":6,"nm_tema_equipamento":"SAUDE","cd_identificador_rede_equipamento":0,"nm_rede_equipamento":"SEM REDE","tx_rede_equipamento":"Sem descrição","cd_identificador_tipo_equipamento":38,"nm_tipo_equipamento":"Pronto Atendimento","tx_tipo_equipamento":"Atendimento de urgência dentro do horário de funcionamento do estabelecimento de saúde.","cd_identificador_classe_equipamento":6,"nm_classe_equipamento":"URGÊNCIA/EMERGÊNCIA","tx_classe_equipamento":"ATENDE PACIENTE QUE REQUER CUIDADO IMEDIATO E PODE RESULTAR EM INTERNAÇÃO OU NÃO.","cd_identificador_esfera_administrativa_equipamento":1,"nm_esfera_administrativa_equipamento":"Municipal","tx_esfera_administrativa_equipamento":"Administração municipal","cd_equipamento":"725","nm_equipamento":"UPA CITY JARAGUA","tx_endereco_equipamento":"ESTRADA DAS TAIPAS, 1650","nm_bairro_equipamento":"JARAGUA","cd_cep_equipamento":"02991-000","tx_horario_funcionamento":null,"tx_numero_telefone":"3245-9030","cd_equipamento_base_origem":null}},{"type":"Feature","id":"equipamento_saude_urgencia_emergencia_v2.121003","geometry":{"type":"Point","coordinates":[327715.063,7372550.524]},"geometry_name":"ge_ponto","properties":{"cd_identificador":121003,"cd_identificador_tema_equipamento":6,"nm_tema_equipamento":"SAUDE","cd_identificador_rede_equipamento":0,"nm_rede_equipamento":"SEM REDE","tx_rede_equipamento":"Sem descrição","cd_identificador_tipo_equipamento":38,"nm_tipo_equipamento":"Pronto Atendimento","tx_tipo_equipamento":"Atendimento de urgência dentro do horário de funcionamento do estabelecimento de saúde.","cd_identificador_classe_equipamento":6,"nm_classe_equipamento":"URGÊNCIA/EMERGÊNCIA","tx_classe_equipamento":"ATENDE PACIENTE QUE REQUER CUIDADO IMEDIATO E PODE RESULTAR EM INTERNAÇÃO OU NÃO.","cd_identificador_esfera_administrativa_equipamento":1,"nm_esfera_administrativa_equipamento":"Municipal","tx_esfera_administrativa_equipamento":"Administração municipal","cd_equipamento":"142","nm_equipamento":"UPA DONA MARIA ANTONIETA FERREIRA DE BARROS","tx_endereco_equipamento":"R. ANTONIO FELIPE FILHO, 180","nm_bairro_equipamento":"GRAJAÚ","cd_cep_equipamento":"04845-000","tx_horario_funcionamento":null,"tx_numero_telefone":"5928-0345","cd_equipamento_base_origem":null}},{"type":"Feature","id":"equipamento_saude_urgencia_emergencia_v2.121004","geometry":{"type":"Point","coordinates":[357502.147,7399514.288]},"geometry_name":"ge_ponto","properties":{"cd_identificador":121004,"cd_identificador_tema_equipamento":6,"nm_tema_equipamento":"SAUDE","cd_identificador_rede_equipamento":0,"nm_rede_equipamento":"SEM REDE","tx_rede_equipamento":"Sem descrição","cd_identificador_tipo_equipamento":38,"nm_tipo_equipamento":"Pronto Atendimento","tx_tipo_equipamento":"Atendimento de urgência dentro do horário de funcionamento do estabelecimento de saúde.","cd_identificador_classe_equipamento":6,"nm_classe_equipamento":"URGÊNCIA/EMERGÊNCIA","tx_classe_equipamento":"ATENDE PACIENTE QUE REQUER CUIDADO IMEDIATO E PODE RESULTAR EM INTERNAÇÃO OU NÃO.","cd_identificador_esfera_administrativa_equipamento":1,"nm_esfera_administrativa_equipamento":"Municipal","tx_esfera_administrativa_equipamento":"Administração municipal","cd_equipamento":"384","nm_equipamento":"UPA DR. ATUALPA GIRÃO RABELO","tx_endereco_equipamento":"R. ILHA DO ARVOREDO, 251","nm_bairro_equipamento":"ITAIM PAULISTA","cd_cep_equipamento":"08140-270","tx_horario_funcionamento":null,"tx_numero_telefone":"2562-0270","cd_equipamento_base_origem":null}},{"type":"Feature","id":"equipamento_saude_urgencia_emergencia_v2.121005","geometry":{"type":"Point","coordinates":[349521.967,7400453.625]},"geometry_name":"ge_ponto","properties":{"cd_identificador":121005,"cd_identificador_tema_equipamento":6,"nm_tema_equipamento":"SAUDE","cd_identificador_rede_equipamento":0,"nm_rede_equipamento":"SEM REDE","tx_rede_equipamento":"Sem descrição","cd_identificador_tipo_equipamento":38,"nm_tipo_equipamento":"Pronto Atendimento","tx_tipo_equipamento":"Atendimento de urgência dentro do horário de funcionamento do estabelecimento de saúde.","cd_identificador_classe_equipamento":6,"nm_classe_equipamento":"URGÊNCIA/EMERGÊNCIA","tx_classe_equipamento":"ATENDE PACIENTE QUE REQUER CUIDADO IMEDIATO E PODE RESULTAR EM INTERNAÇÃO OU NÃO.","cd_identificador_esfera_administrativa_equipamento":1,"nm_esfera_administrativa_equipamento":"Municipal","tx_esfera_administrativa_equipamento":"Administração municipal","cd_equipamento":"253","nm_equipamento":"UPA ERMELINO MATARAZZO","tx_endereco_equipamento":"R. MIGUEL NOVAIS, 113","nm_bairro_equipamento":"VILA PARANAGUA","cd_cep_equipamento":"03807-370","tx_horario_funcionamento":null,"tx_numero_telefone":"2574-3258","cd_equipamento_base_origem":null}},{"type":"Feature","id":"equipamento_saude_urgencia_emergencia_v2.121006","geometry":{"type":"Point","coordinates":[332194.237,7383207.336]},"geometry_name":"ge_ponto","properties":{"cd_identificador":121006,"cd_identificador_tema_equipamento":6,"nm_tema_equipamento":"SAUDE","cd_identificador_rede_equipamento":0,"nm_rede_equipamento":"SEM REDE","tx_rede_equipamento":"Sem descrição","cd_identificador_tipo_equipamento":38,"nm_tipo_equipamento":"Pronto Atendimento","tx_tipo_equipamento":"Atendimento de urgência dentro do horário de funcionamento do estabelecimento de saúde.","cd_identificador_classe_equipamento":6,"nm_classe_equipamento":"URGÊNCIA/EMERGÊNCIA","tx_classe_equipamento":"ATENDE PACIENTE QUE REQUER CUIDADO IMEDIATO E PODE RESULTAR EM INTERNAÇÃO OU NÃO.","cd_identificador_esfera_administrativa_equipamento":1,"nm_esfera_administrativa_equipamento":"Municipal","tx_esfera_administrativa_equipamento":"Administração municipal","cd_equipamento":"457","nm_equipamento":"UPA JABAQUARA","tx_endereco_equipamento":"R. CRUZ DAS ALMAS, 290","nm_bairro_equipamento":"VILA CAMPESTRE","cd_cep_equipamento":"04330-060","tx_horario_funcionamento":null,"tx_numero_telefone":"2476-7356","cd_equipamento_base_origem":null}},{"type":"Feature","id":"equipamento_saude_urgencia_emergencia_v2.121007","geometry":{"type":"Point","coordinates":[338594.635,7404730.753]},"geometry_name":"ge_ponto","properties":{"cd_identificador":121007,"cd_identificador_tema_equipamento":6,"nm_tema_equipamento":"SAUDE","cd_identificador_rede_equipamento":0,"nm_rede_equipamento":"SEM REDE","tx_rede_equipamento":"Sem descrição","cd_identificador_tipo_equipamento":38,"nm_tipo_equipamento":"Pronto Atendimento","tx_tipo_equipamento":"Atendimento de urgência dentro do horário de funcionamento do estabelecimento de saúde.","cd_identificador_classe_equipamento":6,"nm_classe_equipamento":"URGÊNCIA/EMERGÊNCIA","tx_classe_equipamento":"ATENDE PACIENTE QUE REQUER CUIDADO IMEDIATO E PODE RESULTAR EM INTERNAÇÃO OU NÃO.","cd_identificador_esfera_administrativa_equipamento":1,"nm_esfera_administrativa_equipamento":"Municipal","tx_esfera_administrativa_equipamento":"Administração municipal","cd_equipamento":"479","nm_equipamento":"UPA JAÇANÃ","tx_endereco_equipamento":"R. ESTER ELISA, 229","nm_bairro_equipamento":"VILA NILO","cd_cep_equipamento":"02278-040","tx_horario_funcionamento":null,"tx_numero_telefone":"2243-1669","cd_equipamento_base_origem":null}},{"type":"Feature","id":"equipamento_saude_urgencia_emergencia_v2.121008","geometry":{"type":"Point","coordinates":[319594.515,7379647.224]},"geometry_name":"ge_ponto","properties":{"cd_identificador":121008,"cd_identificador_tema_equipamento":6,"nm_tema_equipamento":"SAUDE","cd_identificador_rede_equipamento":0,"nm_rede_equipamento":"SEM REDE","tx_rede_equipamento":"Sem descrição","cd_identificador_tipo_equipamento":38,"nm_tipo_equipamento":"Pronto Atendimento","tx_tipo_equipamento":"Atendimento de urgência dentro do horário de funcionamento do estabelecimento de saúde.","cd_identificador_classe_equipamento":6,"nm_classe_equipamento":"URGÊNCIA/EMERGÊNCIA","tx_classe_equipamento":"ATENDE PACIENTE QUE REQUER CUIDADO IMEDIATO E PODE RESULTAR EM INTERNAÇÃO OU NÃO.","cd_identificador_esfera_administrativa_equipamento":1,"nm_esfera_administrativa_equipamento":"Municipal","tx_esfera_administrativa_equipamento":"Administração municipal","cd_equipamento":"530","nm_equipamento":"UPA JARDIM ANGELA","tx_endereco_equipamento":"ESTRADA GUAVIRITUBA, 49","nm_bairro_equipamento":"VILA SANTA LÚCIA","cd_cep_equipamento":"04937-000","tx_horario_funcionamento":null,"tx_numero_telefone":"5834-0840","cd_equipamento_base_origem":null}},{"type":"Feature","id":"equipamento_saude_urgencia_emergencia_v2.121009","geometry":{"type":"Point","coordinates":[327837.104,7404974.048]},"geometry_name":"ge_ponto","properties":{"cd_identificador":121009,"cd_identificador_tema_equipamento":6,"nm_tema_equipamento":"SAUDE","cd_identificador_rede_equipamento":0,"nm_rede_equipamento":"SEM REDE","tx_rede_equipamento":"Sem descrição","cd_identificador_tipo_equipamento":38,"nm_tipo_equipamento":"Pronto Atendimento","tx_tipo_equipamento":"Atendimento de urgência dentro do horário de funcionamento do estabelecimento de saúde.","cd_identificador_classe_equipamento":6,"nm_classe_equipamento":"URGÊNCIA/EMERGÊNCIA","tx_classe_equipamento":"ATENDE PACIENTE QUE REQUER CUIDADO IMEDIATO E PODE RESULTAR EM INTERNAÇÃO OU NÃO.","cd_identificador_esfera_administrativa_equipamento":1,"nm_esfera_administrativa_equipamento":"Municipal","tx_esfera_administrativa_equipamento":"Administração municipal","cd_equipamento":"288","nm_equipamento":"UPA JARDIM ELISA MARIA I","tx_endereco_equipamento":"R. ROMULO NALDI, 57","nm_bairro_equipamento":"CONJ. PROMORAR ESTRADA DA PARADA","cd_cep_equipamento":"02873-250","tx_horario_funcionamento":null,"tx_numero_telefone":null,"cd_equipamento_base_origem":null}},{"type":"Feature","id":"equipamento_saude_urgencia_emergencia_v2.121010","geometry":{"type":"Point","coordinates":[355026.668,7402736.832]},"geometry_name":"ge_ponto","properties":{"cd_identificador":121010,"cd_identificador_tema_equipamento":6,"nm_tema_equipamento":"SAUDE","cd_identificador_rede_equipamento":0,"nm_rede_equipamento":"SEM REDE","tx_rede_equipamento":"Sem descrição","cd_identificador_tipo_equipamento":38,"nm_tipo_equipamento":"Pronto Atendimento","tx_tipo_equipamento":"Atendimento de urgência dentro do horário de funcionamento do estabelecimento de saúde.","cd_identificador_classe_equipamento":6,"nm_classe_equipamento":"URGÊNCIA/EMERGÊNCIA","tx_classe_equipamento":"ATENDE PACIENTE QUE REQUER CUIDADO IMEDIATO E PODE RESULTAR EM INTERNAÇÃO OU NÃO.","cd_identificador_esfera_administrativa_equipamento":1,"nm_esfera_administrativa_equipamento":"Municipal","tx_esfera_administrativa_equipamento":"Administração municipal","cd_equipamento":"869","nm_equipamento":"UPA JARDIM HELENA","tx_endereco_equipamento":"R. KUMAKI AOKI, 785","nm_bairro_equipamento":"JARDIM HELENA","cd_cep_equipamento":"08090-370","tx_horario_funcionamento":null,"tx_numero_telefone":null,"cd_equipamento_base_origem":null}},{"type":"Feature","id":"equipamento_saude_urgencia_emergencia_v2.121011","geometry":{"type":"Point","coordinates":[326194.595,7373056.487]},"geometry_name":"ge_ponto","properties":{"cd_identificador":121011,"cd_identificador_tema_equipamento":6,"nm_tema_equipamento":"SAUDE","cd_identificador_rede_equipamento":0,"nm_rede_equipamento":"SEM REDE","tx_rede_equipamento":"Sem descrição","cd_identificador_tipo_equipamento":38,"nm_tipo_equipamento":"Pronto Atendimento","tx_tipo_equipamento":"Atendimento de urgência dentro do horário de funcionamento do estabelecimento de saúde.","cd_identificador_classe_equipamento":6,"nm_classe_equipamento":"URGÊNCIA/EMERGÊNCIA","tx_classe_equipamento":"ATENDE PACIENTE QUE REQUER CUIDADO IMEDIATO E PODE RESULTAR EM INTERNAÇÃO OU NÃO.","cd_identificador_esfera_administrativa_equipamento":1,"nm_esfera_administrativa_equipamento":"Municipal","tx_esfera_administrativa_equipamento":"Administração municipal","cd_equipamento":"123","nm_equipamento":"UPA JARDIM ICARAI QUINTANA","tx_endereco_equipamento":"R. SÃO ROQUE DO PARAGUAÇU, 190","nm_bairro_equipamento":"VILA QUINTANA","cd_cep_equipamento":"04837-150","tx_horario_funcionamento":null,"tx_numero_telefone":"5925-2222","cd_equipamento_base_origem":null}},{"type":"Feature","id":"equipamento_saude_urgencia_emergencia_v2.121012","geometry":{"type":"Point","coordinates":[329689.653,7403760.62]},"geometry_name":"ge_ponto","properties":{"cd_identificador":121012,"cd_identificador_tema_equipamento":6,"nm_tema_equipamento":"SAUDE","cd_identificador_rede_equipamento":0,"nm_rede_equipamento":"SEM REDE","tx_rede_equipamento":"Sem descrição","cd_identificador_tipo_equipamento":38,"nm_tipo_equipamento":"Pronto Atendimento","tx_tipo_equipamento":"Atendimento de urgência dentro do horário de funcionamento do estabelecimento de saúde.","cd_identificador_classe_equipamento":6,"nm_classe_equipamento":"URGÊNCIA/EMERGÊNCIA","tx_classe_equipamento":"ATENDE PACIENTE QUE REQUER CUIDADO IMEDIATO E PODE RESULTAR EM INTERNAÇÃO OU NÃO.","cd_identificador_esfera_administrativa_equipamento":1,"nm_esfera_administrativa_equipamento":"Municipal","tx_esfera_administrativa_equipamento":"Administração municipal","cd_equipamento":"165","nm_equipamento":"UPA JARDIM PERI","tx_endereco_equipamento":"R. AFONSO LOPES VIEIRA, 35","nm_bairro_equipamento":"VILA DIONISIA","cd_cep_equipamento":"02671-100","tx_horario_funcionamento":null,"tx_numero_telefone":"3984-7571","cd_equipamento_base_origem":null}},{"type":"Feature","id":"equipamento_saude_urgencia_emergencia_v2.121013","geometry":{"type":"Point","coordinates":[355944.906,7397347.489]},"geometry_name":"ge_ponto","properties":{"cd_identificador":121013,"cd_identificador_tema_equipamento":6,"nm_tema_equipamento":"SAUDE","cd_identificador_rede_equipamento":0,"nm_rede_equipamento":"SEM REDE","tx_rede_equipamento":"Sem descrição","cd_identificador_tipo_equipamento":38,"nm_tipo_equipamento":"Pronto Atendimento","tx_tipo_equipamento":"Atendimento de urgência dentro do horário de funcionamento do estabelecimento de saúde.","cd_identificador_classe_equipamento":6,"nm_classe_equipamento":"URGÊNCIA/EMERGÊNCIA","tx_classe_equipamento":"ATENDE PACIENTE QUE REQUER CUIDADO IMEDIATO E PODE RESULTAR EM INTERNAÇÃO OU NÃO.","cd_identificador_esfera_administrativa_equipamento":1,"nm_esfera_administrativa_equipamento":"Municipal","tx_esfera_administrativa_equipamento":"Administração municipal","cd_equipamento":"329","nm_equipamento":"UPA JULIO TUPY","tx_endereco_equipamento":"R. SERRA DA QUEIMADA, 800","nm_bairro_equipamento":"PQ GUAIANASES","cd_cep_equipamento":"08431-640","tx_horario_funcionamento":null,"tx_numero_telefone":"2511-6665","cd_equipamento_base_origem":null}},{"type":"Feature","id":"equipamento_saude_urgencia_emergencia_v2.121014","geometry":{"type":"Point","coordinates":[337662.162,7395121.48]},"geometry_name":"ge_ponto","properties":{"cd_identificador":121014,"cd_identificador_tema_equipamento":6,"nm_tema_equipamento":"SAUDE","cd_identificador_rede_equipamento":0,"nm_rede_equipamento":"SEM REDE","tx_rede_equipamento":"Sem descrição","cd_identificador_tipo_equipamento":38,"nm_tipo_equipamento":"Pronto Atendimento","tx_tipo_equipamento":"Atendimento de urgência dentro do horário de funcionamento do estabelecimento de saúde.","cd_identificador_classe_equipamento":6,"nm_classe_equipamento":"URGÊNCIA/EMERGÊNCIA","tx_classe_equipamento":"ATENDE PACIENTE QUE REQUER CUIDADO IMEDIATO E PODE RESULTAR EM INTERNAÇÃO OU NÃO.","cd_identificador_esfera_administrativa_equipamento":1,"nm_esfera_administrativa_equipamento":"Municipal","tx_esfera_administrativa_equipamento":"Administração municipal","cd_equipamento":"601","nm_equipamento":"UPA MOOCA - DOM PAULO EVARISTO ARNS","tx_endereco_equipamento":"R. DR FOMM, 261","nm_bairro_equipamento":"BELENZINHO","cd_cep_equipamento":"03163-030","tx_horario_funcionamento":null,"tx_numero_telefone":null,"cd_equipamento_base_origem":null}},{"type":"Feature","id":"equipamento_saude_urgencia_emergencia_v2.121015","geometry":{"type":"Point","coordinates":[323226.993,7365085.303]},"geometry_name":"ge_ponto","properties":{"cd_identificador":121015,"cd_identificador_tema_equipamento":6,"nm_tema_equipamento":"SAUDE","cd_identificador_rede_equipamento":0,"nm_rede_equipamento":"SEM REDE","tx_rede_equipamento":"Sem descrição","cd_identificador_tipo_equipamento":38,"nm_tipo_equipamento":"Pronto Atendimento","tx_tipo_equipamento":"Atendimento de urgência dentro do horário de funcionamento do estabelecimento de saúde.","cd_identificador_classe_equipamento":6,"nm_classe_equipamento":"URGÊNCIA/EMERGÊNCIA","tx_classe_equipamento":"ATENDE PACIENTE QUE REQUER CUIDADO IMEDIATO E PODE RESULTAR EM INTERNAÇÃO OU NÃO.","cd_identificador_esfera_administrativa_equipamento":1,"nm_esfera_administrativa_equipamento":"Municipal","tx_esfera_administrativa_equipamento":"Administração municipal","cd_equipamento":"621","nm_equipamento":"UPA PARELHEIROS","tx_endereco_equipamento":"ESTRADA ECOTURISTICA DE PARELHEIROS, 5252","nm_bairro_equipamento":"JD DOS ALAMOS","cd_cep_equipamento":"04883-025","tx_horario_funcionamento":null,"tx_numero_telefone":"5683-8900","cd_equipamento_base_origem":null}},{"type":"Feature","id":"equipamento_saude_urgencia_emergencia_v2.121016","geometry":{"type":"Point","coordinates":[331924.827,7378305.876]},"geometry_name":"ge_ponto","properties":{"cd_identificador":121016,"cd_identificador_tema_equipamento":6,"nm_tema_equipamento":"SAUDE","cd_identificador_rede_equipamento":0,"nm_rede_equipamento":"SEM REDE","tx_rede_equipamento":"Sem descrição","cd_identificador_tipo_equipamento":38,"nm_tipo_equipamento":"Pronto Atendimento","tx_tipo_equipamento":"Atendimento de urgência dentro do horário de funcionamento do estabelecimento de saúde.","cd_identificador_classe_equipamento":6,"nm_classe_equipamento":"URGÊNCIA/EMERGÊNCIA","tx_classe_equipamento":"ATENDE PACIENTE QUE REQUER CUIDADO IMEDIATO E PODE RESULTAR EM INTERNAÇÃO OU NÃO.","cd_identificador_esfera_administrativa_equipamento":1,"nm_esfera_administrativa_equipamento":"Municipal","tx_esfera_administrativa_equipamento":"Administração municipal","cd_equipamento":"203","nm_equipamento":"UPA PARQUE DOROTEIA","tx_endereco_equipamento":"R. DOS ANIQUIS, 3","nm_bairro_equipamento":"JARDIM SANTA TEREZINHA","cd_cep_equipamento":"04474-000","tx_horario_funcionamento":null,"tx_numero_telefone":"5560-1164","cd_equipamento_base_origem":null}},{"type":"Feature","id":"equipamento_saude_urgencia_emergencia_v2.121017","geometry":{"type":"Point","coordinates":[329052.706,7378529.771]},"geometry_name":"ge_ponto","properties":{"cd_identificador":121017,"cd_identificador_tema_equipamento":6,"nm_tema_equipamento":"SAUDE","cd_identificador_rede_equipamento":0,"nm_rede_equipamento":"SEM REDE","tx_rede_equipamento":"Sem descrição","cd_identificador_tipo_equipamento":38,"nm_tipo_equipamento":"Pronto Atendimento","tx_tipo_equipamento":"Atendimento de urgência dentro do horário de funcionamento do estabelecimento de saúde.","cd_identificador_classe_equipamento":6,"nm_classe_equipamento":"URGÊNCIA/EMERGÊNCIA","tx_classe_equipamento":"ATENDE PACIENTE QUE REQUER CUIDADO IMEDIATO E PODE RESULTAR EM INTERNAÇÃO OU NÃO.","cd_identificador_esfera_administrativa_equipamento":1,"nm_esfera_administrativa_equipamento":"Municipal","tx_esfera_administrativa_equipamento":"Administração municipal","cd_equipamento":"209","nm_equipamento":"UPA PEDREIRA - DR. CESAR ANTUNES DA ROCHA","tx_endereco_equipamento":"AV. NOSSA SENHORA DO SABARA, 4901","nm_bairro_equipamento":"VILA EMIR","cd_cep_equipamento":"04447-021","tx_horario_funcionamento":null,"tx_numero_telefone":"5614-7473","cd_equipamento_base_origem":null}},{"type":"Feature","id":"equipamento_saude_urgencia_emergencia_v2.121018","geometry":{"type":"Point","coordinates":[321502.136,7411058.148]},"geometry_name":"ge_ponto","properties":{"cd_identificador":121018,"cd_identificador_tema_equipamento":6,"nm_tema_equipamento":"SAUDE","cd_identificador_rede_equipamento":0,"nm_rede_equipamento":"SEM REDE","tx_rede_equipamento":"Sem descrição","cd_identificador_tipo_equipamento":38,"nm_tipo_equipamento":"Pronto Atendimento","tx_tipo_equipamento":"Atendimento de urgência dentro do horário de funcionamento do estabelecimento de saúde.","cd_identificador_classe_equipamento":6,"nm_classe_equipamento":"URGÊNCIA/EMERGÊNCIA","tx_classe_equipamento":"ATENDE PACIENTE QUE REQUER CUIDADO IMEDIATO E PODE RESULTAR EM INTERNAÇÃO OU NÃO.","cd_identificador_esfera_administrativa_equipamento":1,"nm_esfera_administrativa_equipamento":"Municipal","tx_esfera_administrativa_equipamento":"Administração municipal","cd_equipamento":"684","nm_equipamento":"UPA PERUS - DR. LUIZ ANTONIO DE ABREU SAMPAIO DORIA","tx_endereco_equipamento":"R. ESTEVAN RIBEIRO RESENDE, S/Nº","nm_bairro_equipamento":"PERUS","cd_cep_equipamento":"05202-140","tx_horario_funcionamento":null,"tx_numero_telefone":"3917-1242","cd_equipamento_base_origem":null}},{"type":"Feature","id":"equipamento_saude_urgencia_emergencia_v2.121019","geometry":{"type":"Point","coordinates":[323567.976,7401772.501]},"geometry_name":"ge_ponto","properties":{"cd_identificador":121019,"cd_identificador_tema_equipamento":6,"nm_tema_equipamento":"SAUDE","cd_identificador_rede_equipamento":0,"nm_rede_equipamento":"SEM REDE","tx_rede_equipamento":"Sem descrição","cd_identificador_tipo_equipamento":38,"nm_tipo_equipamento":"Pronto Atendimento","tx_tipo_equipamento":"Atendimento de urgência dentro do horário de funcionamento do estabelecimento de saúde.","cd_identificador_classe_equipamento":6,"nm_classe_equipamento":"URGÊNCIA/EMERGÊNCIA","tx_classe_equipamento":"ATENDE PACIENTE QUE REQUER CUIDADO IMEDIATO E PODE RESULTAR EM INTERNAÇÃO OU NÃO.","cd_identificador_esfera_administrativa_equipamento":1,"nm_esfera_administrativa_equipamento":"Municipal","tx_esfera_administrativa_equipamento":"Administração municipal","cd_equipamento":"740","nm_equipamento":"UPA PIRITUBA","tx_endereco_equipamento":"AV. MENOTTI LAUDÍSIO, 100","nm_bairro_equipamento":"PIRITUBA","cd_cep_equipamento":"02945-000","tx_horario_funcionamento":null,"tx_numero_telefone":"2039-5555","cd_equipamento_base_origem":null}},{"type":"Feature","id":"equipamento_saude_urgencia_emergencia_v2.121020","geometry":{"type":"Point","coordinates":[319840.49,7391575.407]},"geometry_name":"ge_ponto","properties":{"cd_identificador":121020,"cd_identificador_tema_equipamento":6,"nm_tema_equipamento":"SAUDE","cd_identificador_rede_equipamento":0,"nm_rede_equipamento":"SEM REDE","tx_rede_equipamento":"Sem descrição","cd_identificador_tipo_equipamento":38,"nm_tipo_equipamento":"Pronto Atendimento","tx_tipo_equipamento":"Atendimento de urgência dentro do horário de funcionamento do estabelecimento de saúde.","cd_identificador_classe_equipamento":6,"nm_classe_equipamento":"URGÊNCIA/EMERGÊNCIA","tx_classe_equipamento":"ATENDE PACIENTE QUE REQUER CUIDADO IMEDIATO E PODE RESULTAR EM INTERNAÇÃO OU NÃO.","cd_identificador_esfera_administrativa_equipamento":1,"nm_esfera_administrativa_equipamento":"Municipal","tx_esfera_administrativa_equipamento":"Administração municipal","cd_equipamento":"48","nm_equipamento":"UPA RIO PEQUENO","tx_endereco_equipamento":"R. JOSE VICENTE DA CRUZ, 90","nm_bairro_equipamento":"VILA ANTONIO","cd_cep_equipamento":"05376-000","tx_horario_funcionamento":null,"tx_numero_telefone":"5043-5558","cd_equipamento_base_origem":null}},{"type":"Feature","id":"equipamento_saude_urgencia_emergencia_v2.121021","geometry":{"type":"Point","coordinates":[337386.729,7387605.079]},"geometry_name":"ge_ponto","properties":{"cd_identificador":121021,"cd_identificador_tema_equipamento":6,"nm_tema_equipamento":"SAUDE","cd_identificador_rede_equipamento":0,"nm_rede_equipamento":"SEM REDE","tx_rede_equipamento":"Sem descrição","cd_identificador_tipo_equipamento":38,"nm_tipo_equipamento":"Pronto Atendimento","tx_tipo_equipamento":"Atendimento de urgência dentro do horário de funcionamento do estabelecimento de saúde.","cd_identificador_classe_equipamento":6,"nm_classe_equipamento":"URGÊNCIA/EMERGÊNCIA","tx_classe_equipamento":"ATENDE PACIENTE QUE REQUER CUIDADO IMEDIATO E PODE RESULTAR EM INTERNAÇÃO OU NÃO.","cd_identificador_esfera_administrativa_equipamento":1,"nm_esfera_administrativa_equipamento":"Municipal","tx_esfera_administrativa_equipamento":"Administração municipal","cd_equipamento":"365","nm_equipamento":"UPA SACOMÃ","tx_endereco_equipamento":"ESTRADA DAS LAGRIMAS, 1403","nm_bairro_equipamento":"SACOMÃ","cd_cep_equipamento":"04232-000","tx_horario_funcionamento":null,"tx_numero_telefone":"2063-9098","cd_equipamento_base_origem":null}},{"type":"Feature","id":"equipamento_saude_urgencia_emergencia_v2.121022","geometry":{"type":"Point","coordinates":[326126.267,7383302.968]},"geometry_name":"ge_ponto","properties":{"cd_identificador":121022,"cd_identificador_tema_equipamento":6,"nm_tema_equipamento":"SAUDE","cd_identificador_rede_equipamento":0,"nm_rede_equipamento":"SEM REDE","tx_rede_equipamento":"Sem descrição","cd_identificador_tipo_equipamento":38,"nm_tipo_equipamento":"Pronto Atendimento","tx_tipo_equipamento":"Atendimento de urgência dentro do horário de funcionamento do estabelecimento de saúde.","cd_identificador_classe_equipamento":6,"nm_classe_equipamento":"URGÊNCIA/EMERGÊNCIA","tx_classe_equipamento":"ATENDE PACIENTE QUE REQUER CUIDADO IMEDIATO E PODE RESULTAR EM INTERNAÇÃO OU NÃO.","cd_identificador_esfera_administrativa_equipamento":1,"nm_esfera_administrativa_equipamento":"Municipal","tx_esfera_administrativa_equipamento":"Administração municipal","cd_equipamento":"811","nm_equipamento":"UPA SANTO AMARO - DR JOSÉ SYLVIO DE CAMARGO","tx_endereco_equipamento":"R. PROMOTOR GABRIEL NETTUZZI PEREZ, 41","nm_bairro_equipamento":"SANTO AMARO","cd_cep_equipamento":"04743-020","tx_horario_funcionamento":null,"tx_numero_telefone":"5521-2553","cd_equipamento_base_origem":null}},{"type":"Feature","id":"equipamento_saude_urgencia_emergencia_v2.121023","geometry":{"type":"Point","coordinates":[340272.224,7396554.014]},"geometry_name":"ge_ponto","properties":{"cd_identificador":121023,"cd_identificador_tema_equipamento":6,"nm_tema_equipamento":"SAUDE","cd_identificador_rede_equipamento":0,"nm_rede_equipamento":"SEM REDE","tx_rede_equipamento":"Sem descrição","cd_identificador_tipo_equipamento":38,"nm_tipo_equipamento":"Pronto Atendimento","tx_tipo_equipamento":"Atendimento de urgência dentro do horário de funcionamento do estabelecimento de saúde.","cd_identificador_classe_equipamento":6,"nm_classe_equipamento":"URGÊNCIA/EMERGÊNCIA","tx_classe_equipamento":"ATENDE PACIENTE QUE REQUER CUIDADO IMEDIATO E PODE RESULTAR EM INTERNAÇÃO OU NÃO.","cd_identificador_esfera_administrativa_equipamento":1,"nm_esfera_administrativa_equipamento":"Municipal","tx_esfera_administrativa_equipamento":"Administração municipal","cd_equipamento":"605","nm_equipamento":"UPA TATUAPE - WALDEMAR ROSSI","tx_endereco_equipamento":"AV. CELSO GARCIA, 4974","nm_bairro_equipamento":"TATUAPE","cd_cep_equipamento":"03064-000","tx_horario_funcionamento":null,"tx_numero_telefone":"3245-8333","cd_equipamento_base_origem":null}},{"type":"Feature","id":"equipamento_saude_urgencia_emergencia_v2.121024","geometry":{"type":"Point","coordinates":[352659.64,7400502.973]},"geometry_name":"ge_ponto","properties":{"cd_identificador":121024,"cd_identificador_tema_equipamento":6,"nm_tema_equipamento":"SAUDE","cd_identificador_rede_equipamento":0,"nm_rede_equipamento":"SEM REDE","tx_rede_equipamento":"Sem descrição","cd_identificador_tipo_equipamento":38,"nm_tipo_equipamento":"Pronto Atendimento","tx_tipo_equipamento":"Atendimento de urgência dentro do horário de funcionamento do estabelecimento de saúde.","cd_identificador_classe_equipamento":6,"nm_classe_equipamento":"URGÊNCIA/EMERGÊNCIA","tx_classe_equipamento":"ATENDE PACIENTE QUE REQUER CUIDADO IMEDIATO E PODE RESULTAR EM INTERNAÇÃO OU NÃO.","cd_identificador_esfera_administrativa_equipamento":1,"nm_esfera_administrativa_equipamento":"Municipal","tx_esfera_administrativa_equipamento":"Administração municipal","cd_equipamento":"883","nm_equipamento":"UPA TITO LOPES","tx_endereco_equipamento":"AV. PIRES DO RIO, 294","nm_bairro_equipamento":"VILA AMERICANA","cd_cep_equipamento":"08020-000","tx_horario_funcionamento":null,"tx_numero_telefone":"4780-5114","cd_equipamento_base_origem":null}},{"type":"Feature","id":"equipamento_saude_urgencia_emergencia_v2.121025","geometry":{"type":"Point","coordinates":[318482.017,7373748.846]},"geometry_name":"ge_ponto","properties":{"cd_identificador":121025,"cd_identificador_tema_equipamento":6,"nm_tema_equipamento":"SAUDE","cd_identificador_rede_equipamento":0,"nm_rede_equipamento":"SEM REDE","tx_rede_equipamento":"Sem descrição","cd_identificador_tipo_equipamento":38,"nm_tipo_equipamento":"Pronto Atendimento","tx_tipo_equipamento":"Atendimento de urgência dentro do horário de funcionamento do estabelecimento de saúde.","cd_identificador_classe_equipamento":6,"nm_classe_equipamento":"URGÊNCIA/EMERGÊNCIA","tx_classe_equipamento":"ATENDE PACIENTE QUE REQUER CUIDADO IMEDIATO E PODE RESULTAR EM INTERNAÇÃO OU NÃO.","cd_identificador_esfera_administrativa_equipamento":1,"nm_esfera_administrativa_equipamento":"Municipal","tx_esfera_administrativa_equipamento":"Administração municipal","cd_equipamento":"543","nm_equipamento":"UPA VERA CRUZ","tx_endereco_equipamento":"AV. DOS FUNCIONARIOS PUBLICOS, 379","nm_bairro_equipamento":"JARDIM VERA CRUZ","cd_cep_equipamento":"04962-000","tx_horario_funcionamento":null,"tx_numero_telefone":"5898-5900","cd_equipamento_base_origem":null}},{"type":"Feature","id":"equipamento_saude_urgencia_emergencia_v2.121026","geometry":{"type":"Point","coordinates":[332661.412,7392701.246]},"geometry_name":"ge_ponto","properties":{"cd_identificador":121026,"cd_identificador_tema_equipamento":6,"nm_tema_equipamento":"SAUDE","cd_identificador_rede_equipamento":0,"nm_rede_equipamento":"SEM REDE","tx_rede_equipamento":"Sem descrição","cd_identificador_tipo_equipamento":38,"nm_tipo_equipamento":"Pronto Atendimento","tx_tipo_equipamento":"Atendimento de urgência dentro do horário de funcionamento do estabelecimento de saúde.","cd_identificador_classe_equipamento":6,"nm_classe_equipamento":"URGÊNCIA/EMERGÊNCIA","tx_classe_equipamento":"ATENDE PACIENTE QUE REQUER CUIDADO IMEDIATO E PODE RESULTAR EM INTERNAÇÃO OU NÃO.","cd_identificador_esfera_administrativa_equipamento":1,"nm_esfera_administrativa_equipamento":"Municipal","tx_esfera_administrativa_equipamento":"Administração municipal","cd_equipamento":"952","nm_equipamento":"UPA VERGUEIRO","tx_endereco_equipamento":"R. VERGUEIRO, 613","nm_bairro_equipamento":"LIBERDADE","cd_cep_equipamento":"01504-001","tx_horario_funcionamento":null,"tx_numero_telefone":"4040-1067","cd_equipamento_base_origem":null}},{"type":"Feature","id":"equipamento_saude_urgencia_emergencia_v2.121027","geometry":{"type":"Point","coordinates":[338962.421,7398328.416]},"geometry_name":"ge_ponto","properties":{"cd_identificador":121027,"cd_identificador_tema_equipamento":6,"nm_tema_equipamento":"SAUDE","cd_identificador_rede_equipamento":0,"nm_rede_equipamento":"SEM REDE","tx_rede_equipamento":"Sem descrição","cd_identificador_tipo_equipamento":38,"nm_tipo_equipamento":"Pronto Atendimento","tx_tipo_equipamento":"Atendimento de urgência dentro do horário de funcionamento do estabelecimento de saúde.","cd_identificador_classe_equipamento":6,"nm_classe_equipamento":"URGÊNCIA/EMERGÊNCIA","tx_classe_equipamento":"ATENDE PACIENTE QUE REQUER CUIDADO IMEDIATO E PODE RESULTAR EM INTERNAÇÃO OU NÃO.","cd_identificador_esfera_administrativa_equipamento":1,"nm_esfera_administrativa_equipamento":"Municipal","tx_esfera_administrativa_equipamento":"Administração municipal","cd_equipamento":"1008","nm_equipamento":"UPA VILA MARIA - DR JOSE MAURO DEL ROIO CORREA","tx_endereco_equipamento":"PRAÇA ENGENHEIRO HUGO BRANDI, 15","nm_bairro_equipamento":"VILA MARIA BAIXA","cd_cep_equipamento":"02168-050","tx_horario_funcionamento":null,"tx_numero_telefone":"3500-2560","cd_equipamento_base_origem":null}},{"type":"Feature","id":"equipamento_saude_urgencia_emergencia_v2.121028","geometry":{"type":"Point","coordinates":[332386.864,7389557.568]},"geometry_name":"ge_ponto","properties":{"cd_identificador":121028,"cd_identificador_tema_equipamento":6,"nm_tema_equipamento":"SAUDE","cd_identificador_rede_equipamento":0,"nm_rede_equipamento":"SEM REDE","tx_rede_equipamento":"Sem descrição","cd_identificador_tipo_equipamento":38,"nm_tipo_equipamento":"Pronto Atendimento","tx_tipo_equipamento":"Atendimento de urgência dentro do horário de funcionamento do estabelecimento de saúde.","cd_identificador_classe_equipamento":6,"nm_classe_equipamento":"URGÊNCIA/EMERGÊNCIA","tx_classe_equipamento":"ATENDE PACIENTE QUE REQUER CUIDADO IMEDIATO E PODE RESULTAR EM INTERNAÇÃO OU NÃO.","cd_identificador_esfera_administrativa_equipamento":1,"nm_esfera_administrativa_equipamento":"Municipal","tx_esfera_administrativa_equipamento":"Administração municipal","cd_equipamento":"1034","nm_equipamento":"UPA VILA MARIANA","tx_endereco_equipamento":"R. DIOGO DE FARIA, 609","nm_bairro_equipamento":"V CLEMENTINO","cd_cep_equipamento":"04037-002","tx_horario_funcionamento":null,"tx_numero_telefone":"3245-9010","cd_equipamento_base_origem":null}},{"type":"Feature","id":"equipamento_saude_urgencia_emergencia_v2.121029","geometry":{"type":"Point","coordinates":[331361.446,7382802.562]},"geometry_name":"ge_ponto","properties":{"cd_identificador":121029,"cd_identificador_tema_equipamento":6,"nm_tema_equipamento":"SAUDE","cd_identificador_rede_equipamento":0,"nm_rede_equipamento":"SEM REDE","tx_rede_equipamento":"Sem descrição","cd_identificador_tipo_equipamento":38,"nm_tipo_equipamento":"Pronto Atendimento","tx_tipo_equipamento":"Atendimento de urgência dentro do horário de funcionamento do estabelecimento de saúde.","cd_identificador_classe_equipamento":6,"nm_classe_equipamento":"URGÊNCIA/EMERGÊNCIA","tx_classe_equipamento":"ATENDE PACIENTE QUE REQUER CUIDADO IMEDIATO E PODE RESULTAR EM INTERNAÇÃO OU NÃO.","cd_identificador_esfera_administrativa_equipamento":1,"nm_esfera_administrativa_equipamento":"Municipal","tx_esfera_administrativa_equipamento":"Administração municipal","cd_equipamento":"471","nm_equipamento":"UPA VILA SANTA CATARINA","tx_endereco_equipamento":"R. CIDADE DE BAGDÁ, 529","nm_bairro_equipamento":"JARDIM MIRA","cd_cep_equipamento":"04377-036","tx_horario_funcionamento":null,"tx_numero_telefone":"5671-9200","cd_equipamento_base_origem":null}}],"totalFeatures":53,"numberMatched":53,"numberReturned":53,"timeStamp":"2026-05-16T19:09:29.328Z","crs":{"type":"name","properties":{"name":"urn:ogc:def:crs:EPSG::31983"}}}